{"type":"FeatureCollection","features":[{"type":"Feature","properties":{"name":"Bunker Militär-Museum Kossa","tourism":"museum"},"geometry":{"type":"Point","coordinates":[12.7196884,51.642816]},"id":"105840448"},{"type":"Feature","properties":{"name":"Waldheimer Stadtmuseum","tourism":"museum"},"geometry":{"type":"Point","coordinates":[13.0247945,51.071079]},"id":"224142191"},{"type":"Feature","properties":{"name":"Sächsisches Brauereimuseum Rechenberg","tourism":"museum"},"geometry":{"type":"Point","coordinates":[13.5571646,50.7364994]},"id":"224521195"},{"type":"Feature","properties":{"addr:housenumber":"3","website":"www.ddfm.de","phone":"+49 35841 35 469","name":"Deutsches Damast- und Frottiermuseum","tourism":"museum","addr:street":"Schenaustraße","addr:postcode":"02779","addr:city":"Großschönau"},"geometry":{"type":"Point","coordinates":[14.6609401,50.8995156]},"id":"225975043"},{"type":"Feature","properties":{"name":"Technik- und Motorradmuseum","tourism":"museum"},"geometry":{"type":"Point","coordinates":[14.6655573,50.8994483]},"id":"225975048"},{"type":"Feature","properties":{"addr:housenumber":"16","addr:country":"DE","name":"Dorfmuseum \"Sättlerhaus\"","tourism":"museum","addr:street":"Schulstraße","addr:postcode":"09432","addr:city":"Großolbersdorf"},"geometry":{"type":"Point","coordinates":[13.0905575,50.6916012]},"id":"251794423"},{"type":"Feature","properties":{"wheelchair":"yes","addr:country":"DE","tourism":"museum","addr:postcode":"04229","addr:city":"Leipzig","addr:housenumber":"34","contact:phone":"+49 341 231620","name":"Museum für Druckkunst","opening_hours":"Mo-Fr 10:00-17:00; Sa off; Su 11:00-17:00","addr:street":"Nonnenstraße","wikipedia":"de:Museum für Druckkunst","wikidata":"Q1954612","contact:website":"http://www.druckkunst-museum.de/"},"geometry":{"type":"Point","coordinates":[12.3436588,51.3291145]},"id":"252440258"},{"type":"Feature","properties":{"wheelchair":"yes","website":"http://www.hdg.de/leipzig/","addr:country":"DE","fee":"no","tourism":"museum","contact:email":"zfl@hdg.de","addr:postcode":"04109","operator":"Stiftung Haus der Geschichte der Bundesrepublik Deutschland","addr:city":"Leipzig","addr:housenumber":"6","opening_hours:url":"http://www.hdg.de/leipzig/","contact:phone":"+49 341 22200","phone":"+49 341 22200","name":"Zeitgeschichtliches Forum","opening_hours":"Mo off, Tu-Fr 09:00-18:00, Sa-Su 10:00-18:00","addr:street":"Grimmaische Straße","wikipedia":"de:Zeitgeschichtliches Forum Leipzig","wikidata":"Q186043","contact:website":"http://www.hdg.de/leipzig/","email":"zfl@hdg.de","name:zh":"萊比錫現代史博物館","start_date":"1999"},"geometry":{"type":"Point","coordinates":[12.3757292,51.3397893]},"id":"257021574"},{"type":"Feature","properties":{"image":"http://commons.wikimedia.org/wiki/File:Kalkwerk_Lengefeld_Miebner_2010.jpg","wheelchair":"no","historic":"yes","man_made":"mineshaft","name":"Kalkwerk Lengefeld","tourism":"museum","wikipedia":"de:Kalkwerk Lengefeld","disused":"yes","wikidata":"Q1722422","wikimedia_commons":"Category:Kalkwerk Lengefeld","url":"http://www.kalkwerk-lengefeld.de/"},"geometry":{"type":"Point","coordinates":[13.1747112,50.700752]},"id":"257414238"},{"type":"Feature","properties":{"name":"Städtisches Zentrum für Geschichte und Kunst","tourism":"museum","wheelchair":"yes"},"geometry":{"type":"Point","coordinates":[13.3159016,51.2986761]},"id":"257679437"},{"type":"Feature","properties":{"name":"Völkerkundemuseum","tourism":"museum","website":"http://www.voelkerkunde-herrnhut.de/","phone":"+49 35873 2403"},"geometry":{"type":"Point","coordinates":[14.7406504,51.0190636]},"id":"259694631"},{"type":"Feature","properties":{"addr:housenumber":"1","addr:country":"DE","name":"Uhrenhof","tourism":"museum","addr:street":"Auf dem Kaltenstein","addr:postcode":"02785","addr:city":"Olbersdorf"},"geometry":{"type":"Point","coordinates":[14.7769184,50.8718256]},"id":"260988220"},{"type":"Feature","properties":{"name":"Vogtlandmuseum","tourism":"museum","wheelchair":"limited"},"geometry":{"type":"Point","coordinates":[12.1341938,50.4936492]},"id":"261116909"},{"type":"Feature","properties":{"name":"Freilichtmuseum Eubabrunn","opening_hours":"Tu-Su 10:00-17:00","tourism":"museum","website":"http://www.freilichtmuseum-eubabrunn.de"},"geometry":{"type":"Point","coordinates":[12.3787781,50.3068534]},"id":"264129206"},{"type":"Feature","properties":{"name":"Feldbahnmuseum","tourism":"museum","website":"http://www.feldbahnmuseum-herrenleite.de/"},"geometry":{"type":"Point","coordinates":[13.9931348,50.9723822]},"id":"264246245"},{"type":"Feature","properties":{"name":"Lochmühle","tourism":"museum"},"geometry":{"type":"Point","coordinates":[12.4366358,50.6183248]},"id":"264699862"},{"type":"Feature","properties":{"name":"Hermann-Vogel-Haus","tourism":"museum"},"geometry":{"type":"Point","coordinates":[11.9881447,50.4189908]},"id":"267778819"},{"type":"Feature","properties":{"addr:housenumber":"6","name":"THM Textil und Rennsportmuseeum Hohenstein Ernstthal","tourism":"museum","addr:street":"Antonstraße","addr:postcode":"09337","addr:city":"Hohenstein-Ernstthal"},"geometry":{"type":"Point","coordinates":[12.7105918,50.7985213]},"id":"267826939"},{"type":"Feature","properties":{"addr:housenumber":"7","name":"Weihnachtsberg","opening_hours":"Nov-Jan: Mo-Fr 16:00-17:00; Nov-Jan: Sa,Su 10:00-11:30,13:00-17:00; Feb-Oct: \"Nach Vereinbarung\"","tourism":"museum","addr:street":"Windmühlenweg","addr:postcode":"08297","url":"http://www.bruenlos.de/Bilder/Weihnachtsberg/weihnachtsberg.html","addr:city":"Zwönitz"},"geometry":{"type":"Point","coordinates":[12.8175356,50.6919143]},"id":"269374449"},{"type":"Feature","properties":{"name":"Kulturhistorisches Museum Franziskanerkloster","tourism":"museum","wheelchair":"yes"},"geometry":{"type":"Point","coordinates":[14.8085052,50.8979665]},"id":"270181916"},{"type":"Feature","properties":{"name":"Curt-Heinke-Museum für Geologie","tourism":"museum","wheelchair":"no"},"geometry":{"type":"Point","coordinates":[14.8072631,50.8976087]},"id":"270181922"},{"type":"Feature","properties":{"name":"Richard-Wagner-Museum","tourism":"museum","wheelchair":"no","website":"http://www.richardwagnermuseum.de"},"geometry":{"type":"Point","coordinates":[13.9204007,51.00011]},"id":"271796355"},{"type":"Feature","properties":{"name":"Puppenmuseum","tourism":"museum","wheelchair":"limited"},"geometry":{"type":"Point","coordinates":[14.6186119,50.9300337]},"id":"277953985"},{"type":"Feature","properties":{"name":"Barockhaus","name:pl":"Muzeum Historyczno-Kulturalne","tourism":"museum","name:en":"Museum of Cultural History and the Upper Lusatian Scientific Library"},"geometry":{"type":"Point","coordinates":[14.9917625,51.1563346]},"id":"279104559"},{"type":"Feature","properties":{"wheelchair":"yes","website":"http://www.senckenberg.de/root/index.php?page_id=5257","tourism":"museum","operator":"Senckenberg Gesellschaft für Naturforschung","toilets:wheelchair":"yes","alt_name":"Senckenberg Museum für Naturkunde Görlitz","name:de":"Senckenberg Museum für Naturkunde Görlitz","name":"Naturkundemuseum","opening_hours":"Tu-Fr 10:00-17:00; Sa-Su 10:00-18:00","name:en":"Senckenberg Museum of Natural History Goerlitz","wikipedia":"de:Senckenberg Museum für Naturkunde Görlitz","wikidata":"Q2269936"},"geometry":{"type":"Point","coordinates":[14.9867889,51.1534317]},"id":"279105270"},{"type":"Feature","properties":{"wheelchair":"no","addr:housenumber":"4","website":"http://www.schlesisches-museum.de","name":"Schlesisches Museum","name:pl":"Muzeum Śląskie","tourism":"museum","name:en":"Silesian Museum","addr:street":"Untermarkt","addr:postcode":"02826","addr:city":"Görlitz"},"geometry":{"type":"Point","coordinates":[14.9904903,51.1559807]},"id":"279567833"},{"type":"Feature","properties":{"name":"Heimatmuseum","tourism":"museum","operator":"Stadt Markranstädt"},"geometry":{"type":"Point","coordinates":[12.2216682,51.3017346]},"id":"286035080"},{"type":"Feature","properties":{"name":"Dresdner Kinder-Museum","tourism":"museum","wheelchair":"yes","source_ref":"http://www.dhmd.de/neu/index.php?id=655"},"geometry":{"type":"Point","coordinates":[13.7460153,51.0442287]},"id":"287150841"},{"type":"Feature","properties":{"name":"Bulldog-Museum","opening_hours":"Su 13:00-17:00","tourism":"museum","wheelchair":"limited","operator":"Bulldogfreunde Erzgebirge e. V."},"geometry":{"type":"Point","coordinates":[12.9176429,50.7338083]},"id":"287910496"},{"type":"Feature","properties":{"name":"Heimatmuseum Gerth-Turm","opening_hours":"\"jeden 1. Samstag im Monat \"","tourism":"museum","wheelchair":"no"},"geometry":{"type":"Point","coordinates":[12.6225928,50.7844212]},"id":"287996729"},{"type":"Feature","properties":{"addr:housenumber":"193","addr:country":"DE","name":"Tetzner Museum","opening_hours":"We 15:00-18:00; Su 13:30-18:00","tourism":"museum","addr:street":"Hauptstraße","addr:postcode":"09355","operator":"Gemeinde Gersdorf","addr:city":"Gersdorf"},"geometry":{"type":"Point","coordinates":[12.7091028,50.7599287]},"id":"288011291"},{"type":"Feature","properties":{"name":"Eisenbahnmuseum Leipzig","tourism":"museum","website":"http://dampfbahnmuseum.de/"},"geometry":{"type":"Point","coordinates":[12.3174874,51.3125034]},"id":"288137438"},{"type":"Feature","properties":{"name":"Oldtimermuseum","tourism":"museum","wheelchair":"yes","website":"http://www.michaelis-leipzig.de/index.php?id=da-capo"},"geometry":{"type":"Point","coordinates":[12.3263853,51.3290635]},"id":"289650425"},{"type":"Feature","properties":{"wheelchair":"yes","website":"http://www.stmd.de/","phone":"+49 351 4887301","name":"Stadtmuseum Dresden","opening_hours":"Tu-Su 10:00-18:00; Fr 10:00-19:00","tourism":"museum","operator":"Landeshauptstadt Dresden"},"geometry":{"type":"Point","coordinates":[13.7430815,51.0502003]},"id":"289987590"},{"type":"Feature","properties":{"name":"Zisterziensernonnenkloster","tourism":"museum","source":"www.kloster-frankenhausen.de/","religion":"christian"},"geometry":{"type":"Point","coordinates":[12.3953888,50.8417216]},"id":"295467139"},{"type":"Feature","properties":{"name":"Karasek-Museum","tourism":"museum","website":"www.karaseks-revier.de"},"geometry":{"type":"Point","coordinates":[14.6085227,50.9349933]},"id":"295659565"},{"type":"Feature","properties":{"name":"Heimatmuseum","tourism":"museum"},"geometry":{"type":"Point","coordinates":[12.4667756,50.8495657]},"id":"296372122"},{"type":"Feature","properties":{"wheelchair":"yes","website":"http://www.naturkunde-chemnitz.de","addr:country":"DE","tourism":"museum","addr:postcode":"09111","addr:city":"Chemnitz","addr:housenumber":"20","phone":"+493714884551","name":"Museum für Naturkunde Chemnitz","addr:street":"Moritzstraße","wikipedia":"de:Museum für Naturkunde Chemnitz","wikidata":"Q1253547"},"geometry":{"type":"Point","coordinates":[12.9232767,50.8313692]},"id":"297470198"},{"type":"Feature","properties":{"name":"Stadtmuseum","tourism":"museum"},"geometry":{"type":"Point","coordinates":[12.8035006,50.9191265]},"id":"301204857"},{"type":"Feature","properties":{"name":"Granitabbaumuseum","tourism":"museum","wheelchair":"no"},"geometry":{"type":"Point","coordinates":[14.8488164,51.1932813]},"id":"302686164"},{"type":"Feature","properties":{"wheelchair":"limited","addr:housenumber":"2","addr:country":"DE","name":"Stadtmuseum Pirna","tourism":"museum","addr:street":"Klosterhof","addr:postcode":"01796","addr:city":"Pirna"},"geometry":{"type":"Point","coordinates":[13.9391753,50.9636114]},"id":"303430216"},{"type":"Feature","properties":{"name":"Bagger 1452 - SRS 1200","tourism":"museum","wikipedia":"de:Bagger 1452","man_made":"crane","wikidata":"Q799878"},"geometry":{"type":"Point","coordinates":[14.9576915,51.0674018]},"id":"306457148"},{"type":"Feature","properties":{"name":"Bauernmuseum","tourism":"museum","operator":"Kurt Vogel","fee":"no"},"geometry":{"type":"Point","coordinates":[13.0552476,50.8661511]},"id":"310236395"},{"type":"Feature","properties":{"addr:suburb":"Pockau","addr:housenumber":"5b","website":"http://www.pockau.de/Oelmuehle.htm","contact:phone":"+49 37367 31319","addr:country":"DE","name":"Technisches Museum Ölmühle Pockau","opening_hours":"May 15-Oct 15: We 15:00-16:00; Sa 09:00-11:00,14:00-16:00","tourism":"museum","addr:street":"Mühlenweg","addr:postcode":"09509","addr:city":"Pockau-Lengefeld"},"geometry":{"type":"Point","coordinates":[13.2287526,50.6993989]},"id":"312594567"},{"type":"Feature","properties":{"name":"Schillerhäuschen","tourism":"museum"},"geometry":{"type":"Point","coordinates":[13.8131069,51.057588]},"id":"316710908"},{"type":"Feature","properties":{"name":"Straßenbahnmuseum","tourism":"museum","wheelchair":"limited","museum":"railway"},"geometry":{"type":"Point","coordinates":[12.889092,50.8223808]},"id":"316817058"},{"type":"Feature","properties":{"name":"Lapidarium","opening_hours":"Mo-Su 10:00-18:00","tourism":"museum"},"geometry":{"type":"Point","coordinates":[13.0093343,51.5590928]},"id":"321206144"},{"type":"Feature","properties":{"name":"Naturkundemuseum","tourism":"museum","wheelchair":"yes"},"geometry":{"type":"Point","coordinates":[13.0992828,50.8126236]},"id":"322482610"},{"type":"Feature","properties":{"name":"Motorradmuseum","tourism":"museum","wheelchair":"yes"},"geometry":{"type":"Point","coordinates":[13.0995792,50.8126935]},"id":"322482611"},{"type":"Feature","properties":{"name":"Museum Alte Ziegelei","tourism":"museum"},"geometry":{"type":"Point","coordinates":[12.7678202,50.7346169]},"id":"323746703"},{"type":"Feature","properties":{"name":"Kreismuseum","tourism":"museum"},"geometry":{"type":"Point","coordinates":[13.0082813,51.5589268]},"id":"324170694"},{"type":"Feature","properties":{"addr:housenumber":"4","museum":"railway","addr:country":"DE","name":"Schmalspurbahnmuseum","tourism":"museum","addr:street":"Am Alten Güterboden","addr:postcode":"01445","addr:city":"Radebeul"},"geometry":{"type":"Point","coordinates":[13.6811802,51.0985582]},"id":"330057061"},{"type":"Feature","properties":{"wheelchair":"yes","website":"http://www.strassenbahnmuseum-dresden.de/","name":"Straßenbahnmuseum Dresden e.V.","tourism":"museum","wikipedia":"de:Straßenbahnmuseum Dresden","wikidata":"Q2354751"},"geometry":{"type":"Point","coordinates":[13.7291916,51.0862633]},"id":"330099299"},{"type":"Feature","properties":{"name":"Pferdegöpel Rudolphschacht","tourism":"museum"},"geometry":{"type":"Point","coordinates":[13.1439237,50.6631256]},"id":"331599457"},{"type":"Feature","properties":{"wheelchair":"limited","addr:housenumber":"1","website":"http://www.plauen.de/spitzenmuseum","phone":"+49 3741 222355","name":"Plauener Spitzenmuseum","tourism":"museum","addr:street":"Unterer Graben","addr:postcode":"08523","addr:city":"Plauen"},"geometry":{"type":"Point","coordinates":[12.1356103,50.4941593]},"id":"331725290"},{"type":"Feature","properties":{"name":"Alte Weberstube","tourism":"museum"},"geometry":{"type":"Point","coordinates":[14.6578769,51.0548567]},"id":"336467599"},{"type":"Feature","properties":{"wheelchair":"limited","addr:housenumber":"18","addr:country":"DE","name":"Töpfermuseum","opening_hours":"Tu-Su 13:00-17:00","tourism":"museum","addr:street":"Baumgartenstraße","addr:postcode":"04655","addr:city":"Kohren-Sahlis"},"geometry":{"type":"Point","coordinates":[12.602365,51.018155]},"id":"338359196"},{"type":"Feature","properties":{"name":"Samendarre","tourism":"museum"},"geometry":{"type":"Point","coordinates":[13.875953,51.2456715]},"id":"342004830"},{"type":"Feature","properties":{"name":"Stadtmuseum","tourism":"museum"},"geometry":{"type":"Point","coordinates":[14.0122489,51.1826418]},"id":"343502300"},{"type":"Feature","properties":{"name":"Vogtländisches Freilichtmuseum Landwüst","opening_hours":"Apr-Nov Tu-Su,PH 10:00-17:00; Dez-Mar Sa,Su 10:00-16:00","tourism":"museum","wheelchair":"limited","website":"http://www.vogtlaendisches-freilichtmuseum.de/"},"geometry":{"type":"Point","coordinates":[12.3312683,50.2697074]},"id":"345421273"},{"type":"Feature","properties":{"name":"Musikwerkausstellung","tourism":"museum"},"geometry":{"type":"Point","coordinates":[12.3444923,50.3179729]},"id":"350326599"},{"type":"Feature","properties":{"name":"Framus-Werksmuseum","tourism":"museum","wheelchair":"no","addr:housenumber":"25","addr:street":"Adorfer Straße"},"geometry":{"type":"Point","coordinates":[12.3220333,50.3104312]},"id":"350326606"},{"type":"Feature","properties":{"name":"Heimatmuseum","tourism":"museum"},"geometry":{"type":"Point","coordinates":[14.8067216,51.1405305]},"id":"354887704"},{"type":"Feature","properties":{"wheelchair":"yes","addr:housenumber":"7","addr:country":"DE","name":"Automobilmuseum August Horch","opening_hours":"Tu-Su 09:30-17:00","tourism":"museum","addr:street":"Audistraße","addr:postcode":"08058","addr:city":"Zwickau"},"geometry":{"type":"Point","coordinates":[12.4838652,50.7329475]},"id":"355984518"},{"type":"Feature","properties":{"wheelchair":"no","addr:housenumber":"20","website":"http://www.schulmuseum-leipzig.de","addr:country":"DE","name":"Schulmuseum","opening_hours":"Mo-Fr 09:00-16:00","tourism":"museum","addr:street":"Goerdelerring","addr:postcode":"04109","addr:city":"Leipzig"},"geometry":{"type":"Point","coordinates":[12.3701826,51.3421945]},"id":"358346523"},{"type":"Feature","properties":{"wheelchair":"yes","addr:housenumber":"1","website":"http://www.stadtgeschichtliches-museum-leipzig.de/","addr:country":"DE","name":"Stadtgeschichtliches Museum","opening_hours":"Tu-Su 10:00-18:00; PH 10:00-18:00","tourism":"museum","addr:street":"Markt","addr:postcode":"04109","addr:city":"Leipzig"},"geometry":{"type":"Point","coordinates":[12.3753681,51.3402833]},"id":"359551140"},{"type":"Feature","properties":{"name":"Schlossmuseum","tourism":"museum"},"geometry":{"type":"Point","coordinates":[12.558521,51.0541682]},"id":"368402470"},{"type":"Feature","properties":{"wheelchair":"yes","website":"http://www.skd.museum/de/museen-institutionen/residenzschloss/gruenes-gewoelbe/index.html","level":"0","phone":"+49 351 49142000","name":"Historisches Grünes Gewölbe","opening_hours":"Mo-Su 10:00-18:00; Tu off","tourism":"museum","wikipedia":"de:Grünes Gewölbe","wikidata":"Q707407","operator":"Staatliche Kunstsammlungen Dresden"},"geometry":{"type":"Point","coordinates":[13.7362897,51.0526212]},"id":"368970156"},{"type":"Feature","properties":{"name":"Volkskunde- und Mühlenmuseum","tourism":"museum"},"geometry":{"type":"Point","coordinates":[14.6492402,50.8691234]},"id":"370072136"},{"type":"Feature","properties":{"addr:housenumber":"68","website":"http://www.museum-sagar.de/","phone":"(035771) 60896","addr:country":"DE","name":"Handwerk- und Gewerbemuseum Sagar","tourism":"museum","addr:street":"Skerbersdorfer Straße","fax":"(035771) 64744","addr:postcode":"02957","email":"info@museum-sagar.de","addr:city":"Krauschwitz"},"geometry":{"type":"Point","coordinates":[14.7632903,51.5163896]},"id":"374057222"},{"type":"Feature","properties":{"name":"Neuberin Museum","tourism":"museum","wheelchair":"no"},"geometry":{"type":"Point","coordinates":[12.3047262,50.6200342]},"id":"378357763"},{"type":"Feature","properties":{"addr:suburb":"Großerkmannsdorf","addr:housenumber":"51a","addr:country":"DE","name":"Heimatstube Großerkmannsdorf","tourism":"museum","addr:street":"Alte Hauptstraße","addr:postcode":"01454","addr:city":"Radeberg"},"geometry":{"type":"Point","coordinates":[13.9242393,51.0874312]},"id":"386268975"},{"type":"Feature","properties":{"name":"Lazarettmuseum","tourism":"museum","wheelchair":"limited"},"geometry":{"type":"Point","coordinates":[12.5194938,51.2928629]},"id":"391611980"},{"type":"Feature","properties":{"name":"Stadtmuseum","opening_hours":"Tu-Th 10:00-16:00, Fr 10:00-14:00, Sa,Su,PH 13:00-17:00","tourism":"museum","wheelchair":"no"},"geometry":{"type":"Point","coordinates":[14.2155799,51.0270549]},"id":"392406987"},{"type":"Feature","properties":{"addr:suburb":"Naundorf","addr:housenumber":"30","website":"http://www.robert-sterl-haus.de/","phone":"+49 351 2501275","addr:country":"DE","name":"Robert-Sterl-Haus","tourism":"museum","addr:street":"Robert-Sterl-Straße","disused":"yes","addr:postcode":"01796","addr:city":"Struppen"},"geometry":{"type":"Point","coordinates":[14.0386713,50.9540581]},"id":"394803544"},{"type":"Feature","properties":{"name":"Mühlenmuseum","tourism":"museum","website":"http://www.zschoner-muehle.de/","man_made":"watermill"},"geometry":{"type":"Point","coordinates":[13.6408582,51.0588837]},"id":"399522100"},{"type":"Feature","properties":{"lastcheck":"2016-11-04","wheelchair":"no","addr:country":"DE","tourism":"museum","addr:postcode":"01187","operator":"IG Bahnbetriebswerk Dresden-Altstadt e.V.","addr:city":"Dresden","addr:housenumber":"86","museum":"railway","name":"Eisenbahn Museum Dresden","addr:street":"Zwickauer Straße","contact:website":"http://www.igbwdresdenaltstadt.de/"},"geometry":{"type":"Point","coordinates":[13.7117738,51.0387571]},"id":"399805934"},{"type":"Feature","properties":{"wheelchair":"yes","addr:housenumber":"12","website":"http://www.schlossbergmuseum.de","name":"Schloßbergmuseum Chemnitz","opening_hours":"Tu-Su,PH 11:00-18:00","tourism":"museum","addr:street":"Schloßberg","wikipedia":"de:Schloßbergmuseum Chemnitz","addr:postcode":"09113","wikidata":"Q2244892","addr:city":"Chemnitz"},"geometry":{"type":"Point","coordinates":[12.9149921,50.8451796]},"id":"412860192"},{"type":"Feature","properties":{"name":"Sterzeleanum im Naturkundemuseum","tourism":"museum","wheelchair":"yes","historic":"Steinerner Wald"},"geometry":{"type":"Point","coordinates":[12.9229836,50.8311785]},"id":"414142987"},{"type":"Feature","properties":{"name":"Neue Sächsische Galerie Chemnitz","tourism":"museum","wheelchair":"yes","website":"http://www.neue-saechsische-galerie.de/"},"geometry":{"type":"Point","coordinates":[12.9228355,50.83112]},"id":"414142989"},{"type":"Feature","properties":{"wheelchair":"limited","addr:housenumber":"212","phone":"+49 341 8780471","addr:country":"DE","name":"Museum am Völkerschlachtdenkmal","tourism":"museum","addr:street":"Prager Straße","addr:postcode":"04299","addr:city":"Leipzig"},"geometry":{"type":"Point","coordinates":[12.4122658,51.3121728]},"id":"416044810"},{"type":"Feature","properties":{"name":"Bademuseum","tourism":"museum","wheelchair":"yes"},"geometry":{"type":"Point","coordinates":[12.24001,50.2809415]},"id":"416569468"},{"type":"Feature","properties":{"addr:suburb":"Braunsdorf","addr:housenumber":"16","phone":"+49 37206 899800","addr:country":"DE","name":"Schauweberei Tannenhauer","opening_hours":"We-Su 11:00-17:00; Nov-Apr off","tourism":"museum","addr:street":"Inselsteig","addr:postcode":"09577","addr:city":"Niederwiesa"},"geometry":{"type":"Point","coordinates":[13.026777,50.8751085]},"id":"417613950"},{"type":"Feature","properties":{"image":"http://geo.hlipp.de/photo/9201","resource":"silver","name":"Bartholomäusschacht","description":"Rekonstruiertes Schaubergwerk","tourism":"museum","heritage":"4","ref:lfd":"09208635","heritage:operator":"lfd","abandoned:man_made":"mineshaft","wikimedia_commons":"Category:Bartholomäusschacht","start_date":"1529"},"geometry":{"type":"Point","coordinates":[13.3194381,50.8602974]},"id":"429661269"},{"type":"Feature","properties":{"name":"Heimatmuseum","opening_hours":"Tu,Th 10:00-17:00; We 09:00-15:00; Sa 14:00-17:00","tourism":"museum","wheelchair":"limited"},"geometry":{"type":"Point","coordinates":[12.6960737,51.0533764]},"id":"443725166"},{"type":"Feature","properties":{"name":"Dorfmuseum","tourism":"museum"},"geometry":{"type":"Point","coordinates":[13.00745,51.4725275]},"id":"447875702"},{"type":"Feature","properties":{"addr:housenumber":"49","name":"Bürsten- und Heimatmuseum","tourism":"museum","addr:street":"Hauptstraße","addr:postcode":"08304","addr:city":"Schönheide"},"geometry":{"type":"Point","coordinates":[12.5343862,50.5033634]},"id":"449121571"},{"type":"Feature","properties":{"name":"Bauernmuseum","tourism":"museum"},"geometry":{"type":"Point","coordinates":[12.5371259,51.0681147]},"id":"451731521"},{"type":"Feature","properties":{"wheelchair":"no","website":"http://www.deutsches-stuhlbaumuseum.de","phone":"+49 351 6413611","name":"Deutsches Stuhlbaumuseum","opening_hours":"Tu-Th 10:00-16:00; Fr 10:00-14:00; Su,PH 13:00-17:00","tourism":"museum"},"geometry":{"type":"Point","coordinates":[13.6408531,50.9625]},"id":"454119547"},{"type":"Feature","properties":{"name:hsb":"Šulski muzej „Korla Awgust Kocor“","addr:housenumber":"30","addr:country":"DE","name":"Schulmuseum „Korla Awgust Kocor“","tourism":"museum","addr:street":"Warthaer Dorfstraße","addr:postcode":"02694","contact:website":"www.schulmuseum-wartha.de","addr:city":"Malschwitz"},"geometry":{"type":"Point","coordinates":[14.5842132,51.2745462]},"id":"460422854"},{"type":"Feature","properties":{"name":"Schmalspurbahnmuseum Löthain","tourism":"museum"},"geometry":{"type":"Point","coordinates":[13.4071426,51.139475]},"id":"476903914"},{"type":"Feature","properties":{"name":"Schleinitz","tourism":"museum"},"geometry":{"type":"Point","coordinates":[13.2736799,51.1636119]},"id":"477285632"},{"type":"Feature","properties":{"name":"Technisches Museum der Bandweberei","tourism":"museum","wheelchair":"yes"},"geometry":{"type":"Point","coordinates":[14.0204839,51.1446133]},"id":"489368350"},{"type":"Feature","properties":{"name":"Heimatmuseum Neschwitz","opening_hours":"Su 13:00-17:00","name:hsb":"Domizniski muzej Njeswaćidło","tourism":"museum"},"geometry":{"type":"Point","coordinates":[14.3285166,51.2712678]},"id":"495354103"},{"type":"Feature","properties":{"wheelchair":"yes","website":"http://www.skd.museum/de/museen-institutionen/zwinger-mit-semperbau/gemaeldegalerie-alte-meister/index.html","name:uk":"Дрезденська картинна галерея","name:pl":"Galeria Obrazów Starych Mistrzów","tourism":"museum","name:ru":"Дрезденская галерея старых мастеров","addr:housenumber":"1","name:de":"Gemäldegalerie Alte Meister","name:lt":"Senųjų meistrų paveikslų galerija","phone":"+49 351 49142 000","name":"Gemäldegalerie Alte Meister","opening_hours":"Tu-Su 10:00-18:00","addr:street":"Theaterplatz","wikipedia":"de:Gemäldegalerie Alte Meister","wikidata":"Q4890"},"geometry":{"type":"Point","coordinates":[13.7346385,51.0534657]},"id":"498754143"},{"type":"Feature","properties":{"name":"Geoportal Museum","tourism":"museum"},"geometry":{"type":"Point","coordinates":[12.9192222,51.4017437]},"id":"499580843"},{"type":"Feature","properties":{"name":"Museum","tourism":"museum","wheelchair":"no"},"geometry":{"type":"Point","coordinates":[13.0646309,50.6547598]},"id":"502399251"},{"type":"Feature","properties":{"addr:suburb":"Dittelsdorf","addr:housenumber":"31","addr:country":"DE","name":"Museum Dittelsdorf","tourism":"museum","addr:street":"Hirschfelder Straße","addr:postcode":"02788","addr:city":"Zittau"},"geometry":{"type":"Point","coordinates":[14.8775957,50.9532889]},"id":"503562229"},{"type":"Feature","properties":{"website":"www.nussknackermuseum-neuhausen.de","shop":"folk_art","addr:country":"DE","tourism":"museum","source":"survey, georef picture","addr:postcode":"09544","addr:city":"Neuhausen/Erzgeb.","addr:housenumber":"20-24","phone":"+49 37361 4161","name":"Nußknackermuseum","opening_hours":"Mo-Fr 09:00-18:00; Sa,Su,PH 09:00-17:00","addr:street":"Bahnhofstraße","fax":"+49 37361 14876","email":"info@nussknackermuseum-neuhausen.de"},"geometry":{"type":"Point","coordinates":[13.4668295,50.6766212]},"id":"504578741"},{"type":"Feature","properties":{"addr:housenumber":"20-24","phone":"+49 37361 4161","addr:country":"DE","name":"technisches Museum \"Alte Stuhlfabrik\"","opening_hours":"Mo-Fr 09:00-18:00; Sa,Su,PH 09:00-17:00","tourism":"museum","addr:street":"Bahnhofstraße","source":"survey, georef picture","fax":"+49 37361 14876","addr:postcode":"09544","addr:city":"Neuhausen/Erzgeb."},"geometry":{"type":"Point","coordinates":[13.4668437,50.6766758]},"id":"504578812"},{"type":"Feature","properties":{"addr:housenumber":"14","phone":"+49 35241 51490","addr:country":"DE","name":"Stadtmuseum Lommatzsch","opening_hours":"Tu-Th 10:00-16:00; Fr 10:00-14:00; Sa,Su 14:00-16:00","tourism":"museum","addr:street":"Am Markt","addr:postcode":"01623","addr:city":"Lommatzsch"},"geometry":{"type":"Point","coordinates":[13.3090177,51.1973538]},"id":"506496470"},{"type":"Feature","properties":{"name":"Dorfmuseum des Heimatvereins Eckartsberg","tourism":"museum"},"geometry":{"type":"Point","coordinates":[14.8128149,50.9193652]},"id":"510981125"},{"type":"Feature","properties":{"name":"Heimatverein Rückmarsdorf","tourism":"museum"},"geometry":{"type":"Point","coordinates":[12.2583387,51.3462947]},"id":"511183317"},{"type":"Feature","properties":{"name":"Spirituosenmuseum","tourism":"museum","wheelchair":"limited"},"geometry":{"type":"Point","coordinates":[12.6933529,50.5337871]},"id":"519177218"},{"type":"Feature","properties":{"name":"Berghaus","tourism":"museum"},"geometry":{"type":"Point","coordinates":[12.9292352,50.6491694]},"id":"519915280"},{"type":"Feature","properties":{"addr:housenumber":"45m","website":"http://www.ddr-museum-pirna.de","addr:country":"DE","name":"DDR Museum Pirna","tourism":"museum","addr:street":"Rottwerndorfer Straße","addr:postcode":"01796","addr:city":"Pirna"},"geometry":{"type":"Point","coordinates":[13.9438019,50.9439181]},"id":"523116189"},{"type":"Feature","properties":{"addr:housenumber":"21","website":"http://www.karl-hans-janke.de/","name":"Karl Hans Janke","tourism":"museum","addr:street":"Hubertusburg","addr:postcode":"04779","operator":"Rosengarten e. V.","addr:city":"Wermsdorf"},"geometry":{"type":"Point","coordinates":[12.9420937,51.2768391]},"id":"528922150"},{"type":"Feature","properties":{"wheelchair":"limited","website":"http://www.erich-kaestner-museum.de","phone":"+49 351 8045086","name":"Erich-Kästner-Museum","tourism":"museum","wikipedia":"de:Erich Kästner Museum","wikidata":"Q1352684"},"geometry":{"type":"Point","coordinates":[13.7456708,51.063768]},"id":"529290677"},{"type":"Feature","properties":{"name":"Heimatmuseum","tourism":"museum"},"geometry":{"type":"Point","coordinates":[14.8254836,51.0467531]},"id":"542489476"},{"type":"Feature","properties":{"name":"Agrarmuseum","tourism":"museum"},"geometry":{"type":"Point","coordinates":[14.5952719,51.0811115]},"id":"558516065"},{"type":"Feature","properties":{"image":"http://commons.wikimedia.org/wiki/File:Ottendorf_(Kirnitzschtal)_Neumannmühle_(04-2).jpg","wheelchair":"no","historic":"yes","man_made":"watermill","name":"Neumannmühle","tourism":"museum","heritage":"yes","wikipedia":"de:Neumannmühle (Sächsische Schweiz)","wikidata":"Q1626662"},"geometry":{"type":"Point","coordinates":[14.2840433,50.9236373]},"id":"560821679"},{"type":"Feature","properties":{"image":"https://commons.wikimedia.org/wiki/File%3AAudenhain_Paltrockmuehle.jpg","website":"http://muehlen-nordsachsen.de/cms/index.php?option=com_content&task=view&id=14&Itemid=33","man_made":"windmill","name":"Paltrockmühle Audenhain","tourism":"museum","heritage":"yes"},"geometry":{"type":"Point","coordinates":[12.8745842,51.505751]},"id":"565057709"},{"type":"Feature","properties":{"addr:suburb":"Innenstadt","wheelchair":"limited","addr:housenumber":"5-8","addr:country":"DE","name":"Priesterhäuser Zwickau","tourism":"museum","addr:street":"Domhof","addr:postcode":"08056","addr:city":"Zwickau"},"geometry":{"type":"Point","coordinates":[12.4945692,50.7175723]},"id":"567085597"},{"type":"Feature","properties":{"name":"Härtelhaus","tourism":"museum"},"geometry":{"type":"Point","coordinates":[12.5833288,50.7272477]},"id":"567344233"},{"type":"Feature","properties":{"name":"Museum im Saalbau","tourism":"museum"},"geometry":{"type":"Point","coordinates":[13.3014344,51.0581656]},"id":"575143914"},{"type":"Feature","properties":{"addr:housenumber":"18","website":"http://prellebruch.de","name":"Schauanlage und Museum der Granitindustrie e.V.","tourism":"museum","addr:street":"Dorfstraße","addr:postcode":"01920"},"geometry":{"type":"Point","coordinates":[14.0144422,51.247133]},"id":"603731605"},{"type":"Feature","properties":{"name":"Eisenbahnmuseum","tourism":"museum"},"geometry":{"type":"Point","coordinates":[12.7574347,50.9629161]},"id":"619124379"},{"type":"Feature","properties":{"name":"Sächsisches Feuerwehrmuseum Zeithain","tourism":"museum"},"geometry":{"type":"Point","coordinates":[13.3344299,51.3366411]},"id":"662296085"},{"type":"Feature","properties":{"name":"Heimatstube","tourism":"museum"},"geometry":{"type":"Point","coordinates":[14.8842213,51.0628362]},"id":"672868950"},{"type":"Feature","properties":{"wheelchair":"no","name":"Stadtmuseum","tourism":"museum","wheelchair:description":"Denkmal geschütztes Haus","addr:postcode":"04539","addr:city":"Groitzsch"},"geometry":{"type":"Point","coordinates":[12.2787426,51.1572163]},"id":"679653016"},{"type":"Feature","properties":{"name":"Gottfried-Silbermann-Museum","opening_hours":"Mo off; Tu-Su 10:00-16:00 || \"sowie nach Absprache\"","tourism":"museum"},"geometry":{"type":"Point","coordinates":[13.5388737,50.8035977]},"id":"681773696"},{"type":"Feature","properties":{"name":"Preßnitztalmuseum","opening_hours":"Su 13:30-16:30","tourism":"museum"},"geometry":{"type":"Point","coordinates":[13.1233255,50.5982783]},"id":"685645499"},{"type":"Feature","properties":{"addr:housenumber":"23","addr:country":"DE","name":"Naturschutzstation Plaussig","opening_hours":"Mo-Su 07:00-16:00; Fr 07:00-14:00","tourism":"museum","addr:street":"Plaußiger Dorfstraße","addr:postcode":"04349","addr:city":"Leipzig"},"geometry":{"type":"Point","coordinates":[12.4557221,51.3922605]},"id":"693214447"},{"type":"Feature","properties":{"name":"Bahnhof Hagenwerder","tourism":"museum"},"geometry":{"type":"Point","coordinates":[14.9606088,51.070267]},"id":"697178630"},{"type":"Feature","properties":{"name":"Heimatstube","tourism":"museum","phone":"+49 34244 50670"},"geometry":{"type":"Point","coordinates":[12.8574681,51.5027803]},"id":"708983614"},{"type":"Feature","properties":{"addr:suburb":"Innenstadt","wheelchair":"limited","addr:country":"DE","name":"Robert-Schumann-Haus","tourism":"museum","addr:postcode":"08056","addr:city":"Zwickau"},"geometry":{"type":"Point","coordinates":[12.4961658,50.7173925]},"id":"722162621"},{"type":"Feature","properties":{"name":"Oberlausitzer Forstmuseum","tourism":"museum"},"geometry":{"type":"Point","coordinates":[14.4069807,51.034051]},"id":"725189441"},{"type":"Feature","properties":{"name":"Schloss Ehrenberg","tourism":"museum"},"geometry":{"type":"Point","coordinates":[13.0232882,51.040767]},"id":"737164204"},{"type":"Feature","properties":{"name":"Naturalienkabinett und Stadtmuseum","tourism":"museum","website":"www.museum-waldenburg.de"},"geometry":{"type":"Point","coordinates":[12.6059104,50.8761505]},"id":"738413594"},{"type":"Feature","properties":{"name":"Strumpfmuseum","tourism":"museum"},"geometry":{"type":"Point","coordinates":[12.9836513,50.7136633]},"id":"757248957"},{"type":"Feature","properties":{"name":"Basaltwerk Baruth","tourism":"museum"},"geometry":{"type":"Point","coordinates":[14.6015331,51.2316965]},"id":"759805586"},{"type":"Feature","properties":{"addr:housenumber":"3","phone":"+49 35876 40429","addr:country":"DE","name":"Alte Pfefferküchlerei","tourism":"museum","addr:street":"Markt","addr:postcode":"02627","addr:city":"Weißenberg"},"geometry":{"type":"Point","coordinates":[14.6584858,51.1966756]},"id":"767898059"},{"type":"Feature","properties":{"addr:housenumber":"26","website":"http://burghausen-bienitz.de/","addr:country":"DE","name":"Heimatverein Burghausen e.V.","tourism":"museum","addr:street":"Bienitzstraße","addr:postcode":"04178","addr:city":"Leipzig"},"geometry":{"type":"Point","coordinates":[12.2532804,51.3532953]},"id":"772369020"},{"type":"Feature","properties":{"name":"Stadtmuseum","tourism":"museum"},"geometry":{"type":"Point","coordinates":[12.3623385,50.5666615]},"id":"793933386"},{"type":"Feature","properties":{"wheelchair":"yes","website":"http://www.zschopau.de/de/tourismus-freizeit/schloss-wildeck/museen/ausstellung","tourism":"museum","addr:postcode":"09405","operator":"Stadt Zschopau","addr:city":"Zschopau","addr:housenumber":"1","phone":"+493725 287170","name":"Motorradmuseum","opening_hours":"Winter-  10.00 - 16.00 Sommer  10.00 - 17.00 Uhr","addr:street":"Schloßhof","fax":"+493725 287180"},"geometry":{"type":"Point","coordinates":[13.0688848,50.7458909]},"id":"810642333"},{"type":"Feature","properties":{"name":"Burg Gnandstein","tourism":"museum","wheelchair":"no","website":"http://www.burg-museum-gnandstein.de/"},"geometry":{"type":"Point","coordinates":[12.5756914,51.0182274]},"id":"875636016"},{"type":"Feature","properties":{"addr:country":"DE","tourism":"museum","addr:postcode":"02739","addr:city":"Kottmar","addr:suburb":"Eibau","addr:housenumber":"214a","phone":"+49 3586 387073","name":"Heimat- und Humboldtmuseum","opening_hours":"Apr-Oct Mo,Tu,Th,Fr 09:00-12:00,13:00-17:00; Sa-Su 13:00-18:00; PH 13:00-18:00; Nov-Dec,Jan-Mar Mo,Tu,Th,Fr 09:00-12:00,13:00-16:00; Sa-Su 13:00-17:00; PH 13:00-17:00; We off","addr:street":"Hauptstraße","fax":"+49 3586 780439","email":"museum@eibau.de"},"geometry":{"type":"Point","coordinates":[14.6476646,50.9930808]},"id":"886776324"},{"type":"Feature","properties":{"name":"\"Neues Glück\"","tourism":"museum","man_made":"adit","resource":"iron_ore"},"geometry":{"type":"Point","coordinates":[12.8178864,50.6307553]},"id":"901818424"},{"type":"Feature","properties":{"addr:housenumber":"62","website":"http://www.space-service-intl.com/museum.htm","addr:country":"DE","name":"Raumfahrtmuseum Mittweida","opening_hours":"Su[-1] 16:00-18:00 || Mo-Su \"Groups of 12+ with registration\"","tourism":"museum","addr:street":"Rochlitzer Straße","addr:postcode":"09648","operator":"Space Service International","addr:city":"Mittweida"},"geometry":{"type":"Point","coordinates":[12.9762448,50.9864333]},"id":"904604661"},{"type":"Feature","properties":{"name":"Brauereimuseum","tourism":"museum","wheelchair":"no","microbrewery":"no","amenity":"restaurant"},"geometry":{"type":"Point","coordinates":[12.3277664,50.3904296]},"id":"911077352"},{"type":"Feature","properties":{"wheelchair":"yes","website":"http://www.terra-mineralia.de/","addr:country":"DE","tourism":"museum","wheelchair:description":"Behinderten-WC und -parkplatz, sowie Aufzug vorhanden","addr:postcode":"09599","operator":"Technischen Universität Bergakademie Freiberg","addr:city":"Freiberg","toilets:wheelchair":"yes","addr:housenumber":"4","phone":"+49 3731 394654","name":"terra mineralia Mineralienausstellung","opening_hours":"Mo-Fr 09:00-17:00; Sa-Su 09:00-18:00","addr:street":"Schloßplatz","fax":"+49 3731 394671","email":"Fuehrungen@terra-mineralia.de"},"geometry":{"type":"Point","coordinates":[13.340048,50.920642]},"id":"911113816"},{"type":"Feature","properties":{"name":"Mauersberger-Museum","tourism":"museum"},"geometry":{"type":"Point","coordinates":[13.088859,50.6069142]},"id":"914675868"},{"type":"Feature","properties":{"name":"Kutschensammlung","tourism":"museum","wheelchair":"limited"},"geometry":{"type":"Point","coordinates":[13.0994154,50.8122611]},"id":"918361520"},{"type":"Feature","properties":{"name":"Amalie-Dietrich-Gedenkstätte","opening_hours":"Su 14:00-17:00 || \"nach telefonischer Vereinbarung\"","tourism":"museum","phone":"+49 37328 89930"},"geometry":{"type":"Point","coordinates":[13.3072934,51.0298666]},"id":"924082075"},{"type":"Feature","properties":{"name":"Vogtländisches Goldmuseum und Naturalienkabinett","tourism":"museum"},"geometry":{"type":"Point","coordinates":[12.2861538,50.5803999]},"id":"937093859"},{"type":"Feature","properties":{"name":"Grube Tannenberg (Stolln 176)","tourism":"museum"},"geometry":{"type":"Point","coordinates":[12.4597855,50.4156418]},"id":"943481874"},{"type":"Feature","properties":{"addr:suburb":"Innenstadt","wheelchair":"no","addr:housenumber":"2","addr:country":"DE","name":"Galerie am Domhof","tourism":"museum","addr:street":"Domhof","addr:postcode":"08056","addr:city":"Zwickau"},"geometry":{"type":"Point","coordinates":[12.4952007,50.7175382]},"id":"947943835"},{"type":"Feature","properties":{"name":"Feuerwehrmuseum","tourism":"museum"},"geometry":{"type":"Point","coordinates":[14.1305713,50.8964391]},"id":"963664686"},{"type":"Feature","properties":{"name":"Schiffchen","tourism":"museum"},"geometry":{"type":"Point","coordinates":[12.4958777,50.7168693]},"id":"965944208"},{"type":"Feature","properties":{"name":"Vogtländisch-Böhmisches Mineralienzentrum","tourism":"museum","phone":"+49 37465 40800"},"geometry":{"type":"Point","coordinates":[12.4528325,50.4165309]},"id":"976329656"},{"type":"Feature","properties":{"name":"DDR-Museum","tourism":"museum"},"geometry":{"type":"Point","coordinates":[12.36547,50.2897605]},"id":"979032588"},{"type":"Feature","properties":{"name":"Obervogtländisches Dorfmuseum","tourism":"museum"},"geometry":{"type":"Point","coordinates":[12.3686278,50.3131414]},"id":"979033037"},{"type":"Feature","properties":{"addr:housenumber":"10","addr:country":"DE","name":"Gellert-Museum","tourism":"museum","addr:street":"Oederaner Straße","addr:postcode":"09661","addr:city":"Hainichen"},"geometry":{"type":"Point","coordinates":[13.1280724,50.9688091]},"id":"981306034"},{"type":"Feature","properties":{"addr:housenumber":"100","museum":"railway","addr:country":"DE","name":"Museumsbahnhof Markersdorf-Taura","tourism":"museum","addr:street":"Hauptstraße","railway":"museum","addr:postcode":"09236","addr:city":"Claußnitz"},"geometry":{"type":"Point","coordinates":[12.8535157,50.9270873]},"id":"990223891"},{"type":"Feature","properties":{"name":"Bergbaumuseum Glückauf-Schacht Mehren","tourism":"museum","phone":"+49 3521 402547"},"geometry":{"type":"Point","coordinates":[13.407869,51.1545565]},"id":"994059324"},{"type":"Feature","properties":{"addr:housenumber":"60","website":"www.tillig.com","phone":"+49 35971 90327","addr:country":"DE","name":"Modellbahngalerie","tourism":"museum","addr:street":"Lange Straße","addr:postcode":"01855","addr:city":"Sebnitz"},"geometry":{"type":"Point","coordinates":[14.2793977,50.9733294]},"id":"997521232"},{"type":"Feature","properties":{"wheelchair":"yes","addr:housenumber":"32","website":"http://www.schloss-voigtsberg.de/","name":"Teppichmuseum Oelsnitz","opening_hours":"Tu-Su 11:00-17:00","tourism":"museum","addr:street":"Schlosstraße","addr:postcode":"08606","addr:city":"Oelsnitz/Vogtl."},"geometry":{"type":"Point","coordinates":[12.183834,50.423066]},"id":"1058957133"},{"type":"Feature","properties":{"name":"Heimatmuseum","tourism":"museum"},"geometry":{"type":"Point","coordinates":[12.7722944,51.0051609]},"id":"1090453037"},{"type":"Feature","properties":{"wheelchair":"no","website":"www.kindermuseum-unikatum.de","addr:country":"DE","tourism":"museum","addr:postcode":"04229","operator":"UNIKATUM Kindermuseum gemeinnützige GmbH","addr:city":"Leipzig","addr:housenumber":"26","name":"Kindermuseum","opening_hours":"Mo-Su 10:00-18:00","addr:street":"Zschochersche Straße","wikipedia":"de:Kindermuseum Leipzig","wikidata":"Q2494394"},"geometry":{"type":"Point","coordinates":[12.3380047,51.3314796]},"id":"1106471524"},{"type":"Feature","properties":{"wheelchair":"limited","website":"http://bienertmuehle.com/hier-sind-taetig/museum-und-bienerts-laden/","addr:country":"DE","tourism":"museum","addr:postcode":"01187","addr:city":"Dresden","addr:housenumber":"21","name":"Museum Hofmühle","opening_hours":"Tu, We, Th 16:00-18:00; Su 14:00-18:00","addr:street":"Altplauen","wikipedia":"de:Museum Hofmühle Dresden","wikidata":"Q1635322"},"geometry":{"type":"Point","coordinates":[13.7022523,51.0301039]},"id":"1120097249"},{"type":"Feature","properties":{"name":"DDR-Museum","opening_hours":"Tu 16:00-18:00","tourism":"museum"},"geometry":{"type":"Point","coordinates":[11.9277431,50.5393508]},"id":"1145614019"},{"type":"Feature","properties":{"toilets:wheelchair":"yes","wheelchair":"yes","website":"www.dresden1900.de","amenity":"restaurant","name":"Museumsgastronomie Dresden 1900","opening_hours":"Mo-Sa 08:00-01:00, Su 09:00-00:00","tourism":"museum"},"geometry":{"type":"Point","coordinates":[13.7415735,51.0514585]},"id":"1149143483"},{"type":"Feature","properties":{"wheelchair":"yes","addr:housenumber":"15-16","website":"http://www.bach-leipzig.de/","addr:country":"DE","name":"Bach-Museum Leipzig","tourism":"museum","addr:street":"Thomaskirchhof","wikipedia":"de:Bach-Museum Leipzig","addr:postcode":"04109","wikidata":"Q18748122","addr:city":"Leipzig"},"geometry":{"type":"Point","coordinates":[12.37233,51.3387873]},"id":"1165469744"},{"type":"Feature","properties":{"wheelchair":"no","addr:housenumber":"12","alt_name":"Sächsisches Apotheken-Museum","website":"http://www.apothekenmuseum.de","addr:country":"DE","name":"Apotheken- Museum","tourism":"museum","addr:street":"Thomaskirchhof","addr:postcode":"04109","addr:city":"Leipzig"},"geometry":{"type":"Point","coordinates":[12.3729546,51.338824]},"id":"1165483068"},{"type":"Feature","properties":{"name":"Automatikmuseum","tourism":"museum"},"geometry":{"type":"Point","coordinates":[12.3292127,51.3298943]},"id":"1166460294"},{"type":"Feature","properties":{"wheelchair":"limited","addr:housenumber":"2","website":"http://www.uni-leipzig.de/~antik/","addr:country":"DE","name":"Antikenmuseum der Universität Leipzig","tourism":"museum","addr:street":"Nikolaikirchhof","addr:postcode":"04109","addr:city":"Leipzig"},"geometry":{"type":"Point","coordinates":[12.3785984,51.3408201]},"id":"1166652127"},{"type":"Feature","properties":{"wheelchair":"limited","addr:housenumber":"2","website":"http://www.uni-leipzig.de/~egypt/","addr:country":"DE","name":"Ägyptisches Museum","opening_hours":"Tu-Fr 13:00-17:00, Sa,Su 10:00-17:00, PH 10:00-17:00","tourism":"museum","addr:street":"Goethestraße","addr:postcode":"04109","addr:city":"Leipzig"},"geometry":{"type":"Point","coordinates":[12.3799609,51.3398517]},"id":"1166658243"},{"type":"Feature","properties":{"name":"Papiermühle Weigel","tourism":"museum","website":"http://www.muehlen-dgm-ev.de/pages/Detailed/961.php","man_made":"watermill"},"geometry":{"type":"Point","coordinates":[12.8107681,50.4643886]},"id":"1170885711"},{"type":"Feature","properties":{"image":"http://commons.wikimedia.org/wiki/File:Lohgerber-Museum_in_Dippoldiswalde.jpg","addr:housename":"Museum","website":"http://www.lohgerbermuseum.de/","addr:country":"DE","tourism":"museum","xmas:name":"Weihnachtsausstellung","addr:postcode":"01744","addr:city":"Dippoldiswalde","xmas:day_date":"08.11.2014 - 22.02.2015","addr:housenumber":"18","phone":"+49 3504 612418","check_date":"2014-11-02","name":"Lohgerbermuseum","opening_hours":"Tu-Fr 10:00-17:00; Sa-Su 13:00-17:00","addr:street":"Freiberger Straße","entrance":"main","xmas:feature":"event","email":"museum@dippoldiswalde.de"},"geometry":{"type":"Point","coordinates":[13.6668514,50.892244]},"id":"1197225508"},{"type":"Feature","properties":{"wheelchair":"yes","name:de":"Türckische Cammer","website":"http://www.skd.museum/de/museen-institutionen/residenzschloss/ruestkammer/tuerckische-cammer/index.html","level":"2","name":"Türckische Cammer","opening_hours":"Mo-Su 10:00-18:00; Tu off","name:pl":"Komnata Turecka","tourism":"museum","wikipedia":"de:Türckische Cammer","wikidata":"Q574088","operator":"Staatliche Kunstsammlungen Dresden"},"geometry":{"type":"Point","coordinates":[13.736751,51.0525386]},"id":"1199825509"},{"type":"Feature","properties":{"name":"Kur- und Stadtmuseum","opening_hours":"Th-Sa 13:00-17:00; Su 14:00-17:00","tourism":"museum"},"geometry":{"type":"Point","coordinates":[12.6420065,51.1444268]},"id":"1210695729"},{"type":"Feature","properties":{"wheelchair":"yes","website":"http://www.manufaktur-der-traeume.de/","addr:country":"DE","tourism":"museum","addr:postcode":"09456","addr:city":"Annaberg-Buchholz","addr:housenumber":"2","name":"Manufaktur der Träume","opening_hours":"Mo-Su 10:00-18:00; Dec 24 10:00-14:00; Dec 31 10:00-14:00","addr:street":"Buchholzer Straße","wikipedia":"de:Manufaktur der Träume","wikidata":"Q1891851"},"geometry":{"type":"Point","coordinates":[13.0021339,50.5794735]},"id":"1289402345"},{"type":"Feature","properties":{"name":"Museum für bäuerliche Kultur","tourism":"museum","wheelchair":"no"},"geometry":{"type":"Point","coordinates":[12.776763,51.088145]},"id":"1328665266"},{"type":"Feature","properties":{"name":"Bauernmuseum Zabeltitz","tourism":"museum"},"geometry":{"type":"Point","coordinates":[13.4990676,51.3542858]},"id":"1340495570"},{"type":"Feature","properties":{"name":"Wolfsmuseum","tourism":"museum","wheelchair":"yes","wheelchair:description":"Rampe am Haus, Toilette im 1. OG nicht erreichbar"},"geometry":{"type":"Point","coordinates":[14.7931471,51.4040717]},"id":"1363831473"},{"type":"Feature","properties":{"addr:housenumber":"2a","website":"https://www.wilder-robert.de/","name":"Wilder Robert","tourism":"museum","addr:street":"Bahnhofstraße","addr:postcode":"04769","addr:city":"Mügeln"},"geometry":{"type":"Point","coordinates":[13.0596717,51.2366899]},"id":"1379268856"},{"type":"Feature","properties":{"wheelchair":"yes","phone":"+49 3521 458857","addr:country":"DE","name":"Stadtmuseum Meißen","tourism":"museum","addr:street":"Heinrichsplatz","addr:postcode":"01662","addr:city":"Meißen"},"geometry":{"type":"Point","coordinates":[13.4725792,51.163203]},"id":"1379714235"},{"type":"Feature","properties":{"name":"Schlossmuseum im Neuen Palais","tourism":"museum","wheelchair":"limited"},"geometry":{"type":"Point","coordinates":[13.8711307,51.0083337]},"id":"1381995184"},{"type":"Feature","properties":{"name":"Kunstgewerbemuseum im Bergpalais","tourism":"museum","wheelchair":"limited"},"geometry":{"type":"Point","coordinates":[13.8708645,51.0094528]},"id":"1381995186"},{"type":"Feature","properties":{"name":"Kunstgewerbemuseum im Wasserpalais","tourism":"museum","wheelchair":"limited"},"geometry":{"type":"Point","coordinates":[13.8693921,51.0083727]},"id":"1381995189"},{"type":"Feature","properties":{"addr:housenumber":"4","name":"Neschwitzer Vogelschutzpavillon","tourism":"museum","addr:street":"Park","source":"www.vogelschutzpavillon.de","addr:postcode":"02699"},"geometry":{"type":"Point","coordinates":[14.3313804,51.2737098]},"id":"1399607522"},{"type":"Feature","properties":{"name":"Schmalspurbahn Museum","tourism":"museum","wheelchair":"no"},"geometry":{"type":"Point","coordinates":[14.7453662,50.843729]},"id":"1401883146"},{"type":"Feature","properties":{"name":"Stadtmuseum Hoyerswerda","name:hsb":"Měšćanski muzej Wojerecy","tourism":"museum","wheelchair":"yes"},"geometry":{"type":"Point","coordinates":[14.2471348,51.4383978]},"id":"1415786113"},{"type":"Feature","properties":{"wheelchair":"limited","addr:housenumber":"12","website":"www.wehnerwerk.de","addr:country":"DE","name":"Herbert-Wehner-Bildungswerk","tourism":"museum","addr:street":"Kamenzer Straße","addr:postcode":"01099","addr:city":"Dresden"},"geometry":{"type":"Point","coordinates":[13.7575545,51.0663472]},"id":"1416371610"},{"type":"Feature","properties":{"name":"Begegnung an der Elbe","tourism":"museum","wheelchair":"no"},"geometry":{"type":"Point","coordinates":[13.2552526,51.3732554]},"id":"1427492784"},{"type":"Feature","properties":{"name":"Burmuseum","tourism":"museum","entrance":"yes","amenity":"toilets"},"geometry":{"type":"Point","coordinates":[12.2653356,50.6184975]},"id":"1430264851"},{"type":"Feature","properties":{"name":"Die Weberei - Museum Oederan","opening_hours":"Tu-Fr 12:00-17:00; Sa-Su 12:00-17:00","tourism":"museum","wheelchair":"yes"},"geometry":{"type":"Point","coordinates":[13.1678559,50.8617771]},"id":"1434440121"},{"type":"Feature","properties":{"wheelchair":"no","addr:housenumber":"4","website":"http://www.coffe-baum.de/museum/","addr:country":"DE","name":"Kaffee-Museum","tourism":"museum","addr:street":"Kleine Fleischergasse","addr:postcode":"04109","addr:city":"Leipzig"},"geometry":{"type":"Point","coordinates":[12.3730033,51.3411731]},"id":"1442660654"},{"type":"Feature","properties":{"wheelchair":"yes","addr:housenumber":"11","addr:country":"DE","name":"Galerie des Museums der Stadt Borna","tourism":"museum","addr:street":"Markt","addr:postcode":"04552","addr:city":"Borna"},"geometry":{"type":"Point","coordinates":[12.49742,51.1240371]},"id":"1456803508"},{"type":"Feature","properties":{"image":"https://commons.wikimedia.org/wiki/File:Dorfmuseum_Markersdorf_(Januar_2017).jpg","wheelchair":"no","addr:housenumber":"2","name":"Dorfmuseum Markersdorf","opening_hours":"We-Fr 10:00-16:00; Sa-Su 13:00-17:00","tourism":"museum","addr:street":"Kirchstraße","addr:postcode":"02829","wikidata":"Q41367761","addr:city":"Markersdorf"},"geometry":{"type":"Point","coordinates":[14.8908622,51.146993]},"id":"1457896673"},{"type":"Feature","properties":{"name":"Technisches Museum Papiermühle Niederzwönitz","tourism":"museum","wikipedia":"de:Niederzwönitz#Technisches Museum Papierm.C3.BChle","man_made":"watermill"},"geometry":{"type":"Point","coordinates":[12.8170935,50.6373474]},"id":"1469915011"},{"type":"Feature","properties":{"name":"Siebenschlehener Pochwerk","tourism":"museum"},"geometry":{"type":"Point","coordinates":[12.6251836,50.5876489]},"id":"1478108484"},{"type":"Feature","properties":{"contact:fax":"+49 341 2618697","website":"www.kleingarten-museum.de","addr:country":"DE","tourism":"museum","addr:postcode":"04109","addr:city":"Leipzig","addr:housenumber":"7","contact:phone":"+49 341 2111194","name":"Deutsches Kleingärtnermuseum","opening_hours":"Sep-May: Tu-Th 10:00-16:00; Jun-Aug: Tu-Th,Sa,Su 10:00-16:00","addr:street":"Aachener Straße","wikipedia":"de:Deutsches Kleingärtnermuseum","wikidata":"Q1205770"},"geometry":{"type":"Point","coordinates":[12.3568424,51.3392783]},"id":"1493540257"},{"type":"Feature","properties":{"addr:housenumber":"7","website":"www.psychiatriemuseum.de","contact:phone":"+49 341 1406140","addr:country":"DE","name":"Sächsisches Psychiatriemuseum","opening_hours":"We-Sa 13:00-18:00","tourism":"museum","addr:street":"Mainzer Straße","addr:postcode":"04109","addr:city":"Leipzig"},"geometry":{"type":"Point","coordinates":[12.355162,51.3365606]},"id":"1493544275"},{"type":"Feature","properties":{"name":"Sorbisches Kulturzentrum","name:hsb":"Serbski kulturny centrum","tourism":"museum"},"geometry":{"type":"Point","coordinates":[14.5393141,51.5440668]},"id":"1508218785"},{"type":"Feature","properties":{"contact:fax":"+49 34202 409","addr:housenumber":"31","contact:phone":"+49 34202 67208","name":"Barockschloss Delitzsch","opening_hours":"Tu-Su 10:00-17:00","tourism":"museum","addr:street":"Schloßstraße","addr:postcode":"04509","contact:website":"http://www.barockschloss-delitzsch.de","addr:city":"Delitzsch"},"geometry":{"type":"Point","coordinates":[12.3288562,51.5234229]},"id":"1510741215"},{"type":"Feature","properties":{"wheelchair":"no","addr:housenumber":"6","historic":"castle","addr:country":"DE","castle_type":"stately","name":"Schloss Klippenstein","tourism":"museum","addr:street":"Schloßstraße","addr:postcode":"01454","addr:city":"Radeberg"},"geometry":{"type":"Point","coordinates":[13.925091,51.1191239]},"id":"1566929632"},{"type":"Feature","properties":{"wheelchair":"no","addr:housenumber":"2–4","website":"http://www.museum-borna.de/","phone":"+49 3433 27860","addr:country":"DE","name":"Museum der Stadt Borna","tourism":"museum","addr:street":"An der Mauer","addr:postcode":"04552","addr:city":"Borna"},"geometry":{"type":"Point","coordinates":[12.5001354,51.1239732]},"id":"1594611450"},{"type":"Feature","properties":{"name":"Hofmühle","tourism":"museum"},"geometry":{"type":"Point","coordinates":[14.235896,51.0237436]},"id":"1615853518"},{"type":"Feature","properties":{"name":"Museum Uranbergbau","opening_hours":"Mo-Th 09:00-17:00, Fr off, Sa-Su,PH 10:00-17:00","tourism":"museum"},"geometry":{"type":"Point","coordinates":[12.6747604,50.6000706]},"id":"1640336521"},{"type":"Feature","properties":{"name":"Suppenmuseum","tourism":"museum","website":"http://www.suppenmuseum-neudorf.de/","wikipedia":"de:Suppenmuseum","wikidata":"Q2368156"},"geometry":{"type":"Point","coordinates":[12.9736611,50.4800782]},"id":"1643007435"},{"type":"Feature","properties":{"name":"Grieg-Begegnungsstätte","tourism":"museum","wheelchair":"no","contact:website":"https://www.edvard-grieg.de/"},"geometry":{"type":"Point","coordinates":[12.3861805,51.3353221]},"id":"1655477379"},{"type":"Feature","properties":{"name":"Heimatmuseum","tourism":"museum","wheelchair":"no"},"geometry":{"type":"Point","coordinates":[14.7466662,51.0167386]},"id":"1669237872"},{"type":"Feature","properties":{"addr:housenumber":"31","phone":"+49 37467 22407","addr:country":"DE","name":"Schaumanufaktur Akkordeonbau","tourism":"museum","addr:street":"Falkensteiner Straße","addr:postcode":"08248","addr:city":"Klingenthal"},"geometry":{"type":"Point","coordinates":[12.4663256,50.37585]},"id":"1678714750"},{"type":"Feature","properties":{"name":"Deutsches Landwirtschaftsmuseum","tourism":"museum","wheelchair":"limited"},"geometry":{"type":"Point","coordinates":[12.2844059,50.7998509]},"id":"1684203283"},{"type":"Feature","properties":{"addr:suburb":"Gahlenz","addr:housenumber":"105","addr:country":"DE","name":"Dorfmuseum Gahlenz","opening_hours":"Tu-Th 09:00-16:00; Su 14:00-17:00; Fr,Sa,Mo off","tourism":"museum","addr:street":"Gahlenzer Straße","addr:postcode":"09569","addr:city":"Oederan"},"geometry":{"type":"Point","coordinates":[13.222276,50.83677]},"id":"1713212246"},{"type":"Feature","properties":{"wheelchair":"yes","website":"http://www.skd.museum/de/museen-institutionen/residenzschloss/gruenes-gewoelbe/neues-gruenes-gewoelbe/index.html","level":"1","name":"Neues Grünes Gewölbe","opening_hours":"Mo-Su 10:00-18:00; Tu off","tourism":"museum","wikipedia":"de:Grünes Gewölbe#Neues Grünes Gewölbe","operator":"Staatliche Kunstsammlungen Dresden"},"geometry":{"type":"Point","coordinates":[13.736295,51.0527038]},"id":"1721719297"},{"type":"Feature","properties":{"wheelchair":"yes","website":"http://www.skd.museum/de/museen-institutionen/residenzschloss/muenzkabinett/index.html","level":"3","name":"Kupferstich-Kabinett","opening_hours":"Mo-Su 10:00-18:00; Tu off","tourism":"museum","wikipedia":"de:Kupferstichkabinett Dresden","wikidata":"Q570620","operator":"Staatliche Kunstsammlungen Dresden"},"geometry":{"type":"Point","coordinates":[13.7365096,51.0525621]},"id":"1721720561"},{"type":"Feature","properties":{"wheelchair":"no","website":"http://www.skd.museum/de/museen-institutionen/residenzschloss/muenzkabinett/index.html","phone":"+49 351 49143231","name":"Münzkabinett","opening_hours":"We 10:00-17:30","tourism":"museum","wikipedia":"de:Münzkabinett (Dresden)","wikidata":"Q324263","operator":"Staatliche Kunstsammlungen Dresden"},"geometry":{"type":"Point","coordinates":[13.7382396,51.0530006]},"id":"1721721621"},{"type":"Feature","properties":{"name":"Galerie Neue Meister","name:ru":"Галерея новых мастеров","tourism":"museum","wheelchair":"yes"},"geometry":{"type":"Point","coordinates":[13.7444453,51.0522719]},"id":"1721722077"},{"type":"Feature","properties":{"name":"Skulpturensammlung","tourism":"museum","wheelchair":"yes"},"geometry":{"type":"Point","coordinates":[13.7441624,51.0519533]},"id":"1721722214"},{"type":"Feature","properties":{"wheelchair":"yes","website":"http://www.skd.museum/de/museen-institutionen/residenzschloss/ruestkammer/index.html","level":"2","name":"Rüstkammer","opening_hours":"Mo-Su 10:00-18:00; Tu off","tourism":"museum","operator":"Staatliche Kunstsammlungen Dresden"},"geometry":{"type":"Point","coordinates":[13.7374376,51.0525437]},"id":"1729101965"},{"type":"Feature","properties":{"wheelchair":"limited","website":"http://www.skd.museum/de/museen-institutionen/zwinger-mit-semperbau/porzellansammlung/index.html","phone":"+49 351 49142 000","name":"Porzellansammlung","opening_hours":"Tu-Su 10:00-18:00","tourism":"museum"},"geometry":{"type":"Point","coordinates":[13.7344575,51.0521451]},"id":"1729139565"},{"type":"Feature","properties":{"note":"Fahrzeugausstellung","addr:housenumber":"17","website":"http://www.oldtimertouren-sebnitz.de","addr:country":"DE","name":"Zündfunke","opening_hours":"Tu-Su 10:00-17:00","tourism":"museum","addr:street":"Bahnhofstraße","addr:postcode":"01855","addr:city":"Sebnitz"},"geometry":{"type":"Point","coordinates":[14.2719837,50.9760061]},"id":"1774508638"},{"type":"Feature","properties":{"name":"Herrrenhaus","tourism":"museum","wheelchair":"no"},"geometry":{"type":"Point","coordinates":[12.5459525,50.6836388]},"id":"1791348370"},{"type":"Feature","properties":{"name":"Klosterkirche und Sakralmuseum St. Annen","name:hsb":"Klóšterska cyrkej a sakralny muzej swj. Hany","tourism":"museum"},"geometry":{"type":"Point","coordinates":[14.0944235,51.2714275]},"id":"1811616500"},{"type":"Feature","properties":{"name":"Buchmuseum","tourism":"museum","wheelchair":"yes","website":"http://www.slub-dresden.de/ueber-uns/buchmuseum/","level":"2"},"geometry":{"type":"Point","coordinates":[13.7366113,51.0286409]},"id":"1852492216"},{"type":"Feature","properties":{"addr:suburb":"Schmiedeberg","wheelchair":"no","addr:housename":"Bürgerhaus","addr:housenumber":"19","addr:country":"DE","name":"Schul- und Heimatmuseum","tourism":"museum","addr:street":"Altenberger Straße","addr:postcode":"01744","addr:city":"Dippoldiswalde"},"geometry":{"type":"Point","coordinates":[13.6753102,50.8375691]},"id":"1866077018"},{"type":"Feature","properties":{"name":"Ehrlichthof","name:hsb":"Sydlišćo Erlichtec dwór","tourism":"museum","wheelchair":"limited"},"geometry":{"type":"Point","coordinates":[14.7923667,51.4037471]},"id":"1903239010"},{"type":"Feature","properties":{"name":"Meissener Porzellanmanufaktur","toilets:wheelchair":"yes","tourism":"museum","wheelchair":"yes"},"geometry":{"type":"Point","coordinates":[13.4655752,51.1568608]},"id":"1908310144"},{"type":"Feature","properties":{"name":"Anita","tourism":"museum"},"geometry":{"type":"Point","coordinates":[12.8548496,50.783223]},"id":"1908453664"},{"type":"Feature","properties":{"name":"Heimatmuseum","tourism":"museum"},"geometry":{"type":"Point","coordinates":[12.3312677,50.3941421]},"id":"1921939753"},{"type":"Feature","properties":{"name":"Förderturm","tourism":"museum","man_made":"tower"},"geometry":{"type":"Point","coordinates":[14.3307083,51.3975283]},"id":"1958965263"},{"type":"Feature","properties":{"image":"http://commons.wikimedia.org/wiki/File:Geyer_Wachtturm.jpg","wheelchair":"no","addr:housenumber":"10","historic":"tower","phone":"+49 37346 1244","addr:country":"DE","name":"Turmmuseum Geyer","tourism":"museum","addr:street":"Am Lotterhof","addr:postcode":"09468","addr:city":"Geyer"},"geometry":{"type":"Point","coordinates":[12.9250645,50.6235326]},"id":"1970553191"},{"type":"Feature","properties":{"addr:housenumber":"8","website":"http://www.lohgerbermuseum.de/web/osterzgebirgsgalerie.php","phone":"+49 3504 612418","addr:country":"DE","name":"Osterzgebirgsgalerie im Schloss","opening_hours":"Th-Su 13:00-17:00; We 10:00-16:00","tourism":"museum","addr:street":"Kirchplatz","entrance":"main","addr:postcode":"01744","addr:city":"Dippoldiswalde"},"geometry":{"type":"Point","coordinates":[13.6663587,50.8957246]},"id":"1996703114"},{"type":"Feature","properties":{"addr:housenumber":"2","website":"http://www.wachsmannhaus.niesky.de/","name":"Konrad-Wachsmann-Haus","tourism":"museum","addr:street":"Goethestraße","designation":"museum","addr:postcode":"02906"},"geometry":{"type":"Point","coordinates":[14.8127496,51.2938931]},"id":"2001875583"},{"type":"Feature","properties":{"name":"Museum Festung Dresden","opening_hours":"Mo-Su 10:00-17:00","tourism":"museum","wheelchair":"no"},"geometry":{"type":"Point","coordinates":[13.7438047,51.0527541]},"id":"2015578497"},{"type":"Feature","properties":{"wheelchair":"limited","website":"www.kleinbauernmuseum.de","addr:country":"DE","tourism":"museum","addr:postcode":"01328","addr:city":"Dresden","addr:housenumber":"3","phone":"+49 351 2641783","name":"Kleinbauernmuseum Reitzendorf","opening_hours":"Mo-Fr 09:00-16:00; Sa,Su,PH 13:00-17:00","addr:street":"Schullwitzer Straße","fax":"+49 351 2641784","email":"mail@kleinbauernmuseum.de"},"geometry":{"type":"Point","coordinates":[13.9035097,51.0266821]},"id":"2019809342"},{"type":"Feature","properties":{"name":"Heimatmuseum","tourism":"museum"},"geometry":{"type":"Point","coordinates":[13.7254863,51.2150116]},"id":"2051066657"},{"type":"Feature","properties":{"name":"Kustodie","tourism":"museum","source":"estimation","operator":"TU Dresden"},"geometry":{"type":"Point","coordinates":[13.7376419,51.0295277]},"id":"2056871882"},{"type":"Feature","properties":{"name":"Bergbaumuseum Reinsdorf","tourism":"museum"},"geometry":{"type":"Point","coordinates":[12.5338238,50.7065226]},"id":"2079594129"},{"type":"Feature","properties":{"name":"Ausstellung des Militärhistorischen Museums der Bundeswehr","opening_hours":"Apr-Oct 10:00-18:00; Nov-Mar 09:00-17:00","tourism":"museum","wheelchair":"limited"},"geometry":{"type":"Point","coordinates":[14.057139,50.9181908]},"id":"2085182296"},{"type":"Feature","properties":{"end_date":"2000","website":"http://www.bergbau-live.de","historic":"yes","man_made":"adit","resource":"Buntmetall","length":"180 m + 1500 m","tourism":"museum","disused":"yes","addr:postcode":"09526","operator":"IG Bergbau & Mineralien Olbernhau e.V.","addr:city":"Olbernhau","addr:housenumber":"1b","phone":"+49 37360 35036","name":"Schaubergwerk Gnade Gottes Erbstollen","addr:street":"Forstgartenweg","fax":"+49 3736035270","email":"verein@bergbau-live.de","start_date":"1515 + 1714"},"geometry":{"type":"Point","coordinates":[13.3669819,50.6601832]},"id":"2085937710"},{"type":"Feature","properties":{"name":"Wiesenmühle Thalheim","tourism":"museum","website":"http://www.pension-wiesenmuehle.de/?page_id=46","man_made":"watermill"},"geometry":{"type":"Point","coordinates":[12.8692078,50.7105409]},"id":"2090890718"},{"type":"Feature","properties":{"addr:suburb":"Schönfels","wheelchair":"no","addr:housenumber":"34","website":"http://www.burg-schoenfels.de","name":"Museum Burg Schönfels","opening_hours":"Tu-Th 10:00-17:00; Sa,Su 10:00-17:00","tourism":"museum","addr:street":"Burgstraße","source":"www.burg-schoenfels.de","addr:postcode":"08115","addr:city":"Lichtentanne"},"geometry":{"type":"Point","coordinates":[12.4012877,50.675422]},"id":"2108637658"},{"type":"Feature","properties":{"name":"Stadtmuseum","tourism":"museum"},"geometry":{"type":"Point","coordinates":[12.2208497,51.3899893]},"id":"2138732981"},{"type":"Feature","properties":{"name":"Erzgebirgsmuseum","tourism":"museum","wheelchair":"limited","website":"http://www.annaberg-buchholz.de/de/kultur/erzgebirgsmuseum.php"},"geometry":{"type":"Point","coordinates":[13.0045904,50.5783694]},"id":"2156635668"},{"type":"Feature","properties":{"name:hsb":"Muzej Budyšin","wheelchair":"yes","website":"http://www.bautzen.de/museum-bautzen","addr:country":"DE","tourism":"museum","wheelchair:description":"kein Barrieren","addr:postcode":"02625","addr:city":"Bautzen","toilets:wheelchair":"yes","addr:housenumber":"1","phone":"+49 3591 498533","name":"Museum Bautzen","addr:street":"Kornmarkt"},"geometry":{"type":"Point","coordinates":[14.4270436,51.1802211]},"id":"2264237847"},{"type":"Feature","properties":{"name":"Nummernschildmuseum","tourism":"museum","designation":"Exhibition","source":"http://www.nummernschildmuseum.de/"},"geometry":{"type":"Point","coordinates":[13.0886652,50.690968]},"id":"2272733433"},{"type":"Feature","properties":{"name":"Oflag IV-C","tourism":"museum","website":"http://www.schloss-colditz.com/","wikipedia":"de:Oflag IV-C","wikidata":"Q443620"},"geometry":{"type":"Point","coordinates":[12.806995,51.1308722]},"id":"2286849170"},{"type":"Feature","properties":{"addr:housenumber":"7","website":"http://www.kollwitzhaus.de/willkommen.htm","name":"Käthe-Kollwitz-Haus","tourism":"museum","addr:street":"Meißner Straße","addr:postcode":"01468","addr:city":"Moritzburg"},"geometry":{"type":"Point","coordinates":[13.6745252,51.1660455]},"id":"2302217498"},{"type":"Feature","properties":{"name":"Njepila-Hof u. Sorbische Heimatstube Rohne","name:hsb":"Njepilic dwór a Serbska domizniska stwa","tourism":"museum"},"geometry":{"type":"Point","coordinates":[14.5098545,51.5270332]},"id":"2309814777"},{"type":"Feature","properties":{"name":"Mi24","tourism":"museum"},"geometry":{"type":"Point","coordinates":[13.5528725,51.3044148]},"id":"2311717395"},{"type":"Feature","properties":{"name":"Mil Mi-24 D (Ex CzAF, stationiert in Prerov, Tschechische Republik)","tourism":"museum"},"geometry":{"type":"Point","coordinates":[13.5539928,51.303691]},"id":"2311717403"},{"type":"Feature","properties":{"name":"MiG 21 PFM Nr. 780 (ehemals LSK/LV der NVA)","tourism":"museum"},"geometry":{"type":"Point","coordinates":[13.5538246,51.3038211]},"id":"2311717410"},{"type":"Feature","properties":{"wheelchair":"no","level":"4","fee":"no","name":"Schwebebahn-Ausstellung","wheelchair:description:de":"Liegt im Treppenhaus der Station","tourism":"museum","layer":"-1","operator":"Dresdner Verkehrbetriebe"},"geometry":{"type":"Point","coordinates":[13.8200493,51.0544014]},"id":"2312641175"},{"type":"Feature","properties":{"name":"Heimatmuseum Kitzscher","opening_hours":"We,Fr 08:30-12:00,12:30-17:00; Sa,Su 12:30-18:00","tourism":"museum","fee":"no"},"geometry":{"type":"Point","coordinates":[12.5503917,51.1636621]},"id":"2337190763"},{"type":"Feature","properties":{"name:hsb":"Serbski muzej","wheelchair":"yes","addr:housenumber":"3","phone":"+49 3591 2708700","name":"Sorbisches Museum","tourism":"museum","wheelchair:description":"volle Barrierefreiheit","addr:street":"Ortenburg","addr:postcode":"02625","addr:city":"Bautzen"},"geometry":{"type":"Point","coordinates":[14.4193135,51.1833772]},"id":"2360138298"},{"type":"Feature","properties":{"wheelchair":"no","website":"http://www.runde-ecke-leipzig.de","addr:country":"DE","fee":"no","tourism":"museum","addr:postcode":"04109","operator":"Bürgerkomitee Leipzig e.V.","addr:city":"Leipzig","toilets:wheelchair":"no","addr:housenumber":"24","contact:phone":"+49341-9612443","name":"Museum in der \"Runden Ecke\"","opening_hours":"Mo-Su 10:00-18:00","addr:street":"Dittrichring","wikipedia":"de:Gedenkstätte Museum in der „Runden Ecke“","wikidata":"Q1497540"},"geometry":{"type":"Point","coordinates":[12.3699982,51.3417521]},"id":"2377004232"},{"type":"Feature","properties":{"name":"Perlmutter- Museum","tourism":"museum","wheelchair":"no","website":"http://www.museum-adorf.de/wir.htm"},"geometry":{"type":"Point","coordinates":[12.2533246,50.321499]},"id":"2383424013"},{"type":"Feature","properties":{"name":"Technikmuseum","tourism":"museum"},"geometry":{"type":"Point","coordinates":[14.6721423,50.8948576]},"id":"2384814846"},{"type":"Feature","properties":{"name":"Altes Gefängnis","image":"http://commons.wikimedia.org/wiki/File:2017_Rammenau_Altes_Gef%C3%A4ngnis.jpg","tourism":"museum","entrance":"main","operator":"Gemeinde Rammenau"},"geometry":{"type":"Point","coordinates":[14.1341835,51.154443]},"id":"2387258210"},{"type":"Feature","properties":{"name":"Nadlerhaus","tourism":"museum","website":"http://www.stuetzengruen.de/index.php?bereich=nadlerhaus"},"geometry":{"type":"Point","coordinates":[12.5683205,50.5408135]},"id":"2391428334"},{"type":"Feature","properties":{"name":"Torwächterstube","description":"Very small museum about the gatekeepers","tourism":"museum","description:de":"Sehr kleines Museum über die Torwächter","operator":"Stadtwache Stolpen e.V."},"geometry":{"type":"Point","coordinates":[14.0846165,51.0496065]},"id":"2396003150"},{"type":"Feature","properties":{"image":"http://commons.wikimedia.org/wiki/File:Eisenhammer_Dorfchemnitz_Hammerger%C3%BCst.jpg","historic":"yes","man_made":"watermill","addr:country":"DE","tourism":"museum","addr:postcode":"09619","operator":"Gemeinde Dorfchemnitz","addr:city":"Dorfchemnitz","addr:housenumber":"11","phone":"+49 37320 1237","name":"Eisenhammer Dorfchemnitz","opening_hours":"Tu-Sa 09:00-11:00,13:00-16:00; May - Oct: Su 13:00-16:00","addr:street":"Hauptstraße","wikipedia":"de:Eisenhammer Dorfchemnitz","entrance":"main","wikidata":"Q980880"},"geometry":{"type":"Point","coordinates":[13.4305576,50.7707719]},"id":"2402383750"},{"type":"Feature","properties":{"name":"Adamstollen","tourism":"museum","operator":"Segen Gottes Erbstolln  e.V."},"geometry":{"type":"Point","coordinates":[13.2192634,51.0660065]},"id":"2441185823"},{"type":"Feature","properties":{"name":"Eisenbahnmuseum Rittersgrün","tourism":"museum"},"geometry":{"type":"Point","coordinates":[12.8044694,50.4738047]},"id":"2448371660"},{"type":"Feature","properties":{"name":"Gedenkstätte Münchner Platz Dresden","opening_hours":"Mo-Fr 10:00-16:00;Sa-Su 10:00-18:00","tourism":"museum","wheelchair":"yes","website":"http://www.stsg.de/cms/dresden/startseite"},"geometry":{"type":"Point","coordinates":[13.722623,51.0293127]},"id":"2458246640"},{"type":"Feature","properties":{"name":"Kunstforum Oktogon","tourism":"museum","website":"http://www.hfbk-dresden.de/hochschule/profil/ausstellungen/ausstellungsprofil/","operator":"Hochschule für Bildende Künste Dresden"},"geometry":{"type":"Point","coordinates":[13.743023,51.0524839]},"id":"2512299343"},{"type":"Feature","properties":{"wheelchair":"yes","website":"http://www.galerie-dresden.de/","phone":"+49 351 4887372","name":"Städtische Galerie Dresden","opening_hours":"Tu-Su 10:00-18:00; Fr 10:00-19:00","tourism":"museum","operator":"Landeshauptstadt Dresden"},"geometry":{"type":"Point","coordinates":[13.7431723,51.0501587]},"id":"2530795297"},{"type":"Feature","properties":{"image":"http://wiki.openstreetmap.org/wiki/File:2014_Collage_Bergbaumuseum_Altenberg.jpg","wheelchair":"no","addr:country":"DE","tourism":"museum","addr:postcode":"01773","addr:city":"Altenberg","addr:housenumber":"2","phone":"+49 35056 31703","name":"Bergbaumuseum","opening_hours":"Mo-Su,PH 10:00-16:00; Fr off","addr:street":"Mühlenstraße","entrance":"main"},"geometry":{"type":"Point","coordinates":[13.7689675,50.7628917]},"id":"2624881323"},{"type":"Feature","properties":{"addr:suburb":"Hohenfichte","addr:housenumber":"1","website":"http://www.zeitreise-hohenfichte.de","addr:country":"DE","name":"Zeitreise Hohenfichte","description":"Ausgestellt werden: Modelleisenbahn, Motorräder, Autos und Spielzeug","tourism":"museum","addr:street":"Fabrikweg","addr:postcode":"09573","addr:city":"Leubsdorf"},"geometry":{"type":"Point","coordinates":[13.1297281,50.8255993]},"id":"2626569714"},{"type":"Feature","properties":{"name":"Stiefelmuseum","tourism":"museum"},"geometry":{"type":"Point","coordinates":[12.9253571,51.1626926]},"id":"2633473394"},{"type":"Feature","properties":{"name":"Lutherstube","tourism":"museum","information":"history"},"geometry":{"type":"Point","coordinates":[12.9257567,51.1611518]},"id":"2655686265"},{"type":"Feature","properties":{"name":"KFZ-Museum Andrä","tourism":"museum","operator":"Andrä"},"geometry":{"type":"Point","coordinates":[12.9258266,51.161771]},"id":"2655748722"},{"type":"Feature","properties":{"name":"Schanzenmühle","tourism":"museum"},"geometry":{"type":"Point","coordinates":[12.8921192,51.1496336]},"id":"2684781612"},{"type":"Feature","properties":{"wheelchair":"no","website":"http://www.alaunbergwerk-plauen.de","phone":"+493741529426","addr:country":"DE","name":"Luftschutzmuseum Meyerhof","tourism":"museum","addr:street":"Syrastraße","addr:postcode":"08523","operator":"Vogtländischer Bergknappenverein zu Plauen e.V.","addr:city":"Plauen"},"geometry":{"type":"Point","coordinates":[12.1390306,50.4945563]},"id":"2695341730"},{"type":"Feature","properties":{"name":"Dresdner Fußballmuseum","opening_hours":"We 15:00+; Mo 10:00+; Fr 17:00+","tourism":"museum"},"geometry":{"type":"Point","coordinates":[13.7487209,51.0404566]},"id":"2716961617"},{"type":"Feature","properties":{"website":"http://www.fernmeldemuseum-dresden.de","tourism":"museum","addr:postcode":"01067","operator":"Interessengemeinschaft Historische Fernmeldetechnik e.V.","addr:city":"Dresden","addr:housenumber":"5","phone":"+49 351 4820680","name":"Fernmeldemuseum Dresden","opening_hours":"Sa[1] 10:00-15:00","addr:street":"Annenstraße","wikipedia":"de:Fernmeldemuseum Dresden","wikidata":"Q15809559"},"geometry":{"type":"Point","coordinates":[13.7296873,51.0502875]},"id":"2717081902"},{"type":"Feature","properties":{"wheelchair":"no","addr:housenumber":"59","website":"http://www.kriminalmuseum-leipzig.de/","phone":"+49 341 22286380","name":"Kriminalmuseum des Mittelalters","tourism":"museum","wheelchair:description":"Im Hausinneren führt eine große Streintreppe mit mehr als 35 Stufen zum Museumseingang.","addr:street":"Nikolaistraße","addr:postcode":"04109","addr:city":"Leipzig"},"geometry":{"type":"Point","coordinates":[12.3785792,51.3434529]},"id":"2764105058"},{"type":"Feature","properties":{"name":"Kofferradiomuseum Gräfenhain","tourism":"museum"},"geometry":{"type":"Point","coordinates":[13.9336957,51.247216]},"id":"2778337003"},{"type":"Feature","properties":{"addr:housenumber":"1","addr:country":"DE","name":"Ehemalige Königliche Schrotfabrik","description":"Ausstellung u.a. des originalen Schmelzkessels.","tourism":"museum","addr:street":"Helmertplatz","addr:postcode":"09599","addr:city":"Freiberg"},"geometry":{"type":"Point","coordinates":[13.3461956,50.9166641]},"id":"2800780153"},{"type":"Feature","properties":{"addr:housenumber":"14","phone":"+49 3731 392264","amenity":"university","addr:country":"DE","name":"Mineralogische Sammlung, Lagerstättensammlung, Petrologische Sammlung","opening_hours":"Mo-Th 09:00-12:00,13:00-16:00","tourism":"museum","addr:street":"Brennhausgasse","addr:postcode":"09599","addr:city":"Freiberg"},"geometry":{"type":"Point","coordinates":[13.3434281,50.9209]},"id":"2826573024"},{"type":"Feature","properties":{"name":"BRN-Museum","opening_hours":"Su[1] 11:00-17:00","tourism":"museum"},"geometry":{"type":"Point","coordinates":[13.7593901,51.0650806]},"id":"2839972782"},{"type":"Feature","properties":{"name":"Universitätssammlungen Kunst+Technik der TU Dresden","tourism":"museum"},"geometry":{"type":"Point","coordinates":[13.7254472,51.0278553]},"id":"2839994745"},{"type":"Feature","properties":{"name":"Schloß Leubnitz","toilets:wheelchair":"yes","tourism":"museum","wheelchair":"yes"},"geometry":{"type":"Point","coordinates":[12.0224439,50.5153575]},"id":"2843859497"},{"type":"Feature","properties":{"name":"Technikmuseum Kirschau","name:hsb":"Techniski muzej Korzym","tourism":"museum"},"geometry":{"type":"Point","coordinates":[14.4342339,51.0952509]},"id":"2925815489"},{"type":"Feature","properties":{"addr:housenumber":"62","addr:country":"DE","name":"Fort Henry","tourism":"museum","addr:street":"Lößnitzgrundstraße","addr:postcode":"01445","addr:city":"Radebeul"},"geometry":{"type":"Point","coordinates":[13.6549126,51.1185979]},"id":"2969930124"},{"type":"Feature","properties":{"addr:housenumber":"21","name":"Ausstellung zu Bebel / Liebknecht in Hubertusburg","tourism":"museum","addr:street":"Hubertusburg","addr:postcode":"04779","addr:city":"Wermsdorf"},"geometry":{"type":"Point","coordinates":[12.9419441,51.2768889]},"id":"3012291844"},{"type":"Feature","properties":{"wheelchair":"no","addr:housenumber":"7","addr:country":"DE","name":"Burg Kriebstein","opening_hours":"Feb-Mar 10:00-16:00; Apr-Oct 10:00-17:30; Mo off","tourism":"museum","addr:street":"Kriebsteiner Straße","addr:postcode":"09648","contact:website":"http://www.burg-kriebstein.de","addr:city":"Kriebstein"},"geometry":{"type":"Point","coordinates":[13.0175517,51.042373]},"id":"3014392746"},{"type":"Feature","properties":{"name":"Stadtgeschichte Zwönitz","tourism":"museum"},"geometry":{"type":"Point","coordinates":[12.8133901,50.6284657]},"id":"3014882642"},{"type":"Feature","properties":{"name":"Austelmühle","tourism":"museum","man_made":"adit","resource":"iron_ore"},"geometry":{"type":"Point","coordinates":[12.8147951,50.632015]},"id":"3029633846"},{"type":"Feature","properties":{"name":"Heimatmuseum","tourism":"museum"},"geometry":{"type":"Point","coordinates":[12.3693814,50.4768081]},"id":"3125795381"},{"type":"Feature","properties":{"inf":"Modelpark","phone":"+49 351 4538116","name":"Schulze-Mühle","opening_hours":"Apr-Oct: Su 13:00-17:00","tourism":"museum","addr:street":"Eichhörnchengrund","addr:postcode":"01665","addr:city":"Klipphausen"},"geometry":{"type":"Point","coordinates":[13.5480091,51.1133367]},"id":"3125995594"},{"type":"Feature","properties":{"website":"http://www.wassermuehle-gospersgruen.de/","watermill:disused":"yes","man_made":"watermill","name":"Wassermühle Gospersgrün","opening_hours":"Apr-Oct: Sa-Su 13:00-18:00","description":"Wassermühle mit oberschlächtigem Rad von 1679 bis 1970 in Betrieb. (Schrotmühle) Heute Museum","tourism":"museum","wikipedia":"de:Gospersgrün","wikidata":"Q1538579","start_date":"1679"},"geometry":{"type":"Point","coordinates":[12.3832833,50.6865832]},"id":"3136114841"},{"type":"Feature","properties":{"toilets:wheelchair":"no","wheelchair":"limited","addr:housenumber":"39","website":"http://www.luegenmuseum.de","phone":"+49 351 33455848","name":"Lügenmuseum","tourism":"museum","wheelchair:description":"Der Eingang des Lügenmuseums ist ebenerdig. Durch den Hintereingang können weitere Räume besichtigt werden. Kein Behinderten-WC.","addr:street":"Kötzschenbrodaer Straße","addr:postcode":"01445","addr:city":"Radebeul"},"geometry":{"type":"Point","coordinates":[13.6593376,51.0960743]},"id":"3161218801"},{"type":"Feature","properties":{"wheelchair":"no","website":"http://www.schloss-rochlitz.de/","name":"Schloss Rochlitz","opening_hours":"Mo-Fr 11:30-17:00; Sa-Su 10:00-17:00; Nov-Feb off","ref:isil":"DE-MUS-861018","tourism":"museum"},"geometry":{"type":"Point","coordinates":[12.7917409,51.0452095]},"id":"3166409681"},{"type":"Feature","properties":{"name":"Tuchmacherhaus","opening_hours":"Mo-Th 09:00-14:00","tourism":"museum"},"geometry":{"type":"Point","coordinates":[13.1243448,50.9719747]},"id":"3179336886"},{"type":"Feature","properties":{"name":"Puppen- und Spielzeugmuseum","tourism":"museum","website":"http://www.spielzeugmuseum-lichtenstein.de"},"geometry":{"type":"Point","coordinates":[12.6352229,50.7561546]},"id":"3195579294"},{"type":"Feature","properties":{"addr:suburb":"Schellerhau","addr:housenumber":"87","addr:country":"DE","name":"Heimatstuben","tourism":"museum","addr:street":"Hauptstraße","addr:postcode":"01773","addr:city":"Altenberg"},"geometry":{"type":"Point","coordinates":[13.6890927,50.7767162]},"id":"3214259921"},{"type":"Feature","properties":{"name":"Heimatmuseum","tourism":"museum"},"geometry":{"type":"Point","coordinates":[13.5894482,50.9261079]},"id":"3220055180"},{"type":"Feature","properties":{"end_date":"2000","website":"http://www.bergbau-live.de","historic":"yes","man_made":"adit","resource":"Buntmetall","tourism":"museum","disused":"yes","operator":"IG Bergbau & Mineralien Olbernhau e.V.","phone":"+49 37360 35036","name":"Hand Gottes Stollen","email":"verein@bergbau-live.de","start_date":"1515"},"geometry":{"type":"Point","coordinates":[13.3660767,50.6608115]},"id":"3244509771"},{"type":"Feature","properties":{"addr:housenumber":"30","phone":"+49 37327 9958","name":"Flößerhaus","tourism":"museum","addr:street":"Muldentalstraße","addr:postcode":"09623","operator":"Heimatgeschichtsverein Rechenberg - Bienenmühle e.V.","addr:city":"Rechenberg-Bienenmühle"},"geometry":{"type":"Point","coordinates":[13.5570814,50.7355641]},"id":"3245716361"},{"type":"Feature","properties":{"name":"Flugplatzausstellung Bunkeranlage GRANIT","tourism":"museum"},"geometry":{"type":"Point","coordinates":[13.5492084,51.3049858]},"id":"3247296610"},{"type":"Feature","properties":{"addr:housenumber":"4","website":"http://www.sparkassenmuseum-leipzig.de","description:de":"Museum befindet sich in der Kunsthalle der Sparkasse","name":"Sparkassenmuseum","opening_hours":"Tu 15:00-17:00; We 10:00-13:00","tourism":"museum","addr:street":"Schillerstraße","addr:postcode":"04109","addr:city":"Leipzig"},"geometry":{"type":"Point","coordinates":[12.3765891,51.3370587]},"id":"3355425483"},{"type":"Feature","properties":{"wheelchair":"no","addr:housenumber":"32","website":"http://www.schloss-voigtsberg.de/","name":"Museen Schloß Voigtsberg","opening_hours":"Tu-Su 11:00-17:00","tourism":"museum","name:en":"Museum Castel Voigtsberg","addr:street":"Schloßstraße","addr:postcode":"08606","operator":"Oelsnitzer Kultur GmbH","addr:city":"Oelsnitz/Vogtl."},"geometry":{"type":"Point","coordinates":[12.1834498,50.4222905]},"id":"3394999323"},{"type":"Feature","properties":{"addr:housenumber":"10","website":"http://www.carlfriedrich-claus.de","name":"Studienraum Carlfriedrich Claus","opening_hours":"in der Regel von Mi–Sa, von 12–17 Uhr, bitte auf Webseite informieren","tourism":"museum","addr:street":"Johannisgasse","addr:postcode":"09456","operator":"Förderverein Carlfriedrich Claus – Lebens- und Arbeitsort in Annaberg-Buchholz e.V.","addr:city":"Annaberg-Buchholz"},"geometry":{"type":"Point","coordinates":[13.0015576,50.5788339]},"id":"3487260182"},{"type":"Feature","properties":{"name":"Heimatstube","tourism":"museum","wheelchair":"no"},"geometry":{"type":"Point","coordinates":[14.6708771,51.0330305]},"id":"3561592817"},{"type":"Feature","properties":{"addr:housenumber":"44","website":"http://www.raachermannlmuseum.de/","name":"1. Räuchermann Museum","tourism":"museum","addr:street":"Dorfstraße","addr:postcode":"09465","addr:city":"Sehmatal"},"geometry":{"type":"Point","coordinates":[12.9911357,50.5161366]},"id":"3573327313"},{"type":"Feature","properties":{"toilets:wheelchair":"yes","wheelchair":"yes","addr:housenumber":"2","name":"Erlebnismuseum \"Alte Steinsäge\"","tourism":"museum","addr:street":"Schulsteg","addr:postcode":"01877","addr:city":"Demitz-Thumitz"},"geometry":{"type":"Point","coordinates":[14.2462045,51.140997]},"id":"3615174803"},{"type":"Feature","properties":{"name":"SteinReich Museum","opening_hours":"Apr-Oct: 08:00-20:00","tourism":"museum","website":"http://www.steinreich-sachsen.de/info.html#museum","fee":"yes"},"geometry":{"type":"Point","coordinates":[14.0538702,50.9872623]},"id":"3628456311"},{"type":"Feature","properties":{"addr:housenumber":"12","website":"http://www.wilsdruff.de/(S(a0o0agb1hpitr3vqtcjus2zw))/wilma.aspx?pgId=607&WilmaLogonActionBehavior=Default","phone":"+49 35204 46398","name":"Heimatmuseum Wilsdruff","opening_hours":"Mo-Th 09:00-14:00; Fr 09:00-15:00; Sa off; Su,PH 14:00-18:00","tourism":"museum","addr:street":"Gezinge","addr:postcode":"01723","email":"post@heimatmuseum.wilsdruff.net","operator":"Angelika Marienfeldt","addr:city":"Wilsdruff"},"geometry":{"type":"Point","coordinates":[13.5365884,51.0501172]},"id":"3631036544"},{"type":"Feature","properties":{"name":"Schumann-Haus","opening_hours":"Mo-Fr 14:00-18:00, Sa,Su 10:00-18:00","tourism":"museum"},"geometry":{"type":"Point","coordinates":[12.3911054,51.3404972]},"id":"3641986471"},{"type":"Feature","properties":{"name":"Museum auf dem Dachboden","tourism":"museum"},"geometry":{"type":"Point","coordinates":[13.9419008,51.0350449]},"id":"3708853630"},{"type":"Feature","properties":{"name":"Stadtmuseum","tourism":"museum"},"geometry":{"type":"Point","coordinates":[14.6662839,51.0956897]},"id":"3724394484"},{"type":"Feature","properties":{"name":"Museum im Trafohaus","tourism":"museum","website":"http://www.historischer-elektromaschinenbau.de/"},"geometry":{"type":"Point","coordinates":[12.3084672,51.3321671]},"id":"3730317074"},{"type":"Feature","properties":{"addr:housenumber":"1","name":"Stadt- und Waagenmuseum","opening_hours":"Tu-Th 10:00-12:30,13:00-17:00; Fr-Su 13:30-17:00","description":"Historisches Gebäude, Rats- und Amtsfronfeste, grenzen z. T. noch an die gut erhaltene Altstadtmauer an.","tourism":"museum","addr:street":"Frongasse","addr:postcode":"04758","addr:city":"Oschatz"},"geometry":{"type":"Point","coordinates":[13.1057921,51.2971801]},"id":"3763522922"},{"type":"Feature","properties":{"name":"Dorfmuseum - Ausstellung zur Ortsgeschichte","tourism":"museum"},"geometry":{"type":"Point","coordinates":[13.9409097,51.2037344]},"id":"3781826453"},{"type":"Feature","properties":{"image":"http://commons.wikimedia.org/wiki/File:2017_Coswig_Villa_Thienemann_auf_der_Karrasburg.jpg","wheelchair":"limited","addr:country":"DE","tourism":"museum","addr:postcode":"01640","addr:city":"Coswig","addr:housenumber":"4","check_date":"2017-12-09","name":"Museum Coswig","opening_hours":"Tu,Th 12:00-18:00; Sa,Su 14:00-18:00; Mo,We,Fr,PH off \"nach Vereinbarung\"","addr:street":"Karrasstraße","start_date":"1996"},"geometry":{"type":"Point","coordinates":[13.578358,51.1269168]},"id":"3792853141"},{"type":"Feature","properties":{"addr:housename":"ICM Meißen","addr:housenumber":"37a","website":"www.ig-modellbahn-meissen-digital-de","name":"IG Modelleisenbahn Meißen -1999- e.V.","tourism":"museum","addr:street":"Ossietzkystraße","addr:postcode":"01662","addr:city":"Meißen"},"geometry":{"type":"Point","coordinates":[13.4597403,51.1359673]},"id":"3801755159"},{"type":"Feature","properties":{"note":"Steht teilweise auf dem stillgelegten Gleis","name":"DB Baustelle Knoten Leipzig Infopunkt","opening_hours":"We-Su 12:00-19:00","tourism":"museum","source":"survey","operator":"Deutsche Bahn","start_date":"2013"},"geometry":{"type":"Point","coordinates":[12.3831325,51.3445738]},"id":"3833986669"},{"type":"Feature","properties":{"name":"Museumsfeldbahn Leipzig-Lindenau","tourism":"museum","website":"http://www.museumsfeldbahn.de","operator":"Museumsfeldbahn Leipzig-Lindenau e.V."},"geometry":{"type":"Point","coordinates":[12.2965707,51.3373749]},"id":"3840020506"},{"type":"Feature","properties":{"wheelchair":"limited","website":"https://www.facebook.com/Historische-Sammlung-Altenberg-868226359907826","historic":"yes","tourism":"museum","addr:postcode":"01773","addr:city":"Altenberg","addr:housenumber":"2","name":"Historische Sammlung","opening_hours":"Su 15:00-18:00","addr:street":"Bahnhof","entrance":"main","email":"historische-sammlung.altenberg@freenet.de"},"geometry":{"type":"Point","coordinates":[13.7526667,50.7661658]},"id":"3840467380"},{"type":"Feature","properties":{"addr:housenumber":"25","website":"http://oberlausitz-museum.de/ackerbuergermuseum-reichenbach-ol/","phone":"+49 35828 72093","name":"Ackerbürgermuseum Reichenbach","opening_hours":"Tu-Su 13:00-17:00","tourism":"museum","addr:street":"Görlitzer Straße","addr:postcode":"02894","addr:city":"Reichenbach/O.L."},"geometry":{"type":"Point","coordinates":[14.8038621,51.1426731]},"id":"3874280504"},{"type":"Feature","properties":{"addr:housenumber":"23","website":"http://www.adam-ries-museum.de","name":"Adam-Ries-Museum","opening_hours":"Tue - Fri: 10:00 - 16:00, Sat, Sun: 12:00 - 16:00","tourism":"museum","addr:street":"Johannisgasse","addr:postcode":"09456","operator":"Adam-Ries-Bund e.V.","addr:city":"Annaberg-Buchholz"},"geometry":{"type":"Point","coordinates":[13.0014304,50.5791069]},"id":"3891067354"},{"type":"Feature","properties":{"name":"Fundgrube Weißer Hirsch","tourism":"museum","website":"http://www.bergbauverein-weisser-hirsch.de"},"geometry":{"type":"Point","coordinates":[12.6374675,50.5882327]},"id":"3891089082"},{"type":"Feature","properties":{"name":"Feuerwehrmuseum","tourism":"museum"},"geometry":{"type":"Point","coordinates":[14.6722498,51.0293487]},"id":"3907277232"},{"type":"Feature","properties":{"addr:housenumber":"44","name":"Spielzeugmuseum","tourism":"museum","addr:street":"Schillerstraße","addr:postcode":"04435","addr:city":"Schkeuditz"},"geometry":{"type":"Point","coordinates":[12.2203577,51.4003726]},"id":"3924932449"},{"type":"Feature","properties":{"website":"http://tu-freiberg.de/fakult6/technikgeschichte-und-industriearchaeologie/zentrale-einrichtungen/historicum","fixme":"Lage bitte noch anpassen.","tourism":"museum","addr:postcode":"09599","operator":"TU Bergakademie Freiberg","addr:city":"Freiberg","addr:housenumber":"22","phone":"+49 3731 393491","name":"Historicum","opening_hours":"Fr[1] 14:00-17:00","addr:street":"Nonnengasse","fax":"+49 3731 392832","email":"Norman.Pohl@iwtg.tu-freiberg.de"},"geometry":{"type":"Point","coordinates":[13.3408616,50.9181402]},"id":"3928427243"},{"type":"Feature","properties":{"name":"Modelleisenbahn","tourism":"museum"},"geometry":{"type":"Point","coordinates":[14.6194926,50.9375972]},"id":"3967810366"},{"type":"Feature","properties":{"name":"Galerie e. o. plauen","tourism":"museum","addr:housenumber":"7-13","addr:street":"Nobelstraße","phone":"+49 3741 291 2410"},"geometry":{"type":"Point","coordinates":[12.1342966,50.4935444]},"id":"3984368548"},{"type":"Feature","properties":{"wheelchair":"yes","website":"http://www.alaunbergwerk-plauen.de","man_made":"adit","resource":"alum shale","name":"Ewiges Leben","tourism":"museum","disused":"yes","operator":"Vogtländischer Bergknappenverein zu Plauen e.V."},"geometry":{"type":"Point","coordinates":[12.1352761,50.4985955]},"id":"3984731413"},{"type":"Feature","properties":{"addr:housenumber":"5","website":"http://www.langenhennersdorf.net","addr:country":"DE","name":"Heimatstube Langenhennersdorf","tourism":"museum","addr:street":"Am Berg","addr:postcode":"01816","addr:city":"Bad Gottleuba-Berggießhübel"},"geometry":{"type":"Point","coordinates":[14.0072757,50.8876316]},"id":"3987691471"},{"type":"Feature","properties":{"name":"Museum Margarethenhütte","tourism":"museum","website":"http://www.museum-mhuette.de","phone":"035934 66564"},"geometry":{"type":"Point","coordinates":[14.4544324,51.2500889]},"id":"4080420304"},{"type":"Feature","properties":{"image":"http://commons.wikimedia.org/wiki/File:2016_Pohrsdorf_Saxophon-Museum_Saxstall.jpg","website":"http://www.saxstall.de/","addr:country":"DE","tourism":"museum","addr:postcode":"01737","operator":"Eckard Schleiermacher","addr:city":"Tharandt","addr:suburb":"Pohrsdorf","addr:housenumber":"87","name":"Saxstall","opening_hours":"off \"nach Vereinbarung\"","addr:street":"Dorfstraße","entrance":"main","email":"eckard.schleiermacher@freenet.de"},"geometry":{"type":"Point","coordinates":[13.5290505,50.9997846]},"id":"4119263445"},{"type":"Feature","properties":{"name":"Richard-Wagner-Ausstellung","opening_hours":"Tu-Fr 11:00-17:00; Sa-Su 10:00-17:00","tourism":"museum","wheelchair":"yes","operator":"Kultur und Tourismusgesellschaft Pirna mbH"},"geometry":{"type":"Point","coordinates":[13.9220377,50.9991927]},"id":"4122975082"},{"type":"Feature","properties":{"owner":"Wismut GmbH","addr:housenumber":"7","phone":"+49 37605 80124","name":"Lagerstättensammlung der Wismut","tourism":"museum","addr:street":"Talstraße","fax":"+49 37605 80102","addr:postcode":"08118","operator":"Verein zur Wiedereröffnung und Entwicklung Kur- und Heilbad Schlema e. V.","addr:city":"Hartenstein"},"geometry":{"type":"Point","coordinates":[12.6834867,50.6318433]},"id":"4150857459"},{"type":"Feature","properties":{"wheelchair":"no","addr:housenumber":"4","name":"Freunde aktueller Kunst Zwickau","tourism":"museum","addr:street":"Hölderlinstraße","addr:postcode":"08056","addr:city":"Zwickau"},"geometry":{"type":"Point","coordinates":[12.4918873,50.7250098]},"id":"4175864112"},{"type":"Feature","properties":{"name":"Oybiner Märchenspiele","tourism":"museum"},"geometry":{"type":"Point","coordinates":[14.7450323,50.8431907]},"id":"4190378150"},{"type":"Feature","properties":{"name":"Elektrotechnische Sammlung","tourism":"museum","website":"www.vde-leipzig-halle.de/sammlung"},"geometry":{"type":"Point","coordinates":[12.3808173,51.2781481]},"id":"4214047451"},{"type":"Feature","properties":{"addr:housenumber":"9","website":"http://www.honig-portal.de/museen.html","museum":"apis mellifera","name":"Kleines Bienenmuseum Oberlichtenau","tourism":"museum","addr:street":"Pulsnitztalstraße"},"geometry":{"type":"Point","coordinates":[13.9920423,51.2186089]},"id":"4221262295"},{"type":"Feature","properties":{"website":"http://www.inspirata.de","level":"3","description":"Eingang G neben Pförtnerloge","tourism":"museum","addr:postcode":"04103","operator":"Verein „INSPIRATA – Zentrum für mathematisch-naturwissenschaftliche Bildung e.V.","addr:city":"Leipzig","addr:housenumber":"4","phone":"+49 (341) 12 59 757","name":"Inspirata","opening_hours":"Sa 12:00-18:00","addr:street":"Deutscher Platz"},"geometry":{"type":"Point","coordinates":[12.3972566,51.3205252]},"id":"4228060389"},{"type":"Feature","properties":{"name":"Modell Schmiedeberg 1924","tourism":"museum","operator":"IG Pyramide"},"geometry":{"type":"Point","coordinates":[13.6752892,50.8377364]},"id":"4321946949"},{"type":"Feature","properties":{"name":"WohnKultur Museum","tourism":"museum"},"geometry":{"type":"Point","coordinates":[13.7713137,51.0488988]},"id":"4343342644"},{"type":"Feature","properties":{"name":"Clemens-Winkler-Gedenkstätte","tourism":"museum","source":"http://tu-freiberg.de/universitaet/einrichtungen/clemens-winkler-gedenkstaette"},"geometry":{"type":"Point","coordinates":[13.3419014,50.9204498]},"id":"4411600781"},{"type":"Feature","properties":{"name:de":"Spinnerei Archiv Massiv","website":"http://archiv-massiv.de","phone":"+493414980222","name":"Spinnerei Archiv Massiv","opening_hours":"Tu-Sa 11:00-18:00","tourism":"museum","name:en":"Spinnerei Archiv Massiv","addr:postcode":"04179","email":"archivmassiv@spinnerei.de"},"geometry":{"type":"Point","coordinates":[12.3199539,51.3273641]},"id":"4423668790"},{"type":"Feature","properties":{"name":"Museum Nünchritz","opening_hours":"Su 15:00-17:00; PH off","tourism":"museum","contact:phone":"+49 35265 50012","contact:website":"http://nuenchritz.de/nuenchritz/content/37/20130514133331.asp"},"geometry":{"type":"Point","coordinates":[13.384265,51.3015589]},"id":"4425065115"},{"type":"Feature","properties":{"toilets:wheelchair":"yes","wheelchair":"yes","phone":"+49 37348 1550 50","name":"Wiesenthaler K3","opening_hours":"Mo-Su,PH 09:30-17:00","tourism":"museum"},"geometry":{"type":"Point","coordinates":[12.9690787,50.4192322]},"id":"4430828890"},{"type":"Feature","properties":{"name":"Fahrradmuseum","tourism":"museum"},"geometry":{"type":"Point","coordinates":[13.0282427,51.5105886]},"id":"4447199478"},{"type":"Feature","properties":{"name":"Kleinkälte","tourism":"museum"},"geometry":{"type":"Point","coordinates":[13.0564477,50.7028666]},"id":"4456011398"},{"type":"Feature","properties":{"name":"Museum Pfefferkuchen-Schauwerkstatt","opening_hours":"Tu-Fr 10:00-17:00; Su 14:00-17:00","tourism":"museum","operator":"Ernst-Rietschel-Kulturring e.V."},"geometry":{"type":"Point","coordinates":[14.0128556,51.1821844]},"id":"4487216863"},{"type":"Feature","properties":{"name":"Modellbahnland Erzgebirge","tourism":"museum","wheelchair":"yes","website":"http://www.modellbahnland-erzgebirge.de/"},"geometry":{"type":"Point","coordinates":[12.9836038,50.6197235]},"id":"4565073990"},{"type":"Feature","properties":{"name":"ZCOM Zuse-Computer-Museum","tourism":"museum","source":"www.zuse-computer-museum.com","operator":"Konrad Zuse Stiftung"},"geometry":{"type":"Point","coordinates":[14.2560574,51.4375243]},"id":"4643011715"},{"type":"Feature","properties":{"addr:housenumber":"76b","addr:country":"DE","name":"Verein Deutsches Museum für Galvanotechnik e.V.","tourism":"museum","addr:street":"Torgauer Straße","addr:postcode":"04318","addr:city":"Leipzig"},"geometry":{"type":"Point","coordinates":[12.4212222,51.3471961]},"id":"4660250256"},{"type":"Feature","properties":{"wheelchair":"yes","name":"Die Welt der DDR","opening_hours":"10:00-19:00","tourism":"museum","contact:website":"http://www.weltderddr.de","operator":"Glück, Gesundheit, Kultur KiG GmbH"},"geometry":{"type":"Point","coordinates":[13.7464014,51.064393]},"id":"4666415750"},{"type":"Feature","properties":{"wheelchair":"no","website":"http://heimatkreis-kesselsdorf.de/cms/content/view/4/4/","tourism":"museum","addr:postcode":"01723","operator":"Heimatkreis Kesselsdorf","addr:city":"Wilsdruff","addr:suburb":"Kesselsdorf","addr:housenumber":"2","contact:phone":"+49 35204 40798","phone":"+49 35204 40329","name":"Heimatstube","opening_hours":"Su[1],Su[3] 14:00-16:00; PH off; Mo-Sa off \"nach Vereinbarung\"","addr:street":"Schulstraße"},"geometry":{"type":"Point","coordinates":[13.5926709,51.0309206]},"id":"4769152584"},{"type":"Feature","properties":{"name":"Ausstellung","tourism":"museum"},"geometry":{"type":"Point","coordinates":[14.3268127,51.3973662]},"id":"4809857349"},{"type":"Feature","properties":{"name":"Turbinensaal","tourism":"museum"},"geometry":{"type":"Point","coordinates":[14.3269069,51.3968076]},"id":"4809857350"},{"type":"Feature","properties":{"name":"Ofen- und Feuerstättenausstellung \"Heiß geliebt\"","tourism":"museum"},"geometry":{"type":"Point","coordinates":[14.3268431,51.395842]},"id":"4809857351"},{"type":"Feature","properties":{"name":"Historische Schlosserei","tourism":"museum"},"geometry":{"type":"Point","coordinates":[14.3268551,51.395526]},"id":"4809857352"},{"type":"Feature","properties":{"name":"Findlingspyramide","tourism":"museum"},"geometry":{"type":"Point","coordinates":[14.3278866,51.3959562]},"id":"4809857353"},{"type":"Feature","properties":{"name":"Maschinenpark","tourism":"museum"},"geometry":{"type":"Point","coordinates":[14.3284285,51.3952578]},"id":"4809857354"},{"type":"Feature","properties":{"name":"Historische Bergbautechnik","tourism":"museum"},"geometry":{"type":"Point","coordinates":[14.3309029,51.3967818]},"id":"4809857355"},{"type":"Feature","properties":{"image":"http://commons.wikimedia.org/wiki/File:2017_Kirschau_Burgmuseum.jpg","website":"http://www.stadt-schirgiswalde-kirschau.de/verzeichnis/objekt.php?mandat=91406","addr:country":"DE","tourism":"museum","addr:postcode":"02681","addr:city":"Schirgiswalde-Kirschau","addr:suburb":"Kirschau","addr:housenumber":"25","phone":"+49 3592 38780","name":"Burgmuseum Kirschau","opening_hours":"Su[1] 14:00-16:00","addr:street":"Am Schlossberg","entrance":"main"},"geometry":{"type":"Point","coordinates":[14.4315234,51.0896199]},"id":"4811222491"},{"type":"Feature","properties":{"name":"Heimatmuseum","tourism":"museum","name:de":"Heimatmuseum"},"geometry":{"type":"Point","coordinates":[12.4154111,51.1971575]},"id":"4813948321"},{"type":"Feature","properties":{"name":"Alte Brauerei","tourism":"museum"},"geometry":{"type":"Point","coordinates":[14.4547799,51.0828812]},"id":"4816397101"},{"type":"Feature","properties":{"name":"Alte Lateinschule","tourism":"museum","heritage":"yes"},"geometry":{"type":"Point","coordinates":[13.5300183,51.2927833]},"id":"4840380959"},{"type":"Feature","properties":{"addr:housenumber":"28-32","website":"http://www.nostalgiemuseum-leipzig.de","phone":"034158066219","name":"N'Ostalgie Museum Leipzig","opening_hours":"Tu-Su 10:00-18:00","tourism":"museum","addr:street":"Nikolaistraße","addr:postcode":"04109"},"geometry":{"type":"Point","coordinates":[12.3784291,51.3420095]},"id":"4845992621"},{"type":"Feature","properties":{"name":"Phänomenia","opening_hours":"Mo-Th 08:30-15:30; PH,Su 12:00-19:00; SH Mo-Th 08:30-17:00","tourism":"museum","website":"http://www.phaenomenia.de"},"geometry":{"type":"Point","coordinates":[12.7839435,50.7046528]},"id":"4850755190"},{"type":"Feature","properties":{"addr:housenumber":"18","addr:country":"DE","name":"Pflanzengarten und Heimatmuseum Stadt Wehlen","tourism":"museum","addr:street":"Lohmener Straße","addr:postcode":"01829","addr:city":"Stadt Wehlen"},"geometry":{"type":"Point","coordinates":[14.031271,50.9584624]},"id":"4882081189"},{"type":"Feature","properties":{"website":"http://www.hummelmuehle-kreischa.de/i","description:de":"Die Hummelmühle ist ein technisches Denkmal. Zum Mühlentag an Pfingstmontag ist sie immer geöffnet. Ansonsten ist eine Besichtigung nach Absprache möglich.","phone":"+49 35206 23737","name":"Museum Hummelmühle","opening_hours":"easter+50 10:00-15:00","tourism":"museum","operator":"Hummelmühle Lockwitz GmbH"},"geometry":{"type":"Point","coordinates":[13.777355,50.9668429]},"id":"4897564174"},{"type":"Feature","properties":{"addr:housenumber":"6","name":"Domschatzkammer Bautzen","opening_hours":"Mo-Fr 10:00-12:00 und 13:00-16:00","tourism":"museum","addr:street":"An der Petrikirche","addr:postcode":"02625","operator":"Bistum Dresden-Meißen","addr:city":"Bautzen"},"geometry":{"type":"Point","coordinates":[14.4235192,51.1830873]},"id":"4902225381"},{"type":"Feature","properties":{"name":"Hunt","tourism":"museum"},"geometry":{"type":"Point","coordinates":[12.921409,50.6348421]},"id":"4972679000"},{"type":"Feature","properties":{"name":"Freilichtmuseum Bahnhof Rochlitz","tourism":"museum","name:de":"Freilichtmuseum Bahnhof Rochlitz"},"geometry":{"type":"Point","coordinates":[12.7938625,51.0561834]},"id":"5056786922"},{"type":"Feature","properties":{"name":"Dampfmaschinenhalle","tourism":"museum","operator":"Bulldogfreunde Erzgebirge e. V."},"geometry":{"type":"Point","coordinates":[12.9175581,50.7343276]},"id":"5102542371"},{"type":"Feature","properties":{"image":"http://commons.wikimedia.org/wiki/File:2017_Kleinopitz_Heimatstube.jpg","historic":"yes","addr:country":"DE","tourism":"museum","addr:postcode":"01737","addr:city":"Wilsdruff","addr:suburb":"Kleinopitz","addr:housenumber":"10","name":"Heimatstube","addr:street":"Schulstraße","entrance":"main","start_date":"1836"},"geometry":{"type":"Point","coordinates":[13.5954821,51.0046416]},"id":"5145230873"},{"type":"Feature","properties":{"name":"Sächsisches Eisenbahnmuseum e. V.","tourism":"museum","website":"http://www.sem-chemnitz.de/"},"geometry":{"type":"Point","coordinates":[12.9340357,50.8598865]},"id":"5156839418"},{"type":"Feature","properties":{"name":"Spielzeugmuseum Görlitz","opening_hours":"We-Fr 10:00-16:00; Sa-Su 14:00-17:00","tourism":"museum","website":"http://www.spielzeugmuseum-görlitz.de"},"geometry":{"type":"Point","coordinates":[14.9897985,51.1607247]},"id":"5160390522"},{"type":"Feature","properties":{"wheelchair":"no","website":"http://www.heimatmuseum-bad-brambach.de/","phone":"+49 37438 22586","name":"Heimatmuseum","opening_hours":"We,Sa 14:00-17:00","tourism":"museum","email":"info@heimatmuseum-bad-brambach.de","operator":"Heimatfreunde Bad Brambach"},"geometry":{"type":"Point","coordinates":[12.3115392,50.2230135]},"id":"5184163777"},{"type":"Feature","properties":{"addr:suburb":"Burgk","wheelchair":"limited","addr:housenumber":"61","addr:country":"DE","name":"Heimatmuseum Schloss Burgk","opening_hours":"Tu-Fr 13:00-16:00; Sa-Su 10:00-17:00","tourism":"museum","addr:street":"Altburgk","entrance":"main","addr:postcode":"01705","addr:city":"Freital"},"geometry":{"type":"Point","coordinates":[13.6694606,51.0031674]},"id":"5293942942"},{"type":"Feature","properties":{"name":"Lutherhaus","toilets:wheelchair":"yes","tourism":"museum","wheelchair":"yes"},"geometry":{"type":"Point","coordinates":[10.3201572,50.9732655]},"id":"48930320"},{"type":"Feature","properties":{"toilets:wheelchair":"yes","wheelchair":"yes","website":"www.bachhaus.de","name":"Bachhaus","tourism":"museum","wikipedia":"de:Bachhaus Eisenach","wikidata":"Q798175"},"geometry":{"type":"Point","coordinates":[10.3222137,50.9714931]},"id":"48930325"},{"type":"Feature","properties":{"name":"Lucas-Cranach-Haus","tourism":"museum","wheelchair":"limited"},"geometry":{"type":"Point","coordinates":[10.7027814,50.9478206]},"id":"269503304"},{"type":"Feature","properties":{"name":"Eichsfelder Heimatmuseum","tourism":"museum","wheelchair":"yes"},"geometry":{"type":"Point","coordinates":[10.1363024,51.3778566]},"id":"270777666"},{"type":"Feature","properties":{"name":"Heimatstube Alach","tourism":"museum"},"geometry":{"type":"Point","coordinates":[10.9295324,50.9862579]},"id":"270892638"},{"type":"Feature","properties":{"name":"Löfflerhaus","tourism":"museum","wheelchair":"no"},"geometry":{"type":"Point","coordinates":[10.7050413,50.9504952]},"id":"271189031"},{"type":"Feature","properties":{"name":"Historisches Schlossmuseum","tourism":"museum","wheelchair":"no"},"geometry":{"type":"Point","coordinates":[10.7038113,50.9461291]},"id":"271199002"},{"type":"Feature","properties":{"name":"Heimatstube","tourism":"museum"},"geometry":{"type":"Point","coordinates":[10.738713,50.6334489]},"id":"277028358"},{"type":"Feature","properties":{"wheelchair":"no","website":"http://www.thermometermuseum.de","addr:country":"DE","tourism":"museum","addr:postcode":"98716","addr:city":"Geraberg","addr:housenumber":"9","phone":"03677-205681","name":"Deutsches Thermometermuseum","opening_hours":"Tu-Sa 10:00-16:00","addr:street":"Plan","fax":"03677-206899","email":"mail@thermometermuseum.de"},"geometry":{"type":"Point","coordinates":[10.8471919,50.7175486]},"id":"278005959"},{"type":"Feature","properties":{"image":"https://commons.wikimedia.org/wiki/File%3AHeilbad_Heiligenstadt_Herrenmuehle-01.jpg","website":"www.denkmal-herrnmuehle.de","man_made":"watermill","addr:country":"DE","description":"Herrenmühle, Frohnmühlengasse 1 in Heilbad Heiligenstadt","tourism":"museum","heritage":"yes","addr:postcode":"37308","addr:city":"Heilbad Heiligenstadt","addr:housenumber":"1","name":"Herrnmühle","addr:street":"Frohnmühlengasse"},"geometry":{"type":"Point","coordinates":[10.132703,51.3791786]},"id":"279475781"},{"type":"Feature","properties":{"wheelchair":"no","website":"http://heinrich-schuetz-haus.de","addr:country":"DE","tourism":"museum","source":"extrapolation","addr:postcode":"07586","addr:city":"Bad Köstritz","toilets:wheelchair":"no","addr:housenumber":"1","phone":"+49 36605 36198","name":"Heinrich-Schütz-Haus","opening_hours":"Mo off; Tu-Fr 10:00-17:00; Sa-Su 13:00-17:00","addr:street":"Heinrich-Schütz-Straße","wikipedia":"de:Heinrich Schütz","fax":"+49 36605 36199","wikidata":"Q153643","email":"info@heinrich-schuetz-haus.de"},"geometry":{"type":"Point","coordinates":[12.0109789,50.9303154]},"id":"282474280"},{"type":"Feature","properties":{"wheelchair":"yes","website":"http://www.dahlienzentrum.de","phone":"+49 36605 99910","name":"Dahlien-Zentrum Bad Köstritz","opening_hours":"Mo-Fr 09:00-12:00,13:00-17:00; Sa,Su 13:00-17:00","tourism":"museum","source":"extrapolation","wikipedia":"de:Dahlien","wikidata":"Q130918","email":"bkdiz@jetzweb.de"},"geometry":{"type":"Point","coordinates":[12.0097214,50.9300421]},"id":"282860627"},{"type":"Feature","properties":{"name":"Friedhofskapelle","tourism":"museum","amenity":"place_of_worship","religion":"christian"},"geometry":{"type":"Point","coordinates":[10.4875857,50.6091526]},"id":"287968047"},{"type":"Feature","properties":{"name":"Museum für Brauchtum","tourism":"museum"},"geometry":{"type":"Point","coordinates":[10.3386752,50.7593288]},"id":"295345752"},{"type":"Feature","properties":{"toilets:wheelchair":"yes","wheelchair":"yes","addr:housenumber":"25","website":"http://www.beschussanstalt.de/","phone":"+49 3682 464730","name":"Stadtmuseum in der Beschußanstalt","tourism":"museum","addr:street":"Anspelstraße","addr:postcode":"98544","addr:city":"Zella-Mehlis"},"geometry":{"type":"Point","coordinates":[10.660735,50.6565922]},"id":"298753028"},{"type":"Feature","properties":{"name":"Meininger Zweiradmuseum","tourism":"museum"},"geometry":{"type":"Point","coordinates":[10.3972279,50.5970457]},"id":"299476184"},{"type":"Feature","properties":{"name":"Heimatstube Struth","tourism":"museum"},"geometry":{"type":"Point","coordinates":[10.3045629,51.2236174]},"id":"303443798"},{"type":"Feature","properties":{"name":"Goldmuseum","tourism":"museum","website":"www.goldmuseum.de"},"geometry":{"type":"Point","coordinates":[11.0393422,50.4269749]},"id":"304624819"},{"type":"Feature","properties":{"name":"Thüringer Freilichtmuseum","tourism":"museum","wheelchair":"no"},"geometry":{"type":"Point","coordinates":[11.159703,50.8790935]},"id":"309499404"},{"type":"Feature","properties":{"name":"Stadtmuseum","tourism":"museum","website":"http://www.saaleland.de/index.php/themen/wanderlust"},"geometry":{"type":"Point","coordinates":[11.5882003,50.8020405]},"id":"313459579"},{"type":"Feature","properties":{"addr:housenumber":"4","addr:country":"DE","name":"Otto-Dix-Haus","tourism":"museum","addr:street":"Mohrenplatz","addr:postcode":"07548","addr:city":"Gera"},"geometry":{"type":"Point","coordinates":[12.0641814,50.8823323]},"id":"314189100"},{"type":"Feature","properties":{"name":"Steinsburgmuseum","opening_hours":"Tu-Su 09:00-17:00","tourism":"museum","wheelchair":"no","website":"http://steinsburgmuseum.de/"},"geometry":{"type":"Point","coordinates":[10.5910798,50.3994457]},"id":"315900831"},{"type":"Feature","properties":{"note":"Technisches Museum","wheelchair":"yes","website":"http://www.tourismus.schmalkalden.de/","phone":"+49 3683 403018","addr:country":"DE","name":"Hochofenmuseum Neue Hütte","tourism":"museum","addr:street":"Gothaer Straße","addr:postcode":"98574","addr:city":"Schmalkalden"},"geometry":{"type":"Point","coordinates":[10.4702233,50.7491543]},"id":"318864786"},{"type":"Feature","properties":{"toilets:wheelchair":"yes","wheelchair":"limited","addr:housenumber":"50","website":"httP://www.gartenbaumuseum.de","phone":"+49 361 223990","name":"Deutsches Gartenbaumuseum","tourism":"museum","wheelchair:description":"Barrierefrei über Festungsgraben–Brücke, Kopfsteinpflaster. Zu den Ausstellungsebenen mit Aufzug. Der schmale Gang zum Brunnen ist für Rollis nicht befahrbar, ebenso eine Hälfte der 2. Ebene.","addr:street":"Gothaer Straße","addr:postcode":"99094","addr:city":"Erfurt"},"geometry":{"type":"Point","coordinates":[11.0077195,50.9676158]},"id":"319470551"},{"type":"Feature","properties":{"name":"Heimatstube","tourism":"museum"},"geometry":{"type":"Point","coordinates":[11.1675559,50.6132178]},"id":"320433951"},{"type":"Feature","properties":{"wheelchair":"no","addr:housenumber":"3","website":"http://www.lvthi.de/dbm","museum":"apis mellifera","addr:country":"DE","name":"Deutsches Bienenmuseum","opening_hours":"Tu-Su 10:00-17:00","tourism":"museum","addr:street":"Ilmstraße","addr:postcode":"99425","addr:city":"Weimar"},"geometry":{"type":"Point","coordinates":[11.3438203,50.9656432]},"id":"345172928"},{"type":"Feature","properties":{"name":"Knopf- und Regionalmuseum Schmölln","tourism":"museum"},"geometry":{"type":"Point","coordinates":[12.3440386,50.895054]},"id":"348501248"},{"type":"Feature","properties":{"wheelchair":"yes","addr:housenumber":"7","contact:phone":"+49 3681 705004","addr:country":"DE","name":"Fahrzeugmuseum Suhl","opening_hours":"Mo-Su 10:00-18:00","tourism":"museum","addr:street":"Friedrich-König-Straße","addr:postcode":"98527","contact:website":"http://www.fahrzeug-museum-suhl.de","addr:city":"Suhl"},"geometry":{"type":"Point","coordinates":[10.6872625,50.6101942]},"id":"361133609"},{"type":"Feature","properties":{"name":"Wittumspalais","tourism":"museum","wheelchair":"limited","wikipedia":"de:Wittumspalais (Weimar)","wikidata":"Q1730975"},"geometry":{"type":"Point","coordinates":[11.3266106,50.9796729]},"id":"370021857"},{"type":"Feature","properties":{"name":"Optima-Museum","tourism":"museum","wheelchair":"yes","wheelchair:description":"im Pullmann 5 Sterne Hotel Beh. WC"},"geometry":{"type":"Point","coordinates":[11.0187933,50.9754694]},"id":"370231923"},{"type":"Feature","properties":{"name":"Born-Senf-Museum","tourism":"museum","wheelchair":"no","website":"http://www.born-feinkost.de/","operator":"BORN Senf & Feinkost GmbH"},"geometry":{"type":"Point","coordinates":[11.032407,50.9785972]},"id":"370233185"},{"type":"Feature","properties":{"name":"Heimatmuseum","tourism":"museum"},"geometry":{"type":"Point","coordinates":[11.038187,50.7737027]},"id":"370831955"},{"type":"Feature","properties":{"addr:housenumber":"44","website":"http://www.heinrichshuette-wurzbach.de/","addr:country":"DE","name":"Technisches Schaudenkmal \"Heinrichshütte\"","tourism":"museum","addr:street":"Leutenberger Straße","addr:postcode":"07343","addr:city":"Wurzbach"},"geometry":{"type":"Point","coordinates":[11.547003,50.4727425]},"id":"386149496"},{"type":"Feature","properties":{"name":"Thüringer Museum Predigerkirche - Schnitzplastik","toilets:wheelchair":"no","tourism":"museum","wheelchair":"limited","wheelchair:description":"Zugang von hinten über Schulhof durch Fahrradständer verstellt."},"geometry":{"type":"Point","coordinates":[10.3165017,50.9747662]},"id":"401614497"},{"type":"Feature","properties":{"name":"Besucherbergwerk Finstertal","tourism":"museum","wheelchair":"yes","website":"http://www.museumwilhelmsburg.de/museen/besucherbergwerk-finstertal.html"},"geometry":{"type":"Point","coordinates":[10.5046529,50.735182]},"id":"406547766"},{"type":"Feature","properties":{"name":"Schildkröt Puppenmuseum","toilets:wheelchair":"no","tourism":"museum","wheelchair":"no"},"geometry":{"type":"Point","coordinates":[11.0499935,50.4178883]},"id":"411501085"},{"type":"Feature","properties":{"name":"Porzellanmuseum","toilets:wheelchair":"no","tourism":"museum","wheelchair":"no"},"geometry":{"type":"Point","coordinates":[11.0528265,50.4196055]},"id":"411501086"},{"type":"Feature","properties":{"name":"Heimatmuseum","tourism":"museum","operator":"Heimatverein"},"geometry":{"type":"Point","coordinates":[10.8773362,51.4481496]},"id":"414217411"},{"type":"Feature","properties":{"wheelchair":"no","name":"Museum Schloss Tenneberg","tourism":"museum","addr:street":"Tennebergstraße","addr:postcode":"99880","addr:city":"Waltershausen"},"geometry":{"type":"Point","coordinates":[10.5521335,50.895477]},"id":"415972362"},{"type":"Feature","properties":{"name":"Bauernmuseum","tourism":"museum"},"geometry":{"type":"Point","coordinates":[12.1527356,50.6971326]},"id":"427786745"},{"type":"Feature","properties":{"name":"Brauchtumsmuseum","tourism":"museum"},"geometry":{"type":"Point","coordinates":[10.1216942,50.8437146]},"id":"440666272"},{"type":"Feature","properties":{"wheelchair":"limited","addr:housename":"Reuter-Villa","addr:housenumber":"2","addr:country":"DE","name":"Reuter-Wagner-Museum","tourism":"museum","addr:street":"Reuterweg","addr:postcode":"99817","addr:city":"Eisenach"},"geometry":{"type":"Point","coordinates":[10.3195598,50.968156]},"id":"445566776"},{"type":"Feature","properties":{"name":"Thüringer Museum Stadtschloss","tourism":"museum","wheelchair":"limited"},"geometry":{"type":"Point","coordinates":[10.3199453,50.9751481]},"id":"446195483"},{"type":"Feature","properties":{"name":"Heimatstube","tourism":"museum"},"geometry":{"type":"Point","coordinates":[11.647479,50.9882391]},"id":"447895750"},{"type":"Feature","properties":{"name":"Erichs Hof","tourism":"museum"},"geometry":{"type":"Point","coordinates":[11.2365252,51.3353419]},"id":"449112063"},{"type":"Feature","properties":{"lastcheck":"2017-12-03","wheelchair":"yes","addr:housenumber":"16","addr:country":"DE","name":"Weimarhaus","opening_hours":"Apr-Sep: Mo-Su 09:30-18:30; Oct-Mar: Mo-Su 09:30-17:30","tourism":"museum","addr:street":"Schillerstraße","addr:postcode":"99423","contact:website":"http://www.weimarhaus.de/","addr:city":"Weimar"},"geometry":{"type":"Point","coordinates":[11.3272172,50.9792855]},"id":"450626446"},{"type":"Feature","properties":{"image":"Ballstädt-Mühle-2.JPG","man_made":"windmill","windmill:vanes":"yes","moved":"yes","windmill":"post_mill","name":"Bockwindmühle Ballstädt","tourism":"museum","start_date":"1834"},"geometry":{"type":"Point","coordinates":[10.7186894,51.0402614]},"id":"458779384"},{"type":"Feature","properties":{"lastcheck":"2017-12-03","name":"Thüringer Eisenbahnverein","tourism":"museum","addr:street":"Eduard-Rosenthal-Straße","addr:postcode":"99423","contact:website":"http://www.thueringer-eisenbahnverein.de/","addr:city":"Weimar"},"geometry":{"type":"Point","coordinates":[11.3441115,50.9930637]},"id":"463398330"},{"type":"Feature","properties":{"name":"Besucherbergwerk","tourism":"museum"},"geometry":{"type":"Point","coordinates":[10.3615007,50.8116528]},"id":"471957406"},{"type":"Feature","properties":{"name":"Herbert-Roth-Museum","tourism":"museum"},"geometry":{"type":"Point","coordinates":[10.7902993,50.5960638]},"id":"495237447"},{"type":"Feature","properties":{"name":"Thüringer Schmalspurmuseum","tourism":"museum"},"geometry":{"type":"Point","coordinates":[10.6701156,50.8318231]},"id":"495962214"},{"type":"Feature","properties":{"name":"Heimatstube","tourism":"museum"},"geometry":{"type":"Point","coordinates":[12.1971403,50.9013583]},"id":"528141876"},{"type":"Feature","properties":{"addr:housenumber":"4","website":"http://www.bw-hist.arnstadt.de","museum":"railway","addr:country":"DE","name":"Eisenbahnmuseum Bw Arnstadt","tourism":"museum","addr:street":"Rehestädter Weg","railway":"museum","addr:postcode":"99310","addr:city":"Arnstadt"},"geometry":{"type":"Point","coordinates":[10.9406415,50.8496282]},"id":"600188770"},{"type":"Feature","properties":{"name":"Meininger Museen","tourism":"museum"},"geometry":{"type":"Point","coordinates":[10.4119289,50.570398]},"id":"611739039"},{"type":"Feature","properties":{"name":"Literaturmuseum","tourism":"museum"},"geometry":{"type":"Point","coordinates":[10.4120435,50.568958]},"id":"614291448"},{"type":"Feature","properties":{"wheelchair":"no","addr:housenumber":"7","alt_name":"Stadtmuseum","addr:country":"DE","name":"Stadtmuseum \"Göhre\"","opening_hours":"Tu,We,Fr 10:00-17:00; Th 15:00-22:00; Sa,Su 11:00-18:00","tourism":"museum","addr:street":"Markt","addr:postcode":"07743","contact:website":"http://www.stadtmuseum.jena.de","addr:city":"Jena"},"geometry":{"type":"Point","coordinates":[11.5882809,50.9285155]},"id":"621222835"},{"type":"Feature","properties":{"wheelchair":"limited","phone":"+493647505491","addr:country":"DE","fee":"yes","name":"Museum Burg Ranis","tourism":"museum","addr:street":"Burg","entrance":"yes","addr:postcode":"07389","addr:city":"Ranis"},"geometry":{"type":"Point","coordinates":[11.5639092,50.6626405]},"id":"661994632"},{"type":"Feature","properties":{"name":"Zinsspeicher Thalbürgel","tourism":"museum","website":"http://www.museum-zinsspeicher-thalbuergel.de"},"geometry":{"type":"Point","coordinates":[11.748752,50.9349412]},"id":"662598970"},{"type":"Feature","properties":{"name":"Heimatstube","tourism":"museum"},"geometry":{"type":"Point","coordinates":[10.481534,51.4747803]},"id":"675135671"},{"type":"Feature","properties":{"name":"Mühltalmuseum","tourism":"museum"},"geometry":{"type":"Point","coordinates":[11.8789034,50.9464271]},"id":"687000899"},{"type":"Feature","properties":{"addr:housenumber":"46","website":"http://www.rennsteigmuseum.de","phone":"+49 36781 29521","addr:country":"DE","name":"Rennsteigmuseum","tourism":"museum","addr:street":"Rennsteigstraße","addr:postcode":"98701","addr:city":"Neustadt am Rennsteig"},"geometry":{"type":"Point","coordinates":[10.9340363,50.5826708]},"id":"768754033"},{"type":"Feature","properties":{"name":"Wehrgang","opening_hours":"Easter-Oct: Tu-Su 10:00-17:00","tourism":"museum","wheelchair":"no","historic":"wall"},"geometry":{"type":"Point","coordinates":[10.4513215,51.2098398]},"id":"772973606"},{"type":"Feature","properties":{"name":"Heimatmuseum Kneippverein Tabarz","tourism":"museum"},"geometry":{"type":"Point","coordinates":[10.5026582,50.8794442]},"id":"779022001"},{"type":"Feature","properties":{"name":"Menantes-Gedenkstätte","tourism":"museum"},"geometry":{"type":"Point","coordinates":[10.8534265,50.8979425]},"id":"795257913"},{"type":"Feature","properties":{"name":"Technisches Denkmal \"Röhren-Born\"","tourism":"museum","natural":"spring"},"geometry":{"type":"Point","coordinates":[11.8793999,50.7574306]},"id":"802318261"},{"type":"Feature","properties":{"name":"Forstliche Ausstellung","tourism":"museum","addr:street":"Paulinzella","operator":"\"W. Langer\""},"geometry":{"type":"Point","coordinates":[11.1047553,50.7025542]},"id":"823035553"},{"type":"Feature","properties":{"wheelchair":"no","fee":"no","name":"ZP Museum","description":"Schlüssel gegenüber beim Pförtner","tourism":"museum","operator":"Zellstoff Rosenthal"},"geometry":{"type":"Point","coordinates":[11.7004242,50.4034619]},"id":"870293452"},{"type":"Feature","properties":{"name":"Eichsfelder Fleischerei Museum","tourism":"museum","wheelchair":"limited"},"geometry":{"type":"Point","coordinates":[10.3148187,51.1646339]},"id":"874379159"},{"type":"Feature","properties":{"name":"Heimatmuseum","tourism":"museum"},"geometry":{"type":"Point","coordinates":[10.7865025,51.5824503]},"id":"876385576"},{"type":"Feature","properties":{"name":"Lohgerberei Francke","tourism":"museum"},"geometry":{"type":"Point","coordinates":[12.0591108,50.771853]},"id":"883336519"},{"type":"Feature","properties":{"name":"Ausstellung der Ilmfischerei","tourism":"museum"},"geometry":{"type":"Point","coordinates":[11.1825856,50.8384451]},"id":"904588215"},{"type":"Feature","properties":{"name":"Oldtimer-Club Zeulenroda","tourism":"museum"},"geometry":{"type":"Point","coordinates":[11.9772444,50.6499996]},"id":"909142267"},{"type":"Feature","properties":{"name":"Kutschenmuseum","tourism":"museum"},"geometry":{"type":"Point","coordinates":[11.5898719,51.0990714]},"id":"923986263"},{"type":"Feature","properties":{"name":"Roßdorf 1866 - Gefecht am Nebel; Wagner-Stube; Kleine Galerie","opening_hours":"Sa-Su 14:00-17:00","tourism":"museum","phone":"0369685032"},"geometry":{"type":"Point","coordinates":[10.2155758,50.7046668]},"id":"945736240"},{"type":"Feature","properties":{"name":"Schloß- und Spielkartenmuseum","opening_hours":"Tu-Su 09:30-17:00","tourism":"museum"},"geometry":{"type":"Point","coordinates":[12.4384112,50.9881764]},"id":"998873860"},{"type":"Feature","properties":{"name":"Freilichtmuseum","tourism":"museum"},"geometry":{"type":"Point","coordinates":[11.0730673,50.6297131]},"id":"1028099824"},{"type":"Feature","properties":{"name":"Milch- und Reklamemuseum","tourism":"museum"},"geometry":{"type":"Point","coordinates":[10.7324836,50.4268729]},"id":"1035347598"},{"type":"Feature","properties":{"name":"Heimatmuseum","tourism":"museum","wheelchair":"no"},"geometry":{"type":"Point","coordinates":[10.5143999,51.0226375]},"id":"1072495630"},{"type":"Feature","properties":{"name":"Apothekenmuseum","tourism":"museum"},"geometry":{"type":"Point","coordinates":[11.3445952,50.8591287]},"id":"1098807820"},{"type":"Feature","properties":{"name":"Landmaschienenmuseum","tourism":"museum"},"geometry":{"type":"Point","coordinates":[10.5689982,51.1499488]},"id":"1110719353"},{"type":"Feature","properties":{"name":"Alttechnikausstellung","tourism":"museum"},"geometry":{"type":"Point","coordinates":[10.6336423,51.0485323]},"id":"1157282665"},{"type":"Feature","properties":{"name":"Keramik-Museum","tourism":"museum"},"geometry":{"type":"Point","coordinates":[11.7552337,50.9423825]},"id":"1157355963"},{"type":"Feature","properties":{"name":"Drushba","tourism":"museum","website":"http://www.hohe-geba.de"},"geometry":{"type":"Point","coordinates":[10.2715655,50.5894641]},"id":"1203847397"},{"type":"Feature","properties":{"name":"Ginkgo-Museum","opening_hours":"Mo-Fr 10:00-17:00; Sa,Su 10:00-15:00","tourism":"museum","wheelchair":"no"},"geometry":{"type":"Point","coordinates":[11.3292808,50.979089]},"id":"1260090742"},{"type":"Feature","properties":{"name":"Museum am Rennsteig","opening_hours":"Tu-Sa 10:00-16:00; Su 14:00-16:00","tourism":"museum"},"geometry":{"type":"Point","coordinates":[11.1380374,50.5090942]},"id":"1274053725"},{"type":"Feature","properties":{"toilets:wheelchair":"no","wheelchair":"no","website":"http://www.stiftungfriedenstein.de/","phone":"+49 3621 82340","name":"Museum der Natur","tourism":"museum","addr:street":"Schloss Friedenstein","addr:postcode":"99867","addr:city":"Gotha"},"geometry":{"type":"Point","coordinates":[10.7042621,50.9451219]},"id":"1277699621"},{"type":"Feature","properties":{"name":"Heimatstube","tourism":"museum","designation":"Heimatstube"},"geometry":{"type":"Point","coordinates":[10.6089886,50.7164981]},"id":"1277995114"},{"type":"Feature","properties":{"name":"Bauernhof","tourism":"museum"},"geometry":{"type":"Point","coordinates":[11.1613803,50.8772153]},"id":"1280106282"},{"type":"Feature","properties":{"name":"Ferienlandeisenbahn Crispendorf e.V.","tourism":"museum","wheelchair":"no"},"geometry":{"type":"Point","coordinates":[11.7047787,50.5779155]},"id":"1281662487"},{"type":"Feature","properties":{"toilets:wheelchair":"no","wheelchair":"limited","website":"http://www.braunsteinmuehle.de","name":"Braunsteinmühle Geraberg","opening_hours":"11:00-18:00; Tu off || \"im Mühlencafé nachfragen\"","tourism":"museum"},"geometry":{"type":"Point","coordinates":[10.8199231,50.7097463]},"id":"1286585100"},{"type":"Feature","properties":{"name":"Heimatstube","tourism":"museum"},"geometry":{"type":"Point","coordinates":[11.0541033,50.5521268]},"id":"1314631267"},{"type":"Feature","properties":{"name":"Mineralien Museum","opening_hours":"Tu-Fr 10:00-17:00; Sa-Su 10:00-16:00","tourism":"museum","wheelchair":"no"},"geometry":{"type":"Point","coordinates":[10.5133611,50.8745529]},"id":"1344662594"},{"type":"Feature","properties":{"wheelchair":"no","addr:housenumber":"23","addr:country":"DE","fee":"no","name":"Galerie im Handwerkerhof","opening_hours":"Tu-Fr 13:00-17:00; Sa-Su 14:00-18:00; Mo off","tourism":"museum","addr:street":"Stiftsgasse","addr:postcode":"07407","addr:city":"Rudolstadt"},"geometry":{"type":"Point","coordinates":[11.3378684,50.7213463]},"id":"1349729381"},{"type":"Feature","properties":{"toilets:wheelchair":"yes","wheelchair":"limited","addr:housenumber":"7-9","website":"www.grenzlandmuseum.de","phone":"036071 97112","name":"Grenzlandmuseum Eichsfeld","tourism":"museum","wheelchair:description":"Das Hauptgebäude ist barrierefrei, die Außenanlagen problematisch","addr:street":"Duderstädter Straße","addr:postcode":"37339","addr:city":"Teistungen"},"geometry":{"type":"Point","coordinates":[10.2619386,51.4823697]},"id":"1351305445"},{"type":"Feature","properties":{"wheelchair":"yes","addr:housenumber":"15","website":"http://www.dreysehaus.de/","addr:country":"DE","name":"Historisch -Technisches Museum im Dreyse-Haus","opening_hours":"Mo off; Tu 09:00-18:00; We off; Th 09:00-18:00; Fr 09:00-16:00; Sa 14:00-17:00; Su off","tourism":"museum","addr:street":"Weißenseer Straße","addr:postcode":"99610","addr:city":"Sömmerda"},"geometry":{"type":"Point","coordinates":[11.1164475,51.1632574]},"id":"1363685337"},{"type":"Feature","properties":{"name":"Goethemuseum","tourism":"museum","website":"http://www.stuetzerbach.de/museen-stuetzerbach.php"},"geometry":{"type":"Point","coordinates":[10.8675868,50.6358681]},"id":"1373594584"},{"type":"Feature","properties":{"name":"Quellenhof","tourism":"museum","amenity":"arts_centre","url":"http://www.quellen-hof.de/"},"geometry":{"type":"Point","coordinates":[12.6037275,50.9219186]},"id":"1379684664"},{"type":"Feature","properties":{"wheelchair":"limited","addr:housenumber":"28","website":"http://www.klausenhof.de/wurstmuseum/","phone":"+49(0)3608161422","name":"Wurst- und Hausschlachtemuseum Klausenhof","opening_hours":"We-Su 11:00-18:00","tourism":"museum","addr:street":"Friedensstraße","addr:postcode":"37318","addr:city":"Bornhagen"},"geometry":{"type":"Point","coordinates":[9.9437651,51.3427849]},"id":"1427341619"},{"type":"Feature","properties":{"name":"Zentrum für spirituellen Tourismus","tourism":"museum"},"geometry":{"type":"Point","coordinates":[10.5567287,50.8689579]},"id":"1429848282"},{"type":"Feature","properties":{"name":"Stadtmuseum & Karnevalsmuseum","tourism":"museum","wheelchair":"no","designation":"Stadtmuseum & Karnevalsmuseum","source":"http://www.wasungen.de/content/museen.php"},"geometry":{"type":"Point","coordinates":[10.3664815,50.665185]},"id":"1431211419"},{"type":"Feature","properties":{"name":"Historisches Glasapparatemuseum","tourism":"museum"},"geometry":{"type":"Point","coordinates":[11.1275224,50.5716572]},"id":"1431654140"},{"type":"Feature","properties":{"name":"Berkaer Badeschichten","tourism":"museum"},"geometry":{"type":"Point","coordinates":[11.2910134,50.9039155]},"id":"1436687615"},{"type":"Feature","properties":{"name":"Museum und Schauwerkstatt im Unteren Schloss","opening_hours":"Tu-Su 10:00-17:00","tourism":"museum","wheelchair":"no","contact:website":"http://www.greiz.de/tourismus/sehenswertes/kunst-und-kultur/museen/museum-im-unteren-schloss.html"},"geometry":{"type":"Point","coordinates":[12.1997554,50.6560325]},"id":"1465143089"},{"type":"Feature","properties":{"name":"Museum im Oberen Schloss","tourism":"museum","wheelchair":"no"},"geometry":{"type":"Point","coordinates":[12.1970812,50.6573791]},"id":"1465145214"},{"type":"Feature","properties":{"name":"Brauereimuseum","tourism":"museum"},"geometry":{"type":"Point","coordinates":[12.4365453,51.0005093]},"id":"1528484708"},{"type":"Feature","properties":{"wheelchair":"no","addr:housenumber":"41","website":"http://www.glockenmuseum-apolda.de/","addr:country":"DE","name":"GlockenStadtMuseum","opening_hours":"Tu-Su 10:00-18:00; \"PH abweichende Öffnungszeiten\"","tourism":"museum","addr:street":"Bahnhofstraße","addr:postcode":"99510","operator":"Stadtverwaltung Apolda","addr:city":"Apolda"},"geometry":{"type":"Point","coordinates":[11.5193142,51.0270286]},"id":"1548833687"},{"type":"Feature","properties":{"name":"Heimatstube Dankmarshausen","tourism":"museum"},"geometry":{"type":"Point","coordinates":[10.0164436,50.9238303]},"id":"1596236699"},{"type":"Feature","properties":{"name":"Museum Leuchtenburg","toilets:wheelchair":"no","tourism":"museum","wheelchair":"no"},"geometry":{"type":"Point","coordinates":[11.6126114,50.8041134]},"id":"1597984940"},{"type":"Feature","properties":{"addr:suburb":"Tannroda","addr:housenumber":"9","website":"http://www.thüringer-korbmachermuseum.de","addr:country":"DE","name":"Thüringer Korbmachermuseum","opening_hours":"Sa,Su 13:00-16:00; Nov-Mar off","tourism":"museum","addr:street":"Lindenberg","addr:postcode":"99438","addr:city":"Bad Berka"},"geometry":{"type":"Point","coordinates":[11.2445537,50.8591481]},"id":"1625891671"},{"type":"Feature","properties":{"name":"Museum Schloss Burgk","tourism":"museum","entrance":"main"},"geometry":{"type":"Point","coordinates":[11.7161246,50.5537411]},"id":"1631846447"},{"type":"Feature","properties":{"name":"Grottoneum","tourism":"museum","website":"http://www.feengrotten.de"},"geometry":{"type":"Point","coordinates":[11.3420312,50.6352928]},"id":"1638913293"},{"type":"Feature","properties":{"name":"Heimatverein eV Braunichswalde","tourism":"museum"},"geometry":{"type":"Point","coordinates":[12.2194892,50.7978337]},"id":"1653084293"},{"type":"Feature","properties":{"name":"Schlossmuseum","tourism":"museum","website":"http://www.sondershausen.de/schlossmuseum/index.html","barrier":"entrance","layer":"1"},"geometry":{"type":"Point","coordinates":[10.8696466,51.3720781]},"id":"1727348807"},{"type":"Feature","properties":{"name":"Rotschnabelnest","opening_hours":"Tu-Su 13:00-17:00","tourism":"museum","website":"www.rotschnabelnest.de","phone":"+49 (0) 36701 30054"},"geometry":{"type":"Point","coordinates":[11.2597073,50.549589]},"id":"1743073449"},{"type":"Feature","properties":{"addr:housenumber":"1-5","website":"http://www.lohmuehle.org","phone":"036252-46000","addr:country":"DE","name":"Lohmühlenmuseum","opening_hours":"Tu-Sa 10:00-18:00","tourism":"museum","addr:street":"Lohmühle","addr:postcode":"99887","email":"info@lohmuehle.org","addr:city":"Georgenthal"},"geometry":{"type":"Point","coordinates":[10.6266433,50.8099534]},"id":"1800046149"},{"type":"Feature","properties":{"name":"Osterburgmuseum","tourism":"museum","source":"http://www.osterburg.de/inhalt/tougas/freizeit/museum.html"},"geometry":{"type":"Point","coordinates":[12.0566246,50.77279]},"id":"1833850369"},{"type":"Feature","properties":{"name":"Goethemuseum","opening_hours":"Mo-Su 10:00-17:00; Th 10:00-20:00","tourism":"museum","wheelchair":"yes","operator":"Stadt Ilmenau"},"geometry":{"type":"Point","coordinates":[10.9140583,50.6875106]},"id":"1877392876"},{"type":"Feature","properties":{"name":"Heiligenstädter Eisenbahnverein","tourism":"museum","wheelchair":"limited"},"geometry":{"type":"Point","coordinates":[10.1504568,51.3741464]},"id":"1883674968"},{"type":"Feature","properties":{"castle_type:de":"schloss","wheelchair":"no","historic":"castle","castle_type":"stately","name":"Eisfelder Schloss","tourism":"museum"},"geometry":{"type":"Point","coordinates":[10.9074099,50.4277281]},"id":"1884439409"},{"type":"Feature","properties":{"name":"Technische Sammlung Hermsdorf","opening_hours":"We 15:00-17:00","tourism":"museum"},"geometry":{"type":"Point","coordinates":[11.8558106,50.8985187]},"id":"1958387452"},{"type":"Feature","properties":{"addr:housenumber":"13","website":"http://www.ifa-museum-nordhausen.de/","name":"IFA Museum","tourism":"museum","addr:street":"Montaniastraße","addr:postcode":"99734","addr:city":"Nordhausen"},"geometry":{"type":"Point","coordinates":[10.7734188,51.4947319]},"id":"2000215166"},{"type":"Feature","properties":{"name":"Galerie ada","tourism":"museum"},"geometry":{"type":"Point","coordinates":[10.416029,50.5723795]},"id":"2031969087"},{"type":"Feature","properties":{"name":"Hörselbergmuseum","tourism":"museum"},"geometry":{"type":"Point","coordinates":[10.4294819,50.9445189]},"id":"2139466159"},{"type":"Feature","properties":{"name":"Museumsscheune","tourism":"museum"},"geometry":{"type":"Point","coordinates":[10.15973,50.626173]},"id":"2142270575"},{"type":"Feature","properties":{"name":"Heimatmuseum","tourism":"museum"},"geometry":{"type":"Point","coordinates":[10.1601591,50.6258225]},"id":"2142270616"},{"type":"Feature","properties":{"name":"SOMSO-Museum","tourism":"museum"},"geometry":{"type":"Point","coordinates":[11.1758101,50.3589932]},"id":"2145785906"},{"type":"Feature","properties":{"name":"Deutsches Teddybären Museum","tourism":"museum"},"geometry":{"type":"Point","coordinates":[11.1737237,50.3603565]},"id":"2145785911"},{"type":"Feature","properties":{"name":"Stadtmuseum","tourism":"museum"},"geometry":{"type":"Point","coordinates":[10.7295675,50.4271247]},"id":"2161487576"},{"type":"Feature","properties":{"name":"Mineralogische Sammlung","tourism":"museum"},"geometry":{"type":"Point","coordinates":[11.5807965,50.9234225]},"id":"2231369280"},{"type":"Feature","properties":{"name":"Vogellehrschau","tourism":"museum"},"geometry":{"type":"Point","coordinates":[10.3541525,50.8197627]},"id":"2271527418"},{"type":"Feature","properties":{"name":"Alfred Ehrhardt Haus","tourism":"museum","wheelchair":"no"},"geometry":{"type":"Point","coordinates":[11.8620456,50.735798]},"id":"2326985422"},{"type":"Feature","properties":{"name":"Viba Nougat-Welt","toilets:wheelchair":"yes","tourism":"museum","wheelchair":"yes"},"geometry":{"type":"Point","coordinates":[10.4361914,50.718271]},"id":"2448143555"},{"type":"Feature","properties":{"name":"Werratalmuseum","tourism":"museum"},"geometry":{"type":"Point","coordinates":[10.0781531,50.9678353]},"id":"2463733770"},{"type":"Feature","properties":{"wheelchair":"no","addr:housenumber":"1","website":"http://www.zinnfigurenmuseum.com","phone":"+491727810787","name":"Historicum Zinnfigurenmuseum Schmalkalden","tourism":"museum","addr:street":"Gillersgasse","addr:postcode":"98574","addr:city":"Schmalkalden"},"geometry":{"type":"Point","coordinates":[10.4507178,50.7220605]},"id":"2465795308"},{"type":"Feature","properties":{"name":"Schiller-Museum Bauerbach","tourism":"museum"},"geometry":{"type":"Point","coordinates":[10.3902408,50.4986394]},"id":"2482610612"},{"type":"Feature","properties":{"name":"Technisches Denkmal Thüringischer Schieferpark Lehesten – Staatsbruch","tourism":"museum"},"geometry":{"type":"Point","coordinates":[11.4311844,50.460849]},"id":"2513327277"},{"type":"Feature","properties":{"addr:suburb":"Streufdorf","wheelchair":"yes","addr:housename":"Zweiländermuseum Rodachtal","addr:housenumber":"5","website":"http://www.zweilaendermuseum.de/_inhalt/willkommen/willkommen","phone":"036875/ 50651","name":"Zweiländermuseum Rodachtal","tourism":"museum","addr:street":"Pfarrberg","addr:postcode":"98646","addr:city":"Straufhain"},"geometry":{"type":"Point","coordinates":[10.6829329,50.3531794]},"id":"2575683953"},{"type":"Feature","properties":{"addr:housename":"Alter Bahnhof","addr:housenumber":"16a","name":"Modellbau- und Technikmuseum","tourism":"museum","addr:street":"Bahnhofstraße","addr:postcode":"98701","operator":"Manfred Koch Stiftung Humankapital","addr:city":"Großbreitenbach"},"geometry":{"type":"Point","coordinates":[11.0013607,50.5807228]},"id":"2580543098"},{"type":"Feature","properties":{"name":"Bauernmuseum","image":"http://i.imgur.com/Jfy10O1l.jpg","tourism":"museum","source":"Panasonic DMC-TZ41"},"geometry":{"type":"Point","coordinates":[11.42385,51.1732417]},"id":"2670705055"},{"type":"Feature","properties":{"name":"Alte Holzschnitzerschule","tourism":"museum","wheelchair":"no","designation":"Museum / Begegnungsstätte"},"geometry":{"type":"Point","coordinates":[10.0994602,50.6641888]},"id":"2759610854"},{"type":"Feature","properties":{"website":"http://www.schleusegrund.de/tourismus/gewuerzmuseum.html","phone":"+49 36874 38255","fee":"yes","name":"Gewürzmuseum","opening_hours":"Tu-Fr 09:00-16:00; Sa 09:00-12:00; Su 13:00-16:00","tourism":"museum","fax":"+49 36874 38257"},"geometry":{"type":"Point","coordinates":[10.8811878,50.522729]},"id":"2804156672"},{"type":"Feature","properties":{"name":"Burg Wendelstein","tourism":"museum","addr:postcode":"36404","addr:city":"Vacha"},"geometry":{"type":"Point","coordinates":[10.0234508,50.8290365]},"id":"2850089699"},{"type":"Feature","properties":{"name":"Stockmachermuseum","tourism":"museum"},"geometry":{"type":"Point","coordinates":[9.9465233,51.312296]},"id":"2853613314"},{"type":"Feature","properties":{"name":"Schlossmuseum","tourism":"museum"},"geometry":{"type":"Point","coordinates":[10.9610808,50.9008079]},"id":"2919045040"},{"type":"Feature","properties":{"name":"Stedtener Wassermühle","tourism":"museum","operator":"privat"},"geometry":{"type":"Point","coordinates":[11.1822396,50.8385095]},"id":"2940095797"},{"type":"Feature","properties":{"name":"Heimatstube","opening_hours":"Th 16:00-18:00","tourism":"museum","wheelchair":"no"},"geometry":{"type":"Point","coordinates":[10.8530676,50.7684543]},"id":"2977976885"},{"type":"Feature","properties":{"wheelchair":"no","addr:housenumber":"9","name":"Schloss Wilhelmsburg","tourism":"museum","addr:street":"Schloßberg","addr:city":"Schmalkalden"},"geometry":{"type":"Point","coordinates":[10.4554403,50.7232451]},"id":"3002235415"},{"type":"Feature","properties":{"name":"Heimatstube","tourism":"museum"},"geometry":{"type":"Point","coordinates":[10.9017188,50.4977025]},"id":"3046310110"},{"type":"Feature","properties":{"name":"Heimatstube","tourism":"museum"},"geometry":{"type":"Point","coordinates":[10.9417464,50.4993266]},"id":"3046310111"},{"type":"Feature","properties":{"name":"Heimatstube","tourism":"museum"},"geometry":{"type":"Point","coordinates":[10.9250823,50.5031953]},"id":"3046310112"},{"type":"Feature","properties":{"name":"Heimatstube","tourism":"museum"},"geometry":{"type":"Point","coordinates":[10.966489,50.5186553]},"id":"3046310113"},{"type":"Feature","properties":{"name":"Erfurter Puppenstubenmuseum","tourism":"museum","website":"http://erfurter-puppenstubenmuseum.de/"},"geometry":{"type":"Point","coordinates":[11.0248489,50.9745491]},"id":"3066508745"},{"type":"Feature","properties":{"name":"Papiermuseum Fockendorf","tourism":"museum","website":"http://www.papiermuseum.net/","operator":"Traditionsverein Papierfabrik Fockendorf e.V."},"geometry":{"type":"Point","coordinates":[12.4681605,51.0458237]},"id":"3076832372"},{"type":"Feature","properties":{"name:de":"Mauritianum","website":"http://www.mauritianum.de/","name":"Mauritianum","tourism":"museum","wikipedia":"de:Mauritianum","wikidata":"Q883163","name:ca":"Museu Mauritianum","name:es":"Museo Mauritianum"},"geometry":{"type":"Point","coordinates":[12.4464284,50.9919785]},"id":"3190330528"},{"type":"Feature","properties":{"wheelchair":"limited","addr:housenumber":"1","website":"www.explorata.de","phone":"+49 (0)3682 47 87 45 1","name":"Explorata-Mitmachwelt","opening_hours":"10:00-18:00","tourism":"museum","addr:street":"Kirchstraße","addr:postcode":"98544","email":"info@explorata.de","addr:city":"Zella-Mehlis"},"geometry":{"type":"Point","coordinates":[10.6714042,50.6537437]},"id":"3190574619"},{"type":"Feature","properties":{"addr:housenumber":"1","name":"Stadtmuseum","opening_hours":"off","tourism":"museum","addr:street":"Straße der Einheit","addr:postcode":"99326","operator":"Stadt Stadtilm","addr:city":"Stadtilm"},"geometry":{"type":"Point","coordinates":[11.0787946,50.7744914]},"id":"3227729995"},{"type":"Feature","properties":{"addr:housenumber":"42","website":"http://www.olle-ddr.de","name":"Museumsbaracke Olle DDR","tourism":"museum","addr:street":"Bahnhofstraße","addr:postcode":"99510","operator":"Euratibor e.V."},"geometry":{"type":"Point","coordinates":[11.5207753,51.0268545]},"id":"3410646193"},{"type":"Feature","properties":{"name":"Museum für Kloster-, Forst- und Jagdgeschichte","tourism":"museum","operator":"Thüringer Landesmuseum Heidecksburg"},"geometry":{"type":"Point","coordinates":[11.1040417,50.7025598]},"id":"3414026516"},{"type":"Feature","properties":{"wheelchair":"limited","addr:housenumber":"39","phone":"03635-482887","addr:country":"DE","name":"Heimatmuseum Kölleda","opening_hours":"Tu-Fr 14:00-16:00; Su 14:00-16:00","tourism":"museum","addr:street":"Roßplatz","addr:postcode":"99625","addr:city":"Kölleda"},"geometry":{"type":"Point","coordinates":[11.2488756,51.1879795]},"id":"3452177587"},{"type":"Feature","properties":{"name":"Heimatmuseum","opening_hours":"We 14:00-17:00","tourism":"museum"},"geometry":{"type":"Point","coordinates":[10.9480131,51.2286656]},"id":"3489930284"},{"type":"Feature","properties":{"name":"Baumbachmuseum","tourism":"museum"},"geometry":{"type":"Point","coordinates":[11.2002605,50.8535159]},"id":"3556565690"},{"type":"Feature","properties":{"toilets:wheelchair":"yes","wheelchair":"yes","addr:housenumber":"46","website":"http://www.farbglashuette-lauscha.de/","phone":"+49 36702 2810","name":"Farbglashütte","tourism":"museum","addr:street":"Straße des Friedens","addr:postcode":"98724","addr:city":"Lauscha"},"geometry":{"type":"Point","coordinates":[11.165328,50.4784503]},"id":"3622973393"},{"type":"Feature","properties":{"name":"Porzellanwelten Leuchtenburg","toilets:wheelchair":"yes","tourism":"museum","wheelchair":"yes"},"geometry":{"type":"Point","coordinates":[11.6122177,50.8041886]},"id":"3711575145"},{"type":"Feature","properties":{"name":"Heimathaus Göllingen","tourism":"museum"},"geometry":{"type":"Point","coordinates":[11.0131045,51.3433587]},"id":"3718912636"},{"type":"Feature","properties":{"name":"Waidmuseum","tourism":"museum"},"geometry":{"type":"Point","coordinates":[10.8188294,50.9709186]},"id":"3740357369"},{"type":"Feature","properties":{"name":"GutsMuths-Gedächtnishalle","opening_hours":"Tu 10:00-13:00; We 13:00-17:00","tourism":"museum","operator":"www.gutsmuths-schnepfenthal.de"},"geometry":{"type":"Point","coordinates":[10.5835817,50.8821892]},"id":"3805706157"},{"type":"Feature","properties":{"name":"Heimatmuseum Berga/Elster","tourism":"museum"},"geometry":{"type":"Point","coordinates":[12.161692,50.7523203]},"id":"3829306065"},{"type":"Feature","properties":{"name":"Apothekenmuseum","opening_hours":"We-Su 13:00-17:00","tourism":"museum"},"geometry":{"type":"Point","coordinates":[10.6445377,51.1099338]},"id":"3837829639"},{"type":"Feature","properties":{"name":"Großmesssender","tourism":"museum","website":"http://www.vrtg.de/index.php/grossmesssender-56.html","level":"0","operator":"Verein für Regional- und Technikgeschichte e.V."},"geometry":{"type":"Point","coordinates":[11.856076,50.9020904]},"id":"3883102695"},{"type":"Feature","properties":{"addr:housenumber":"6-4-2","phone":"+49 3647 504769","addr:country":"DE","name":"Museum642 - Pößnecker Stadtgeschichte","opening_hours":"Mo-Sa 11:00-16:00; We off; Th 11:00-18:00; Su 13:00-17:00","tourism":"museum","addr:street":"Klosterplatz","addr:postcode":"07381","operator":"Stadt Pößneck","addr:city":"Pößneck"},"geometry":{"type":"Point","coordinates":[11.5944232,50.6933413]},"id":"3890001190"},{"type":"Feature","properties":{"name":"Rutheneum","tourism":"museum"},"geometry":{"type":"Point","coordinates":[11.8139624,50.5786927]},"id":"3939506522"},{"type":"Feature","properties":{"addr:housenumber":"2","website":"http://www.museumsverband-thueringen.de/museumsverband/museen/museum/museum-burg-creuzburg.html","addr:country":"DE","name":"Museum Burg Creuzburg","tourism":"museum","addr:street":"Auf der Creuzburg","addr:postcode":"99831","addr:city":"Creuzburg"},"geometry":{"type":"Point","coordinates":[10.2453967,51.0511529]},"id":"4173397719"},{"type":"Feature","properties":{"addr:housenumber":"7","name":"Ernst-Haeckel-Haus","description":"House where Ernst Haeckel lived (19th century German scientist).","tourism":"museum","name:en":"Ernst Haeckel's House","addr:street":"Berggasse","wikipedia":"en:Ernst Haeckel","addr:postcode":"07745","wikidata":"Q48246","addr:city":"Jena"},"geometry":{"type":"Point","coordinates":[11.5817316,50.9245501]},"id":"4177834613"},{"type":"Feature","properties":{"name":"Heimatmuseum","opening_hours":"\"nach Vereinbarung\"","description":"Terminvereinbarung für Führungen bitte unter 036693-22563 oder 036693-22315 Infos: www.Hartmannsdorf.info","tourism":"museum","operator":"Heimatverein Hartmannsdorf"},"geometry":{"type":"Point","coordinates":[11.9763032,50.961945]},"id":"4185074956"},{"type":"Feature","properties":{"addr:housenumber":"3a","name":"Deutsches Versicherungsmuseum Ernst Wilhelm Arnoldi","tourism":"museum","addr:street":"Bahnhofstraße","addr:postcode":"99867","addr:city":"Gotha"},"geometry":{"type":"Point","coordinates":[10.7120546,50.9430556]},"id":"4193859967"},{"type":"Feature","properties":{"name":"Theodor Storm Museum","tourism":"museum","website":"stormmuseum.de"},"geometry":{"type":"Point","coordinates":[10.1328506,51.3773039]},"id":"4209631210"},{"type":"Feature","properties":{"toilets:wheelchair":"yes","wheelchair":"limited","name":"Schlossmuseum","tourism":"museum","wheelchair:description":"Historisches Kopfsteinplaster im Hof. Nur EG und 1.OG zugänglich. Im EG einzelne Stufen, meist ca. 4cm, einmal auch hoeher.","building":"public"},"geometry":{"type":"Point","coordinates":[11.332385,50.981]},"id":"4211928789"},{"type":"Feature","properties":{"name":"Deutsch-Deutsches Museum (Untere Mühle)","tourism":"museum"},"geometry":{"type":"Point","coordinates":[11.8800073,50.4133789]},"id":"4217543233"},{"type":"Feature","properties":{"name":"Bienenlehrpfad im Waldzoo Gera","tourism":"museum","website":"http://www.unser-waldzoo-gera.de/html/rundgang_lageplan.html","museum":"apis mellifera"},"geometry":{"type":"Point","coordinates":[12.0537901,50.8641866]},"id":"4221233829"},{"type":"Feature","properties":{"name":"Bienenmuseum","FIXME":"Position ist geraten, irgendwo im Tierpark","tourism":"museum","museum":"apis mellifera"},"geometry":{"type":"Point","coordinates":[11.9111847,50.966482]},"id":"4221241534"},{"type":"Feature","properties":{"website":"http://www.gasmaschinenzentrale.de","phone":"03671614936","name":"Schaudenkmal Gasmaschinenzentrale","opening_hours":"Mo-Fr 08:00-11:00","tourism":"museum","addr:postcode":"07333","email":"gmzuborn@arcor.de"},"geometry":{"type":"Point","coordinates":[11.4260868,50.6549984]},"id":"4300168189"},{"type":"Feature","properties":{"name":"Museum für DDR-Produkte","tourism":"museum"},"geometry":{"type":"Point","coordinates":[11.0104709,50.9728873]},"id":"4336216021"},{"type":"Feature","properties":{"name:de":"INFODOK & GALERIE AM MARKT","website":"http://altenburgergeschichtsverein.eu","internet_access":"wlan","phone":"0160 94788705","name":"INFODOK & GALERIE AM MARKT","opening_hours":"We 10:00-15:00","tourism":"museum","addr:street":"Markt","addr:postcode":"04600","email":"altenburgergeschichtsverein@t-online.de","operator":"ALTENBURGER GESCHICHTSVEREIN"},"geometry":{"type":"Point","coordinates":[12.4347745,50.985318]},"id":"4370519190"},{"type":"Feature","properties":{"wheelchair":"limited","website":"http://www.spielzeugmuseum-sonneberg.de/","addr:country":"DE","tourism":"museum","wheelchair:description":"Für Rollstuhlfahrer ist nur die „Thüringer Kirmes“ im Untergeschoss zu besichtigen. Sie ist ebenerdig über einen Seiteneingang zugänglich.","addr:postcode":"96515","addr:city":"Sonneberg","toilets:wheelchair":"yes","addr:housenumber":"10","contact:phone":"+493675702856","phone":"+49 3675 42263427","name":"Deutsches Spielzeugmuseum","opening_hours":"Tu-Su 09:00-17:00","addr:street":"Beethovenstraße","wikipedia":"de:Deutsches Spielzeugmuseum","wikidata":"Q877904"},"geometry":{"type":"Point","coordinates":[11.1774515,50.3618777]},"id":"4481496789"},{"type":"Feature","properties":{"name":"Deutsches Kloßpressenmuseum","tourism":"museum"},"geometry":{"type":"Point","coordinates":[11.014884,50.5854564]},"id":"4587984185"},{"type":"Feature","properties":{"name":"Fischerhütte","toilets:wheelchair":"no","tourism":"museum","wheelchair":"no"},"geometry":{"type":"Point","coordinates":[11.1868391,50.8764957]},"id":"4882058422"},{"type":"Feature","properties":{"name":"Heimatmuseum Friedrichroda","opening_hours":"Tu,Sa 10:00-12:00; We,Th 10:00-12:00,15:00-17:00","tourism":"museum","phone":"+49 3623 200557"},"geometry":{"type":"Point","coordinates":[10.5640855,50.8584943]},"id":"4896757332"},{"type":"Feature","properties":{"name":"Historische Apotheke","opening_hours":"Mo-Sa 08:00-10:00 || \"und auf Voranmeldung\"","tourism":"museum","website":"http://www.meura.de/rohrbach.htm","contact:phone":"+49 36730 22268"},"geometry":{"type":"Point","coordinates":[11.2201054,50.6044829]},"id":"4941992244"},{"type":"Feature","properties":{"addr:housenumber":"2","name":"Alte Suptur","tourism":"museum","addr:street":"Kreuzstraße","addr:postcode":"07646","addr:city":"Stadtroda"},"geometry":{"type":"Point","coordinates":[11.7280728,50.8554244]},"id":"4952029504"},{"type":"Feature","properties":{"name":"Stadtmuseum","tourism":"museum"},"geometry":{"type":"Point","coordinates":[10.8327878,51.1531901]},"id":"5146229622"},{"type":"Feature","properties":{"name":"Heimatmuseum","tourism":"museum"},"geometry":{"type":"Point","coordinates":[10.588646,50.8355025]},"id":"5241081891"},{"type":"Feature","properties":{"name":"Kleine Synagoge","opening_hours":"Tu-Su 11:00-18:00","tourism":"museum","website":"http://juedisches-leben.erfurt.de/jl/de/index.html","operator":"Stadt Erfurt"},"geometry":{"type":"Point","coordinates":[11.0306681,50.9780848]},"id":"5255488353"},{"type":"Feature","properties":{"addr:suburb":"Güntersberge","addr:housenumber":"38","website":"http://www.mausefallenmuseum.de/","addr:country":"DE","name":"Mausefallen- und Kuriositätenmuseum","opening_hours":"Sa-Su 14:00-17:00","tourism":"museum","addr:street":"Klausstraße","addr:postcode":"06493","addr:city":"Harzgerode"},"geometry":{"type":"Point","coordinates":[10.9831861,51.6450981]},"id":"33378731"},{"type":"Feature","properties":{"name":"Landwirtschaftsmuseum","tourism":"museum","wheelchair":"limited"},"geometry":{"type":"Point","coordinates":[10.9433125,52.569727]},"id":"171505753"},{"type":"Feature","properties":{"wheelchair":"no","website":"http://www.salinemuseum.de/","addr:country":"DE","tourism":"museum","wheelchair:description":"wenige Parkplätze.  Innen sind einige Stufen.","addr:postcode":"06108","addr:city":"Halle (Saale)","toilets:wheelchair":"no","addr:housenumber":"52","phone":"+49 345 2093230","name":"Halloren- und Salinemuseum","opening_hours":"Tu-Su 10:00-17:00","addr:street":"Mansfelder Straße"},"geometry":{"type":"Point","coordinates":[11.9596326,51.4821737]},"id":"248078592"},{"type":"Feature","properties":{"name":"Borlach-Museum","tourism":"museum"},"geometry":{"type":"Point","coordinates":[12.06042,51.2965897]},"id":"248867114"},{"type":"Feature","properties":{"name":"Heimatmuseum","tourism":"museum","created_by":"JOSM"},"geometry":{"type":"Point","coordinates":[10.7094866,51.9706155]},"id":"262694694"},{"type":"Feature","properties":{"addr:housenumber":"161a","website":"www.technikmuseum-dessau.de","phone":"+49 (0)340 6611982","addr:country":"DE","name":"Technikmuseum \"Hugo Junkers\" Dessau","opening_hours":"10:00-17:00","tourism":"museum","addr:street":"Kühnauer Straße","addr:postcode":"06846","addr:city":"Dessau-Roßlau"},"geometry":{"type":"Point","coordinates":[12.2079203,51.8355529]},"id":"280971582"},{"type":"Feature","properties":{"wheelchair":"yes","addr:housenumber":"70","website":"http://www.halloren.de/","addr:country":"DE","name":"Halloren Schokoladenmuseum","opening_hours":"Mo-Fr 09:00-18:30; Sa 10:00-17:00; Su 11:00-17:00","tourism":"museum","addr:street":"Delitzscher Straße","addr:postcode":"06112","addr:city":"Halle (Saale)"},"geometry":{"type":"Point","coordinates":[12.0086318,51.4781101]},"id":"282540126"},{"type":"Feature","properties":{"name":"Wasserzentrum","tourism":"museum"},"geometry":{"type":"Point","coordinates":[12.3484948,51.6299805]},"id":"283651113"},{"type":"Feature","properties":{"wheelchair":"no","contact:phone":"+49 3471 6842560","old_name":"Rathaus Bad Salzelmen","name":"Salzlandmuseum","opening_hours":"Tu,We,Fr-Su 10:00-16:00; Th 10:00-18:00","tourism":"museum","contact:website":"http://www.museum.salzlandkreis.de"},"geometry":{"type":"Point","coordinates":[11.7246276,52.0048375]},"id":"287448896"},{"type":"Feature","properties":{"name":"Diorama Reichardtswerben","note":"Schlacht bei Roßbach 5.11.1757","tourism":"museum","website":"http://www.weissenfelstourist.de/verzeichnis/objekt.php?mandat=33574"},"geometry":{"type":"Point","coordinates":[11.9491542,51.2480804]},"id":"290607104"},{"type":"Feature","properties":{"name":"Städtisches Museum","tourism":"museum","wheelchair":"no"},"geometry":{"type":"Point","coordinates":[11.0481356,51.8968539]},"id":"291046493"},{"type":"Feature","properties":{"name":"Heineamum","tourism":"museum","wheelchair":"limited"},"geometry":{"type":"Point","coordinates":[11.0486014,51.8967893]},"id":"291046494"},{"type":"Feature","properties":{"name":"Gleimhaus","tourism":"museum","wheelchair":"yes","website":"www.gleimhaus.de","phone":"+49 3941 68710"},"geometry":{"type":"Point","coordinates":[11.0495877,51.896658]},"id":"291046495"},{"type":"Feature","properties":{"addr:housename":"Ferropolis","addr:housenumber":"1","addr:country":"DE","name":"Ferropolis","tourism":"museum","addr:street":"Ferropolisstraße","wikipedia":"de:Ferropolis","addr:postcode":"06773","wikidata":"Q896647","addr:city":"Gräfenhainichen"},"geometry":{"type":"Point","coordinates":[12.4466641,51.7589553]},"id":"292655875"},{"type":"Feature","properties":{"name":"Schiffbau- und Schifffahrtsmuseum Roßlau","image":"http://commons.wikimedia.org/wiki/File:Ro%C3%9Flau,Schifffahrtsmuseum.jpg","tourism":"museum","wikipedia":"de:Sachsenberg-Werke","wikidata":"Q2210573"},"geometry":{"type":"Point","coordinates":[12.2326222,51.8840353]},"id":"292961774"},{"type":"Feature","properties":{"wheelchair":"yes","website":"http://www.technikmuseum-magdeburg.de/","addr:country":"DE","tourism":"museum","addr:postcode":"39112","addr:city":"Magdeburg","toilets:wheelchair":"yes","addr:housenumber":"65","name":"Technikmuseum","addr:street":"Dodendorfer Straße","wikipedia":"de:Technikmuseum Magdeburg","wikidata":"Q1356357"},"geometry":{"type":"Point","coordinates":[11.6258083,52.1037682]},"id":"295760961"},{"type":"Feature","properties":{"name":"Börde-Museum Burg Ummendorf","opening_hours":"Tu-Su,PH 12:00-17:00","tourism":"museum","contact:phone":"+49 39409 522","contact:website":"http://www.boerde-museum-burg-ummendorf.de"},"geometry":{"type":"Point","coordinates":[11.1823358,52.1555184]},"id":"302107091"},{"type":"Feature","properties":{"name":"Dorfmuseum \"Alte Schmiede\"","tourism":"museum"},"geometry":{"type":"Point","coordinates":[11.962339,51.4055641]},"id":"305462178"},{"type":"Feature","properties":{"name":"Heimatmuseum Wettin","tourism":"museum"},"geometry":{"type":"Point","coordinates":[11.8077657,51.5841796]},"id":"307621001"},{"type":"Feature","properties":{"name":"Schloß Köthen","tourism":"museum","historic":"castle"},"geometry":{"type":"Point","coordinates":[11.9766088,51.7538827]},"id":"309556105"},{"type":"Feature","properties":{"name":"Hütten- und Technikmuseum","opening_hours":"Mo, Tu, Th, Fr 13:00-16:00; Sa 14:00-16:30","tourism":"museum","wheelchair":"no"},"geometry":{"type":"Point","coordinates":[10.6787856,51.8641092]},"id":"331253126"},{"type":"Feature","properties":{"name":"Tierpark \"Arche Noah\"","tourism":"museum","wheelchair":"yes","created_by":"Potlatch 0.10f"},"geometry":{"type":"Point","coordinates":[11.1853179,52.6296286]},"id":"365847470"},{"type":"Feature","properties":{"name":"Spengler Museum","tourism":"museum","wheelchair":"limited"},"geometry":{"type":"Point","coordinates":[11.2942834,51.478434]},"id":"366925823"},{"type":"Feature","properties":{"name":"Köhlereimuseum","tourism":"museum"},"geometry":{"type":"Point","coordinates":[10.8962026,51.7218072]},"id":"367354166"},{"type":"Feature","properties":{"name":"DDR-Museum im Nahkauf","tourism":"museum"},"geometry":{"type":"Point","coordinates":[11.0369884,51.6897824]},"id":"367528529"},{"type":"Feature","properties":{"name":"Antiquariat \"Alte Schmiede\"","tourism":"museum"},"geometry":{"type":"Point","coordinates":[12.3847728,51.6388171]},"id":"380448694"},{"type":"Feature","properties":{"name":"Kunst- und Naturalienkammer","tourism":"museum","wheelchair":"yes"},"geometry":{"type":"Point","coordinates":[11.9709553,51.4780749]},"id":"387855700"},{"type":"Feature","properties":{"name":"Max-Klinger-Haus","opening_hours":"Apr-Oct: Tu-Su 10:00-17:00","tourism":"museum"},"geometry":{"type":"Point","coordinates":[11.7911383,51.179226]},"id":"410837004"},{"type":"Feature","properties":{"addr:housenumber":"147","opening_hours:note":"Soll bedeuten 1 Mittwoch im Monat von 10:00-16:00 offen","phone":"+49 (340) 8991039","name":"Strommuseum","opening_hours":"We[1] 10:00-16:00","tourism":"museum","addr:street":"Kornhausstraße"},"geometry":{"type":"Point","coordinates":[12.2152886,51.8565582]},"id":"412265023"},{"type":"Feature","properties":{"name":"Eisenbahnmuseum","tourism":"museum","museum":"railway"},"geometry":{"type":"Point","coordinates":[12.0862326,52.1164461]},"id":"415420224"},{"type":"Feature","properties":{"name":"Heimatmuseum","tourism":"museum"},"geometry":{"type":"Point","coordinates":[11.0406928,51.4365515]},"id":"418884372"},{"type":"Feature","properties":{"name":"Glockenmuseum","opening_hours":"Apr-Oct: We-Su 10:00-12:00,14:00-16:00; PH We-Su 10:00-12:00,14:00-16:00","tourism":"museum"},"geometry":{"type":"Point","coordinates":[11.6839666,51.2233583]},"id":"438307120"},{"type":"Feature","properties":{"name":"Bergbaumuseum","opening_hours":"We-Su 09:30-17:00","tourism":"museum","wikipedia":"de:Wettelrode","wikidata":"Q1149721"},"geometry":{"type":"Point","coordinates":[11.2823131,51.517453]},"id":"473138184"},{"type":"Feature","properties":{"addr:housenumber":"20","website":"http://www.friedensfahrt-museum.de/","phone":"039291-465570","name":"Radsportmuseum \"Course de la Paix\"","opening_hours":"Tu,Th,Sa,Su 13:00-17:00","tourism":"museum","addr:street":"Grabenstraße","addr:postcode":"39221","operator":"Verein für Radfreizeit, Radsportgeschichte und Friedensfahrt e. V. (RRF)","addr:city":"Kleinmühlingen"},"geometry":{"type":"Point","coordinates":[11.7444824,51.9471293]},"id":"493171167"},{"type":"Feature","properties":{"wheelchair":"yes","website":"http://www.landeszentrumwald.sachsen-anhalt.de","name":"Haus des Waldes","opening_hours":"Tu-Fr 09:00-15:00; Su 14:00-17:00","tourism":"museum","operator":"Förderverein Haus des Waldes e.V."},"geometry":{"type":"Point","coordinates":[11.4007434,52.2496446]},"id":"540920070"},{"type":"Feature","properties":{"name":"Schulmuseum","tourism":"museum"},"geometry":{"type":"Point","coordinates":[11.3987363,52.2480755]},"id":"540924828"},{"type":"Feature","properties":{"addr:housenumber":"2","name":"Technisches Denkmal Alte Ziegelei","tourism":"museum","addr:street":"Jacob-Bührer-Straße","addr:postcode":"39343","addr:city":"Hundisburg"},"geometry":{"type":"Point","coordinates":[11.3901549,52.2520071]},"id":"542002355"},{"type":"Feature","properties":{"wheelchair":"yes","addr:housenumber":"3a","website":"http://www.stadtgeschichte.dessau.de","phone":"+49 (0)340 2209612","name":"Museum für Stadtgeschichte (Johannbau)","opening_hours":"Tu-Su 10:00-17:00; PH 10:00-17:00","tourism":"museum","wheelchair:description":"Zugang über Rampe auf der Westseite","addr:street":"Schloßplatz","addr:postcode":"06844","addr:city":"Dessau-Roßlau"},"geometry":{"type":"Point","coordinates":[12.2478349,51.8324776]},"id":"635099739"},{"type":"Feature","properties":{"website":"http://www.efsft.de/","addr:country":"DE","tourism":"museum","addr:postcode":"39418","addr:city":"Staßfurt","phone":"+49 3925 383800","name":"Eisenbahnfreunde Traditionsbahnbetriebswerk Staßfurt e.V.","addr:street":"Güstener Weg","wikipedia":"de:Traditionsbetriebswerk Staßfurt","fax":"+49 3925 288867","wikidata":"Q2447833","email":"vorstand@efsft.de"},"geometry":{"type":"Point","coordinates":[11.5892108,51.8368486]},"id":"655166562"},{"type":"Feature","properties":{"name":"Heimatmuseum Priorau","image":"https://commons.wikimedia.org/wiki/File:Priorau,Heimatmuseum.jpg","tourism":"museum"},"geometry":{"type":"Point","coordinates":[12.2810976,51.7326207]},"id":"683488218"},{"type":"Feature","properties":{"name":"Museum Schloss Bernburg","tourism":"museum"},"geometry":{"type":"Point","coordinates":[11.7343323,51.793695]},"id":"685878716"},{"type":"Feature","properties":{"name":"Museum Annaburg","tourism":"museum"},"geometry":{"type":"Point","coordinates":[13.047844,51.730964]},"id":"705006790"},{"type":"Feature","properties":{"name":"Heimatstube","tourism":"museum"},"geometry":{"type":"Point","coordinates":[10.9444927,51.726296]},"id":"709377495"},{"type":"Feature","properties":{"name":"Alte Münze","opening_hours":"We-Su,PH 10:00-17:00","tourism":"museum","wheelchair":"limited"},"geometry":{"type":"Point","coordinates":[10.9561179,51.5722738]},"id":"738006735"},{"type":"Feature","properties":{"name":"Heimatmuseum","tourism":"museum"},"geometry":{"type":"Point","coordinates":[12.1158857,51.6258446]},"id":"775248461"},{"type":"Feature","properties":{"name":"Grenzanlagen","note":"open air","tourism":"museum","wheelchair":"limited"},"geometry":{"type":"Point","coordinates":[10.9432593,52.5574788]},"id":"778373081"},{"type":"Feature","properties":{"name":"Bernhard Brühl","tourism":"museum"},"geometry":{"type":"Point","coordinates":[12.1618196,51.5262478]},"id":"806842457"},{"type":"Feature","properties":{"name":"Burg Klöden","tourism":"museum"},"geometry":{"type":"Point","coordinates":[12.8245939,51.7594323]},"id":"841894948"},{"type":"Feature","properties":{"name":"Heimatstube","tourism":"museum","wheelchair":"no"},"geometry":{"type":"Point","coordinates":[11.6192103,52.2027811]},"id":"841950933"},{"type":"Feature","properties":{"name":"Grube Glasebach","tourism":"museum"},"geometry":{"type":"Point","coordinates":[11.0602348,51.6128037]},"id":"884787056"},{"type":"Feature","properties":{"wheelchair":"no","addr:housenumber":"18","phone":"+49 3445 201638","name":"Nietzsche-Haus","opening_hours":"Tu-Fr 14:00-17:00; Sa,Su 10:00-16:00","tourism":"museum","addr:street":"Weingarten","addr:postcode":"06618","addr:city":"Naumburg (Saale)","alt_phone":"+49 3445 703503"},"geometry":{"type":"Point","coordinates":[11.8125614,51.1500424]},"id":"959559838"},{"type":"Feature","properties":{"name":"1. Magdeburger Friseurmuseum","tourism":"museum","wheelchair":"yes","website":"www.friseurmuseum-md.de","operator":"Haar-Verband e.V."},"geometry":{"type":"Point","coordinates":[11.5896169,52.1281974]},"id":"963518499"},{"type":"Feature","properties":{"phone":"+49 34976 22209","name":"Synagoge Gröbzig","opening_hours":"Th-Tu 10:00-17:00, Su, PH 13:30-17:30","tourism":"museum","operator":"Verein der Freunde und Förderer des Museums Synagoge Gröbzig e. V.","religion":"jewish"},"geometry":{"type":"Point","coordinates":[11.8763653,51.6813842]},"id":"1209506296"},{"type":"Feature","properties":{"wheelchair":"limited","addr:housenumber":"11","phone":"+49 39203 60906","name":"Mühlenhof","tourism":"museum","addr:street":"Haldensleber Straße","addr:postcode":"39179","addr:city":"Barleben OT Ebendorf"},"geometry":{"type":"Point","coordinates":[11.5714091,52.1848147]},"id":"1255232335"},{"type":"Feature","properties":{"wheelchair":"limited","contact:phone":"+49 3943 601063","name":"Feuerwehrmuseum","opening_hours":"Mo,We,Fr 10:00-14:00; Tu 10:00-16:30; Fr 10:00-14:00; Sa 14:30-17:00","tourism":"museum","wheelchair:description":"Das Erdgeschoss ist für Rollstuhlfahrer zugänglich","contact:website":"http://www.feuerwehrmuseum-wernigerode.de"},"geometry":{"type":"Point","coordinates":[10.7894271,51.8337704]},"id":"1293028789"},{"type":"Feature","properties":{"name":"Hofmuseum Läufer","tourism":"museum","contact:website":"http://www.klietz.com/seiten_klietz.com/hofmuseum.htm"},"geometry":{"type":"Point","coordinates":[12.0634003,52.6684086]},"id":"1308671880"},{"type":"Feature","properties":{"name":"Bauernmuseum","tourism":"museum"},"geometry":{"type":"Point","coordinates":[11.8839973,51.3692467]},"id":"1313055083"},{"type":"Feature","properties":{"wheelchair":"yes","addr:housenumber":"99","website":"http://www.mut-zeitz.de","phone":"+49 3441 228655","addr:country":"DE","name":"Brikettfabrik Herrmannschacht","tourism":"museum","addr:street":"Naumburger Straße","addr:postcode":"06712","addr:city":"Zeitz"},"geometry":{"type":"Point","coordinates":[12.1132561,51.055184]},"id":"1348056800"},{"type":"Feature","properties":{"addr:housenumber":"1","website":"www.foerderverein-schloss-parchen.de","name":"Schloss Parchen","tourism":"museum","addr:street":"Parkstraße","wikipedia":"de:Schloss Parchen","addr:postcode":"39307","wikidata":"Q2242871"},"geometry":{"type":"Point","coordinates":[12.0840291,52.352826]},"id":"1359489040"},{"type":"Feature","properties":{"name":"Fahrradmuseum","tourism":"museum"},"geometry":{"type":"Point","coordinates":[11.8277554,51.5764119]},"id":"1372798697"},{"type":"Feature","properties":{"website":"http://www.museum-petersberg.de","description":"Im Museum Petersberg zeigen wir Ihnen eine Ausstellung zur Geschichte des historischen Saalkreises, einer der ältesten historisch gewachsenen Gebietskörperschaften Mitteldeutschlands.","tourism":"museum","contact:email":"foerderverein-petersberg@t-online.de","addr:postcode":"06193","addr:city":"Petersberg","addr:housenumber":"28","phone":"+49 34606 20229","name":"Museum Petersberg","opening_hours":"Tu-Su 10:00-17:00","addr:street":"Alte Hallesche Straße","contact:website":"http://www.museum-petersberg.de/"},"geometry":{"type":"Point","coordinates":[11.966558,51.5951765]},"id":"1378765545"},{"type":"Feature","properties":{"addr:housenumber":"10","website":"http://www.eisen-reinhard.de/","phone":"+49 34953 22117","name":"Historische Bauschlosserei","opening_hours":"We 11:00-13:00","tourism":"museum","addr:street":"Marktstraße","addr:postcode":"06773","operator":"Historische Bauschlosserei und Schmiedewerkstatt August Reinhard e.V.","addr:city":"Gräfenhainichen"},"geometry":{"type":"Point","coordinates":[12.4599332,51.7323539]},"id":"1387908412"},{"type":"Feature","properties":{"name":"Windmühle","tourism":"museum"},"geometry":{"type":"Point","coordinates":[11.9281184,51.6139786]},"id":"1401545138"},{"type":"Feature","properties":{"name":"Romanisches Haus","tourism":"museum","alt_name":"Käthe Kruse Museum","fee":"yes"},"geometry":{"type":"Point","coordinates":[11.7218632,51.1360367]},"id":"1406784513"},{"type":"Feature","properties":{"name":"Kunsthalle","tourism":"museum"},"geometry":{"type":"Point","coordinates":[11.7220458,51.1359187]},"id":"1406784514"},{"type":"Feature","properties":{"name":"Radierhäuschen","tourism":"museum"},"geometry":{"type":"Point","coordinates":[11.7906463,51.1789803]},"id":"1406790776"},{"type":"Feature","properties":{"name":"Nabu Zentrum Buch","tourism":"museum"},"geometry":{"type":"Point","coordinates":[11.9487373,52.486353]},"id":"1417017178"},{"type":"Feature","properties":{"name":"Museum","opening_hours":"We-Su 14:00-17:00","description":"Café Maschinen Museum","tourism":"museum"},"geometry":{"type":"Point","coordinates":[10.9451526,51.5765736]},"id":"1422856638"},{"type":"Feature","properties":{"name":"Prignitz-Museum","tourism":"museum","wheelchair":"limited"},"geometry":{"type":"Point","coordinates":[12.0783707,52.8265055]},"id":"1461649659"},{"type":"Feature","properties":{"image":"https://commons.wikimedia.org/wiki/File:Polleben_Windm%C3%BChle.jpg","man_made":"windmill","name":"Windmühle Polleben","tourism":"museum","heritage":"yes","start_date":"1847/48"},"geometry":{"type":"Point","coordinates":[11.6086342,51.5769265]},"id":"1468675797"},{"type":"Feature","properties":{"wheelchair":"yes","addr:housenumber":"5a","addr:country":"DE","name":"DDR-Museum Thale","tourism":"museum","addr:street":"Steinbachstraße","addr:postcode":"06502","addr:city":"Thale"},"geometry":{"type":"Point","coordinates":[11.032506,51.7488045]},"id":"1474884364"},{"type":"Feature","properties":{"addr:housenumber":"28","website":"http://www.stadt-nebra.de/de/museen/unser-heimathaus-hedwig-courths-mahler-archiv.html","addr:country":"DE","name":"Heimatmuseum und Hedwig Courts-Mahler Archiv","opening_hours":"Tu-Su 14:00-17:00 || \"nach Vereinbarung\"","tourism":"museum","addr:street":"Breite Straße","addr:postcode":"06642","addr:city":"Nebra"},"geometry":{"type":"Point","coordinates":[11.5775972,51.2865299]},"id":"1479537282"},{"type":"Feature","properties":{"name":"Landwirtschaftliches Museum Sonnekalb","tourism":"museum","wheelchair":"limited"},"geometry":{"type":"Point","coordinates":[11.6744626,51.1053275]},"id":"1483912645"},{"type":"Feature","properties":{"name":"Burgmuseum","tourism":"museum"},"geometry":{"type":"Point","coordinates":[11.5937137,51.3772111]},"id":"1510417146"},{"type":"Feature","properties":{"name":"Holländer Mühle","image":"https://commons.wikimedia.org/wiki/File%3ADrossdorf_Windmuehle.jpg","tourism":"museum","man_made":"windmill","windmill:vanes":"no"},"geometry":{"type":"Point","coordinates":[12.1256216,51.0103994]},"id":"1511937395"},{"type":"Feature","properties":{"name":"Burgmuseum","tourism":"museum"},"geometry":{"type":"Point","coordinates":[11.8855563,51.9288503]},"id":"1524481302"},{"type":"Feature","properties":{"name":"Altmärkische Museum","tourism":"museum","source":"OSB-Hinweis"},"geometry":{"type":"Point","coordinates":[11.8631965,52.600691]},"id":"1578225673"},{"type":"Feature","properties":{"name":"Museum Wurzelsepp","tourism":"museum","website":"http://www.wurzelsepp-peckfitz.de/"},"geometry":{"type":"Point","coordinates":[11.1749733,52.5188798]},"id":"1604020485"},{"type":"Feature","properties":{"name":"Lapidarium St. Gertraud","tourism":"museum"},"geometry":{"type":"Point","coordinates":[11.6691129,52.0763431]},"id":"1651301007"},{"type":"Feature","properties":{"name":"Hugenottenkabinett","tourism":"museum"},"geometry":{"type":"Point","coordinates":[11.8554336,52.2722053]},"id":"1654059135"},{"type":"Feature","properties":{"wheelchair":"yes","addr:housenumber":"11","phone":"+49 3473 22659-42","name":"Kriminalpanoptikum","opening_hours":"Tu-Th 14:00-17:00; Sa,Su 12:00-17:00","tourism":"museum","addr:street":"An der Darre","addr:postcode":"06449","contact:website":"http://www.kriminalpanoptikum.de","addr:city":"Aschersleben"},"geometry":{"type":"Point","coordinates":[11.4514441,51.7548287]},"id":"1672141169"},{"type":"Feature","properties":{"name":"Wassermühle","tourism":"museum"},"geometry":{"type":"Point","coordinates":[11.9016011,51.4390265]},"id":"1682384308"},{"type":"Feature","properties":{"name":"Heimatstube Döllnitz","tourism":"museum","website":"http://www.heimatverein-döllnitz.de"},"geometry":{"type":"Point","coordinates":[12.0270775,51.4069496]},"id":"1705505471"},{"type":"Feature","properties":{"name":"Backsteinmuseum","tourism":"museum"},"geometry":{"type":"Point","coordinates":[12.0160095,52.5016031]},"id":"1773889989"},{"type":"Feature","properties":{"wheelchair":"yes","addr:housenumber":"1","website":"http://www.stiftung-kloster-jerichow.de/","phone":"+49 39343 285","name":"Klostermuseum","tourism":"museum","addr:street":"Am Kloster","fax":"+49 39343 929926","addr:postcode":"39319","addr:city":"Jerichow"},"geometry":{"type":"Point","coordinates":[12.0161594,52.5018636]},"id":"1773889990"},{"type":"Feature","properties":{"wheelchair":"limited","addr:housenumber":"9","website":"http://www.saalekreis.de/index.php?id=104011000156","addr:country":"DE","name":"Kulturhistorisches Museum Schloss Merseburg","tourism":"museum","addr:street":"Domplatz","addr:postcode":"06217","addr:city":"Merseburg"},"geometry":{"type":"Point","coordinates":[12.0013374,51.3591083]},"id":"1783064708"},{"type":"Feature","properties":{"wheelchair":"limited","old_name":"ehem. Klausur","name":"Kloster Ilsenburg","tourism":"museum","heritage":"4","heritage:operator":"lda","wikidata":"Q1775389"},"geometry":{"type":"Point","coordinates":[10.6786986,51.8596237]},"id":"1785749318"},{"type":"Feature","properties":{"name":"Triasausstellung","tourism":"museum"},"geometry":{"type":"Point","coordinates":[11.5797928,51.2872358]},"id":"1848016295"},{"type":"Feature","properties":{"name":"Schuhmuseum Weißenfels","tourism":"museum","designation":"Museum"},"geometry":{"type":"Point","coordinates":[11.9746143,51.2001068]},"id":"1879750343"},{"type":"Feature","properties":{"name":"Christliche Kunst","tourism":"museum","source":"http://www.christlichekunst-wb.de"},"geometry":{"type":"Point","coordinates":[12.6437402,51.8667054]},"id":"1973880530"},{"type":"Feature","properties":{"name":"Anhaltische Harzbahn","opening_hours":"Apr-Oct Sa 10:00-18:00","tourism":"museum","operator":"Freundeskreis Selketalbahn e. V. (FKS)","url":"http://www.selketalbahn.de/museum.htm"},"geometry":{"type":"Point","coordinates":[11.1468103,51.7298867]},"id":"1997703389"},{"type":"Feature","properties":{"name":"Heinrich-Schütz-Haus Weißenfels","tourism":"museum","wheelchair":"limited","designation":"Heinrich-Schütz-Haus"},"geometry":{"type":"Point","coordinates":[11.971363,51.1996931]},"id":"2006093642"},{"type":"Feature","properties":{"addr:housenumber":"22","website":"https://www.lkjl.de/de/kreismuseum.html","name":"Kreismuseum Jerichower Land","tourism":"museum","addr:street":"Mützelstraße","addr:postcode":"39307"},"geometry":{"type":"Point","coordinates":[12.1626686,52.4036256]},"id":"2057784301"},{"type":"Feature","properties":{"name":"Kriegerdenkmal","opening_hours":"24/7","tourism":"museum"},"geometry":{"type":"Point","coordinates":[11.220331,51.7155461]},"id":"2082329966"},{"type":"Feature","properties":{"name":"Autobahnkirche Brehna","tourism":"museum","designation":"Kirche"},"geometry":{"type":"Point","coordinates":[12.2131948,51.5569972]},"id":"2096214655"},{"type":"Feature","properties":{"name":"Heimatstube","tourism":"museum"},"geometry":{"type":"Point","coordinates":[11.3034949,51.9943718]},"id":"2135946602"},{"type":"Feature","properties":{"name":"Grenzmuseum Sorge","tourism":"museum","website":"http://www.grenzmuseum-sorge.de/"},"geometry":{"type":"Point","coordinates":[10.6975289,51.6932981]},"id":"2143122265"},{"type":"Feature","properties":{"name":"Filmmuseum","opening_hours":"Tu-Su,PH 10:00-16:00","tourism":"museum"},"geometry":{"type":"Point","coordinates":[11.2185561,51.7187517]},"id":"2161238403"},{"type":"Feature","properties":{"name":"Museum für Bodenschätzung","tourism":"museum"},"geometry":{"type":"Point","coordinates":[11.6747151,51.9493856]},"id":"2193383462"},{"type":"Feature","properties":{"name":"Heimatmuseum","tourism":"museum","designation":"Museum"},"geometry":{"type":"Point","coordinates":[12.090996,51.9690761]},"id":"2196039197"},{"type":"Feature","properties":{"name":"Heimatmuseum","tourism":"museum"},"geometry":{"type":"Point","coordinates":[12.042032,51.122708]},"id":"2211739302"},{"type":"Feature","properties":{"name":"Wassermühle Zimmermann","tourism":"museum"},"geometry":{"type":"Point","coordinates":[10.6352414,51.9186303]},"id":"2268883634"},{"type":"Feature","properties":{"image":"http://i.imgur.com/YPCCiPyl.jpg","website":"http://andreas-freyer.de/index.html","craft":"handicraft","name":"ehemalige Kirche Kaltenmark","tourism":"museum","source":"Panasonic DMC-TZ5"},"geometry":{"type":"Point","coordinates":[11.9447619,51.6158048]},"id":"2270841984"},{"type":"Feature","properties":{"name":"Eisenbahnmuseum","tourism":"museum","museum":"railway"},"geometry":{"type":"Point","coordinates":[12.1960712,52.2327935]},"id":"2281235634"},{"type":"Feature","properties":{"name":"Heimatmuseum Schollene","tourism":"museum","addr:postcode":"14715"},"geometry":{"type":"Point","coordinates":[12.2191526,52.6764855]},"id":"2289673144"},{"type":"Feature","properties":{"name":"Hallesches Tor","toilets:wheelchair":"no","tourism":"museum","wheelchair":"no"},"geometry":{"type":"Point","coordinates":[11.9012041,51.6332812]},"id":"2315891891"},{"type":"Feature","properties":{"name":"Stiftskirche, Domschatz","tourism":"museum","wheelchair":"no","wikipedia":"de:Domschatzkammer Quedlinburg","wikidata":"Q870375"},"geometry":{"type":"Point","coordinates":[11.1362944,51.78611]},"id":"2322979572"},{"type":"Feature","properties":{"name":"Burgmuseum","tourism":"museum"},"geometry":{"type":"Point","coordinates":[11.9763173,52.5436043]},"id":"2391018667"},{"type":"Feature","properties":{"name":"Stadtmuseum","tourism":"museum"},"geometry":{"type":"Point","coordinates":[11.9706745,52.5407371]},"id":"2391018695"},{"type":"Feature","properties":{"addr:housenumber":"5","contact:phone":"+49 39322 92844","name":"Burgmuseum Schloßfreiheit","opening_hours":"Jul-Oct: Tu,Fr-Su 13:00-17:00","tourism":"museum","addr:street":"Schloßfreiheit"},"geometry":{"type":"Point","coordinates":[11.9760193,52.5429504]},"id":"2391018712"},{"type":"Feature","properties":{"name":"Schloßmuseum","tourism":"museum","wheelchair":"no","operator":"Stadt Quedlinburg"},"geometry":{"type":"Point","coordinates":[11.1363533,51.786298]},"id":"2449940718"},{"type":"Feature","properties":{"name":"Uhrenmuseum Treseburg","opening_hours":"09:00-17:00","tourism":"museum"},"geometry":{"type":"Point","coordinates":[10.9713265,51.7157646]},"id":"2482619434"},{"type":"Feature","properties":{"name":"Simonetti-Haus","tourism":"museum"},"geometry":{"type":"Point","coordinates":[12.4468148,51.8830276]},"id":"2494523754"},{"type":"Feature","properties":{"name":"Anhaltische Gemäldegalerie","tourism":"museum"},"geometry":{"type":"Point","coordinates":[12.2304148,51.8441467]},"id":"2496762171"},{"type":"Feature","properties":{"name":"Anhaltische Gemäldegalerie","tourism":"museum"},"geometry":{"type":"Point","coordinates":[12.2313556,51.8427288]},"id":"2496764887"},{"type":"Feature","properties":{"name":"Dorfmuseum Großgörschen","tourism":"museum"},"geometry":{"type":"Point","coordinates":[12.1853578,51.2166271]},"id":"2612541564"},{"type":"Feature","properties":{"name":"Militärhistorisches Museum Anhalt","tourism":"museum","operator":"Förderverein für das Militärhistorische Museum Anhalt e. V."},"geometry":{"type":"Point","coordinates":[12.2577241,51.8949642]},"id":"2688775275"},{"type":"Feature","properties":{"addr:housenumber":"28","name":"Zinnfigurenkabinett","tourism":"museum","addr:street":"Zerbster Straße","addr:postcode":"39288","addr:city":"Burg"},"geometry":{"type":"Point","coordinates":[11.8596734,52.2689377]},"id":"2776405829"},{"type":"Feature","properties":{"wheelchair":"yes","website":"http://www.informationszentrum-hausamsee-schlaitz.de","addr:country":"DE","tourism":"museum","addr:postcode":"06774","addr:city":"Muldestausee","toilets:wheelchair":"yes","addr:housenumber":"2","phone":"+49 34955 21490","name":"Haus am See","opening_hours":"Apr-Oct Su 14:00-17:00; Nov-Mar Su 13:00-16:00","addr:street":"Am Muldestausee","entrance":"main"},"geometry":{"type":"Point","coordinates":[12.4186665,51.6493061]},"id":"2820615830"},{"type":"Feature","properties":{"name":"Ausstellung zum Tagebau","tourism":"museum","entrance":"main","operator":"Heidecamp Schlaitz"},"geometry":{"type":"Point","coordinates":[12.4195923,51.6490688]},"id":"2820670409"},{"type":"Feature","properties":{"name":"Heimatstübchen, Stemmern","tourism":"museum"},"geometry":{"type":"Point","coordinates":[11.5725962,51.9968336]},"id":"3053513996"},{"type":"Feature","properties":{"note":"\"DB Baustelle Knoten Halle Informationspunkt\" ist der Titel laut örtlichem Aushang","wheelchair":"yes","level":"0","name":"DB Baustelle Knoten Halle Informationspunkt","opening_hours":"We-Su 12:00-19:00","tourism":"museum","source":"survey","operator":"Deutsche Bahn"},"geometry":{"type":"Point","coordinates":[11.9859617,51.4770468]},"id":"3067536258"},{"type":"Feature","properties":{"name":"Museum zur Geschichte der Eisenbahnstrecke Leipzig - Großkorbetha","tourism":"museum","website":"http://www.eisenbahnfreunde-koetzschau.com/"},"geometry":{"type":"Point","coordinates":[12.1238526,51.3046635]},"id":"3150939525"},{"type":"Feature","properties":{"addr:housenumber":"2","website":"https://www.circusmuseum-magdeburg.de/","addr:country":"DE","name":"Circusmuseum","opening_hours":"Mo,We,Th,Fr 10:00-15:00; Tu 10:00-18:00","tourism":"museum","addr:street":"Brauereistraße","addr:postcode":"39104","addr:city":"Magdeburg"},"geometry":{"type":"Point","coordinates":[11.6382016,52.1040286]},"id":"3580651295"},{"type":"Feature","properties":{"name":"Stadtmuseum im Klosterhof","opening_hours":"Fr 11:00 - 17:00; Sa,Su 13:00 - 16:00","tourism":"museum","operator":"Stadt Coswig (Anhalt)"},"geometry":{"type":"Point","coordinates":[12.4590374,51.8823802]},"id":"3583915511"},{"type":"Feature","properties":{"wheelchair":"no","addr:housenumber":"8","addr:country":"DE","name":"Kunstforum","tourism":"museum","addr:street":"Bernburger Straße","addr:postcode":"06108","operator":"Sparkasse","addr:city":"Halle (Saale)"},"geometry":{"type":"Point","coordinates":[11.9658298,51.4935583]},"id":"3590296763"},{"type":"Feature","properties":{"addr:housenumber":"47","website":"http://www.garnisonsverein.de/index.php/museum","addr:country":"DE","name":"Garnisonsmuseum Quedlinburg","tourism":"museum","addr:street":"Steinweg","addr:postcode":"06484","addr:city":"Quedlinburg"},"geometry":{"type":"Point","coordinates":[11.1534346,51.7898915]},"id":"3611145158"},{"type":"Feature","properties":{"wheelchair":"no","addr:housenumber":"1","addr:country":"DE","name":"Franckesche Stiftungen zu Halle, Franckes Wohnhaus","tourism":"museum","addr:street":"Franckeplatz","addr:postcode":"06110","addr:city":"Halle (Saale)"},"geometry":{"type":"Point","coordinates":[11.9709125,51.4777697]},"id":"3660707225"},{"type":"Feature","properties":{"name":"Mitteldeutsches Sanitätsmuseum","opening_hours":"Mo-Su 14:00-18:00","tourism":"museum"},"geometry":{"type":"Point","coordinates":[11.986631,51.7504952]},"id":"3764327599"},{"type":"Feature","properties":{"name":"Spinndüsenmuseum Gröbzig","opening_hours":"\"Besichtigung nach telefonischer Anmeldung\"","tourism":"museum","phone":"+49 34976 22210"},"geometry":{"type":"Point","coordinates":[11.870192,51.682312]},"id":"3764327604"},{"type":"Feature","properties":{"name":"Bahnmuseum der Magdeburger Eisenbahnfreunde e.V.","tourism":"museum"},"geometry":{"type":"Point","coordinates":[11.6609235,52.1504163]},"id":"3774848513"},{"type":"Feature","properties":{"name":"Händel-Haus","toilets:wheelchair":"yes","tourism":"museum","wheelchair":"no","wheelchair:description":"Klingel für Rollstuhlfahrer + Fahrstuhl vorhanden!"},"geometry":{"type":"Point","coordinates":[11.9669951,51.4840735]},"id":"3785844856"},{"type":"Feature","properties":{"wheelchair":"no","website":"http://www.pflug-ev.de","phone":"+49 3491 409004","name":"Haus der Geschichte","opening_hours":"Tu-Su,PH 10:00-17:00","tourism":"museum","designation":"Museum mit DDR-Bezug","operator":"PFLUG e. V."},"geometry":{"type":"Point","coordinates":[12.6415043,51.8662591]},"id":"3823335404"},{"type":"Feature","properties":{"name":"Novalis-Gedenkstätte","tourism":"museum","website":"http://www.weissenfels.de/de/novalis-gedenkstaette/novalis-gedenkstaette.html"},"geometry":{"type":"Point","coordinates":[11.9695061,51.1998467]},"id":"3858432964"},{"type":"Feature","properties":{"toilets:wheelchair":"yes","wheelchair":"yes","addr:housenumber":"4","website":"www.besucherzentrum-geiseltal.de","phone":"034633 90825","name":"Fundort Pfännerhall","opening_hours":"Mar-Oct We-Su 10:00-18:00; Nov-Feb We-Su 11:00-17:00; PH 10:00-18:00","tourism":"museum","addr:street":"Grubenweg","email":"kontakt@besucherzentrum-geiseltal.de"},"geometry":{"type":"Point","coordinates":[11.9040235,51.2921627]},"id":"3932236494"},{"type":"Feature","properties":{"name":"Mühlenmuseum","tourism":"museum"},"geometry":{"type":"Point","coordinates":[12.708014,51.6833477]},"id":"3993244296"},{"type":"Feature","properties":{"wheelchair":"limited","website":"http://museum-stassfurt.de","phone:mobile":"+49 160 97442898","amenity":"bicycle_repair_station","tourism":"museum","addr:postcode":"39418","operator":"Ingo und Kerstin Schramm","url":"http://slk-museum.de","addr:city":"Staßfurt","addr:housenumber":"14","phone":"+49 3925 9469601","name":"Fahrzeugmuseum Staßfurt","opening_hours":"Fr-Su 11:00-18:00; \"on appointment\"","addr:street":"Berlepschstraße","email":"fahrzeugmuseum@arcor.de"},"geometry":{"type":"Point","coordinates":[11.6015367,51.8592631]},"id":"4128056889"},{"type":"Feature","properties":{"wheelchair":"limited","addr:housenumber":"12","website":"http://www.beatlesmuseum.net","phone":"+49 345 290390","addr:country":"DE","name":"Beatles Museum","tourism":"museum","wheelchair:description":"zugang für Rollstuhl nur im EG, sehr eng","addr:street":"Alter Markt","addr:postcode":"06108","addr:city":"Halle (Saale)"},"geometry":{"type":"Point","coordinates":[11.9684045,51.4802397]},"id":"4180444093"},{"type":"Feature","properties":{"contact:phone":"+49 3445 24110","name":"Apothekenmuseum","opening_hours":"Mo-Fr 08:00-18:00; Sa 08:00-12:00","tourism":"museum","contact:website":"http://www.loewen-apotheke-naumburg.de/Apothekenmuseum/apothekenmuseum.html","operator":"Dr. Andreas Hünerbein"},"geometry":{"type":"Point","coordinates":[11.8093827,51.1523609]},"id":"4204819089"},{"type":"Feature","properties":{"name":"Historischer Bienenstand","FIXME":" Position is a guess","tourism":"museum","museum":"apis mellifera"},"geometry":{"type":"Point","coordinates":[11.5735957,51.2897211]},"id":"4221253298"},{"type":"Feature","properties":{"contact:phone":"+49 34722 30480","name":"Van de Merwe-Museum","opening_hours":"\"nur nach Voranmeldung\"","tourism":"museum","contact:email":"office@schlossbiendorf.de","contact:website":"http://www.schlossbiendorf.de/de/home"},"geometry":{"type":"Point","coordinates":[11.850885,51.7526995]},"id":"4222651481"},{"type":"Feature","properties":{"wheelchair":"no","website":"http://www.haendelhaus.de","addr:country":"DE","tourism":"museum","wheelchair:description":"unter Bereich barrierefrei, Museum baut gerade aus","addr:postcode":"06108","addr:city":"Halle (Saale)","toilets:wheelchair":"yes","addr:housenumber":"5","phone":"49 (0) 345 / 500 90-0 oder -221","name":"Händel-Haus","addr:street":"Große Nikolaistraße"},"geometry":{"type":"Point","coordinates":[11.9673379,51.4841054]},"id":"4243968112"},{"type":"Feature","properties":{"wheelchair":"no","addr:housenumber":"12","website":"http://museum.altertum.uni-halle.de/","phone":"+49 345 5524018","name":"Archäologisches Museum Robertinum","tourism":"museum","wheelchair:description":"ca. 7 cm Stufe am Seiteneingang rechts, Rollstuhlparkplatz vor der Tür","addr:street":"Universitätsplatz","addr:postcode":"06108","addr:city":"Halle"},"geometry":{"type":"Point","coordinates":[11.9701074,51.4863096]},"id":"4258250501"},{"type":"Feature","properties":{"wheelchair":"no","contact:phone":"+49 3925 289280","name":"Rundfunk- und Fernsehgerätesammlung Staßfurt","opening_hours":"Mo-Th 08:00-14:00; Fr 08:00-12:00; Sa[1] 09:30-12:30","tourism":"museum","contact:website":"www.rft-verein-stassfurt.de","operator":"Freunde der Staßfurter Rundfunk- und Fernsehtechnik e. V."},"geometry":{"type":"Point","coordinates":[11.5666807,51.86314]},"id":"4313640475"},{"type":"Feature","properties":{"addr:housenumber":"50a","name":"Ausstellungskabinett der Leopoldina","tourism":"museum","addr:street":"August-Bebel-Straße","addr:postcode":"06108","operator":"Deutsche Akademie der Naturforscher Leopoldina e. V.","addr:city":"Halle (Saale)"},"geometry":{"type":"Point","coordinates":[11.97042,51.4888373]},"id":"4389468498"},{"type":"Feature","properties":{"wheelchair":"no","name":"St. Wiperti Kirche","opening_hours":"May-Oct Mo-Fr 10:00-12:00,14:00-17:00","tourism":"museum","designation":"Unesco Weltkulturerbe","entrance":"yes","contact:website":"http://www.wiperti.de/oeffnungszeit.htm","start_date":"936"},"geometry":{"type":"Point","coordinates":[11.130457,51.7848023]},"id":"4407684633"},{"type":"Feature","properties":{"addr:housenumber":"1","name":"Obscurum Thale","opening_hours":"10:00-12:00,13:00-17:00","tourism":"museum","addr:street":"Bahnhofstraße","addr:postcode":"06502","addr:city":"Thale"},"geometry":{"type":"Point","coordinates":[11.0313558,51.7459226]},"id":"4416072971"},{"type":"Feature","properties":{"name":"KZ-Gedenkstätte Wansleben","tourism":"museum","website":"http://www.kz-wansleben.de/German/start.html"},"geometry":{"type":"Point","coordinates":[11.744026,51.4773674]},"id":"4437943004"},{"type":"Feature","properties":{"name":"Harzer Baumkuchenhaus","note":"Museum und Schaubäckerei","tourism":"museum"},"geometry":{"type":"Point","coordinates":[10.7579887,51.8493005]},"id":"4506889484"},{"type":"Feature","properties":{"name":"Turmuhrenmuseum","tourism":"museum"},"geometry":{"type":"Point","coordinates":[11.7535022,52.8917581]},"id":"4551302420"},{"type":"Feature","properties":{"name":"Deutsches Kinderwagenmuseum","tourism":"museum"},"geometry":{"type":"Point","coordinates":[12.1254577,51.0510902]},"id":"4594513951"},{"type":"Feature","properties":{"name":"Kunstmuseum Kloster Unser Lieben Frauen","toilets:wheelchair":"yes","tourism":"museum","wheelchair":"yes"},"geometry":{"type":"Point","coordinates":[11.6368947,52.1273723]},"id":"4696161828"},{"type":"Feature","properties":{"name":"Bauernmuseum Alte Schäferei","tourism":"museum"},"geometry":{"type":"Point","coordinates":[11.5916198,51.3767894]},"id":"4707323297"},{"type":"Feature","properties":{"name":"Heimat Museum","tourism":"museum"},"geometry":{"type":"Point","coordinates":[10.8917043,52.0340091]},"id":"4897221958"},{"type":"Feature","properties":{"name":"Eisenbahn und Spielzeugmuseum","tourism":"museum"},"geometry":{"type":"Point","coordinates":[11.1399361,51.7886377]},"id":"4936752719"},{"type":"Feature","properties":{"name":"Haus der Flüsse","tourism":"museum","website":"http://www.haus-der-fluesse.de"},"geometry":{"type":"Point","coordinates":[12.0697823,52.8226437]},"id":"4937960676"},{"type":"Feature","properties":{"wheelchair":"limited","name":"Jahrtausendturm","tourism":"museum","wheelchair:description":"Lediglich die unterste Ebene ist für Rollstuhlfahrer erreichbar. Höhere Stockwerke nur über Treppen erreichbar. Außenrampe für Rollstuhlfahrer ebenfalls ungeeignet.","addr:street":"Herrenkrugstraße","addr:postcode":"39114","addr:city":"Magdeburg"},"geometry":{"type":"Point","coordinates":[11.6664421,52.1387529]},"id":"4969627222"},{"type":"Feature","properties":{"name":"Industriemuseum","tourism":"museum"},"geometry":{"type":"Point","coordinates":[11.7404902,52.0158688]},"id":"5027651782"},{"type":"Feature","properties":{"name":"Komturhof","tourism":"museum","website":"https://www.komturhof-darlingerode.de/","operator":"Heimatverein Darlingerode"},"geometry":{"type":"Point","coordinates":[10.7299371,51.843775]},"id":"5035499682"},{"type":"Feature","properties":{"name":"Tischlereimuseum","tourism":"museum","name:de":"Tischlereimuseum","addr:street":"Eilslebener Kirchstraße"},"geometry":{"type":"Point","coordinates":[11.2132327,52.1477574]},"id":"5095491421"},{"type":"Feature","properties":{"name":"Heimatstube Ilsenburg","tourism":"museum"},"geometry":{"type":"Point","coordinates":[10.6858605,51.8695508]},"id":"5159491810"},{"type":"Feature","properties":{"addr:housenumber":"61","website":"www.mwg-wohnen.de/kontakt/mwg-museumswohnung","name":"MWG-Museumswohnung","tourism":"museum","addr:street":"Hohepfortestraße","source":"www.volksstimme.de/lokal/magdeburg/museumswohnung-unten-rechts-wohnt-die-ddr","entrance":"yes","addr:postcode":"39106","addr:city":"Magdeburg"},"geometry":{"type":"Point","coordinates":[11.6475752,52.1451927]},"id":"5183138180"},{"type":"Feature","properties":{"website":"http://fernmeldemuseum-bottmersdorf.de","addr:country":"de","name":"Fernmeldemuseum","tourism":"museum","addr:street":"Walther-Rathenau-Straße","addr:postcode":"39164","email":"kontakt@fernmeldemuseum-bottmersdorf.de","addr:city":"Bottmersdorf"},"geometry":{"type":"Point","coordinates":[11.4319248,52.0305838]},"id":"5214868612"},{"type":"Feature","properties":{"wheelchair":"no","addr:housenumber":"38","name":"Moses-Mendelssohn-Zentrum","opening_hours":"Nov-Feb Mo-Fr 10:00-16:00; Nov-Feb Sa, Su 13:00-16:00; Mar-Oct 10:00-17:00","tourism":"museum","wheelchair:description":"sehr eng ! - kaum ein durchkommen, zum Teilobergeschoss nur Treppen","addr:street":"Mittelring","entrance":"yes","addr:postcode":"06849","operator":"Moses-Mendelssohn-Gesellschaft Dessau e.V.","addr:city":"Dessau-Roßlau"},"geometry":{"type":"Point","coordinates":[12.2493002,51.8044163]},"id":"5277729935"}]}